ProviderType,DFTA ID,ProgramName,SponsorName,ProgramAddress,ProgramCity,ProgramState,Postcode,Borough,ProgramPhone,DFTA Funded,MonHourOpen,MonHourClose,TueHourOpen,TueHourClose,WedHourOpen,WedHourClose,ThuHourOpen,ThuHourClose,FriHourOpen,FriHourClose,SatHourOpen,SatHourClose,SunHourOpen,SunHourClose,Latitude,Longitude,Community Board,Council District,Census Tract,BIN,BBL,NTA,Location 1,FullAddress,CensusTract_Fetched
OLDER ADULT CENTER CONTRACTS,C9002,WAYSIDE OUT BROWNSVILLE SOCIAL CLUB (C90),WAYSIDE OUT-REACH DEVELOPMENT INC,528 Mother Gaston Blvd,BROOKLYN,NY,11212,BROOKLYN,347-938-8453,Y,9:00,5:00,9:00,5:00,9:00,5:00,9:00,5:00,9:00,5:00,0:00,0:00,0:00,0:00,40.665956,-73.905923,316.0,41.0,912.0,3325326.0,3035610001.0,Brownsville,POINT (-73.905923 40.665956),"528 Mother Gaston Blvd, BROOKLYN, NY 11212",091200
OLDER ADULT CENTER CONTRACTS,W1907,PSS KING TOWERS (W19),PRESBYTERIAN SENIOR SERVICES,50 Lenox Avenue,NEW YORK,NY,10026,MANHATTAN,646-861-2077,Y,8:00,4:00,8:00,4:00,8:00,4:00,8:00,4:00,8:00,4:00,0:00,0:00,0:00,0:00,40.799593,-73.951421,110.0,9.0,186.0,1083312.0,1015960001.0,Central Harlem South,POINT (-73.951421 40.799593),"50 Lenox Avenue, NEW YORK, NY 10026",018600
HOME DELIVERED MEAL SERVICE CONTRACTS,42N02,CCNS HDM - QUEENS 2 (42N),CATHOLIC CHARITIES NEIGHBORHOOD SERVICES INC,103-02 101 Avenue,JAMAICA,NY,11416,QUEENS,718-806-1080,Y,8:00,4:00,8:00,4:00,8:00,4:00,8:00,4:00,8:00,4:00,0:00,0:00,0:00,0:00,40.686027,-73.839777,409.0,28.0,112.0,4198392.0,4094210001.0,Richmond Hill,POINT (-73.839777 40.686027),"103-02 101 Avenue, JAMAICA, NY 11416",011200
HOME DELIVERED MEAL SERVICE CONTRACTS,42N03,CCNS HDM - QUEENS 3 (42N),CATHOLIC CHARITIES NEIGHBORHOOD SERVICES INC,91-34 182 Place,JAMAICA,NY,11423,QUEENS,718-806-1080,Y,8:00,4:00,8:00,4:00,8:00,4:00,8:00,4:00,8:00,4:00,0:00,0:00,0:00,0:00,40.709634,-73.778431,412.0,27.0,470.0,4211802.0,4099000001.0,Jamaica,POINT (-73.778431 40.709634),"91-34 182 Place, JAMAICA, NY 11423",047000
OLDER ADULT CENTER CONTRACTS,C5502,POLISH AND SLAVIC CENTER INC (C55),POLISH & SLAVIC CENTER INC,103 East 7th Street,NEW YORK,NY,10009,MANHATTAN,212-673-7704,Y,9:00,5:00,9:00,5:00,9:00,5:00,9:00,5:00,9:00,5:00,0:00,0:00,0:00,0:00,40.726683,-73.985016,103.0,2.0,32.0,1005851.0,1004350049.0,East Village,POINT (-73.985016 40.726683),"103 East 7th Street, NEW YORK, NY 10009",003200
HOME DELIVERED MEAL SERVICE CONTRACTS,46S01,FLORENCE E. SMITH SENIOR SERVICES (46S),CORONA CONGREGATIONAL CHURCH,102-19 34TH AVENUE,FLUSHING,NY,11368,QUEENS,718-899-0553,Y,,,,,,,,,,,,,,,40.755742,-73.865988,403.0,21.0,379.0,4042602.0,4017170033.0,North Corona,POINT (-73.865988 40.755742),"102-19 34TH AVENUE, FLUSHING, NY 11368",037900
HOME DELIVERED MEAL SERVICE CONTRACTS,24E01,JASA BROOKLYN HOME DELIVERED MEALS - BROOKLYN 6 (24E),THE JEWISH ASSOCIATION FOR SERVICES FOR THE AGED,1201 PENNSYLVANIA AVENUE,BROOKLYN,NY,11239,BROOKLYN,718-769-7455,Y,9:00,5:00,9:00,5:00,9:00,5:00,9:00,5:00,9:00,5:00,0:00,0:00,0:00,0:00,40.651173,-73.885082,305.0,42.0,105801.0,3336175.0,3044350001.0,Starrett City,POINT (-73.885082 40.651173),"1201 PENNSYLVANIA AVENUE, BROOKLYN, NY 11239",105801
HOME DELIVERED MEAL SERVICE CONTRACTS,28E03,RISEBORO HDM - BROOKLYN 3 (28E),RISEBORO COMMUNITY PARTNERSHIP INC,80 Seigel Street,BROOKLYN,NY,11206,BROOKLYN,718-416-4599,Y,9:00,5:00,9:00,5:00,9:00,5:00,9:00,5:00,9:00,5:00,0:00,0:00,0:00,0:00,40.704366,-73.943775,301.0,34.0,491.0,3071447.0,3030960030.0,East Williamsburg,POINT (-73.943775 40.704366),"80 Seigel Street, BROOKLYN, NY 11206",049100
TRANSPORTATION SERVICES CONTRACTS,10601,MID-BRONX - TRAN INDIVIDUAL RIDES - BX SOUTH (106),MID BRONX SENIOR CITIZENS COUNCIL INC,900 Grand Concourse,BRONX,NY,10451,BRONX,718-588-8200,Y,8:00,4:00,8:00,4:00,8:00,4:00,8:00,4:00,8:00,4:00,0:00,0:00,0:00,0:00,40.827412,-73.922277,204.0,16.0,18301.0,2002802.0,2024600001.0,East Concourse-Concourse Village,POINT (-73.922277 40.827412),"900 Grand Concourse, BRONX, NY 10451",018301
HOME DELIVERED MEAL SERVICE CONTRACTS,28E01,RISEBORO HDM - BROOKLYN 1 (28E),RISEBORO COMMUNITY PARTNERSHIP INC,80 Seigel Street,BROOKLYN,NY,11206,BROOKLYN,718-416-4599,Y,9:00,5:00,9:00,5:00,9:00,5:00,9:00,5:00,9:00,5:00,0:00,0:00,0:00,0:00,40.704366,-73.943775,301.0,34.0,491.0,3071447.0,3030960030.0,East Williamsburg,POINT (-73.943775 40.704366),"80 Seigel Street, BROOKLYN, NY 11206",049100
HOME DELIVERED MEAL SERVICE CONTRACTS,28E02,RISEBORO HDM - BROOKLYN 2 (28E),RISEBORO COMMUNITY PARTNERSHIP INC,80 Seigel Street,BROOKLYN,NY,11206,BROOKLYN,718-416-4599,Y,9:00,5:00,9:00,5:00,9:00,5:00,9:00,5:00,9:00,5:00,0:00,0:00,0:00,0:00,40.704366,-73.943775,301.0,34.0,491.0,3071447.0,3030960030.0,East Williamsburg,POINT (-73.943775 40.704366),"80 Seigel Street, BROOKLYN, NY 11206",049100
HOME DELIVERED MEAL SERVICE CONTRACTS,42N01,CCNS HDM - QUEENS 1 (42N),CATHOLIC CHARITIES NEIGHBORHOOD SERVICES INC,89-18 Astoria Boulevard,FLUSHING,NY,11369,QUEENS,718-806-1080,Y,8:00,4:00,8:00,4:00,8:00,4:00,8:00,4:00,8:00,4:00,0:00,0:00,0:00,0:00,40.763727,-73.87957,403.0,22.0,329.0,4032388.0,4013630011.0,Jackson Heights,POINT (-73.87957 40.763727),"89-18 Astoria Boulevard, FLUSHING, NY 11369",032900
HOME DELIVERED MEAL SERVICE CONTRACTS,24E02,JASA BROOKLYN HOME DELIVERED MEALS - BROOKLYN 7 (24E),THE JEWISH ASSOCIATION FOR SERVICES FOR THE AGED,1201 PENNSYLVANIA AVENUE,BROOKLYN,NY,11239,BROOKLYN,718-727-443,Y,9:00,5:00,9:00,5:00,9:00,5:00,9:00,5:00,9:00,5:00,0:00,0:00,0:00,0:00,40.651173,-73.885082,305.0,42.0,105801.0,3336175.0,3044350001.0,Starrett City,POINT (-73.885082 40.651173),"1201 PENNSYLVANIA AVENUE, BROOKLYN, NY 11239",105801
HOME DELIVERED MEAL SERVICE CONTRACTS,28E04,RISEBORO HDM - BROOKLYN 4 (28E),RISEBORO COMMUNITY PARTNERSHIP INC,80 Seigel Street,BROOKLYN,NY,11206,BROOKLYN,718-416-4599,Y,9:00,5:00,9:00,5:00,9:00,5:00,9:00,5:00,9:00,5:00,0:00,0:00,0:00,0:00,40.704366,-73.943775,301.0,34.0,491.0,3071447.0,3030960030.0,East Williamsburg,POINT (-73.943775 40.704366),"80 Seigel Street, BROOKLYN, NY 11206",049100
HOME DELIVERED MEAL SERVICE CONTRACTS,29H01,RISEBORO HOME DELIVERED MEALS - BROOKLYN 1 (29H),RISEBORO COMMUNITY PARTNERSHIP INC,80 Seigel Street,BROOKLYN,NY,11206,BROOKLYN,718-416-4554,Y,,,,,,,,,,,,,,,40.704366,-73.943775,301.0,34.0,491.0,3071447.0,3030960030.0,East Williamsburg,POINT (-73.943775 40.704366),"80 Seigel Street, BROOKLYN, NY 11206",049100
OLDER ADULT CENTER CONTRACTS,C4101,HENRY STREET OAC - GOOD COMPANIONS (C41),HENRY STREET SETTLEMENT,334 Madison Street,NEW YORK,NY,10002,MANHATTAN,212-349-2770,Y,9:00,5:00,9:00,5:00,9:00,5:00,9:00,5:00,9:00,5:00,0:00,0:00,0:00,0:00,40.713266,-73.983237,103.0,2.0,202.0,1077526.0,1002600001.0,Lower East Side,POINT (-73.983237 40.713266),"334 Madison Street, NEW YORK, NY 10002",000202
OLDER ADULT CENTER CONTRACTS,C6502,SAMUEL FIELD Y BAY TERRACE OLDER ADULT CENTER (C65),COMMONPOINT QUEENS,21200 23rd Avenue,FLUSHING,NY,11360,QUEENS,718-225-4253,Y,8:00,4:00,8:00,4:00,8:00,4:00,8:00,4:00,8:00,4:00,0:00,0:00,0:00,0:00,40.781448,-73.778109,407.0,19.0,99704.0,4132408.0,4059000050.0,Ft. Totten-Bay Terrace-Clearview,POINT (-73.778109 40.781448),"21200 23rd Avenue, FLUSHING, NY 11360",099704
OLDER ADULT CENTER CONTRACTS,C6501,SAM FIELD OLDER ADULT CENTER (C65),COMMONPOINT QUEENS,58-20 Little Neck Pkwy,FLUSHING,NY,11362,QUEENS,718-225-6750,Y,9:00,4:00,9:00,4:00,9:00,4:00,9:00,4:00,9:00,4:00,0:00,0:00,0:00,0:00,40.761577,-73.723122,411.0,23.0,152902.0,4173029.0,4083520051.0,Douglas Manor-Douglaston-Little Neck,POINT (-73.723122 40.761577),"58-20 Little Neck Pkwy, FLUSHING, NY 11362",152902
TRANSPORTATION SERVICES CONTRACTS,30902,ARC XVI - TRAN GROUP RIDES - MN NORTH (309),ARC XVI FORT WASHINGTON INC,108 WEST  146 STREET,NEW YORK,NY,10039,MANHATTAN,212-281-1349,Y,9:00,5:00,9:00,5:00,9:00,5:00,9:00,5:00,9:00,5:00,0:00,0:00,0:00,0:00,40.821341,-73.936317,110.0,9.0,232.0,1060189.0,1020140036.0,Central Harlem North-Polo Grounds,POINT (-73.936317 40.821341),"108 WEST  146 STREET, NEW YORK, NY 10039",023200
OLDER ADULT CENTER CONTRACTS,C9004,WAYSIDE OUT LANGSTON HUGHES SOCIAL CLUB (C90),WAYSIDE OUT-REACH DEVELOPMENT INC,301 Sutter Avenue,BROOKLYN,NY,11212,BROOKLYN,917-962-8277,Y,9:00,5:00,9:00,5:00,9:00,5:00,9:00,5:00,9:00,5:00,0:00,0:00,0:00,0:00,40.667312,-73.909072,316.0,41.0,906.0,3348344.0,3035260021.0,Brownsville,POINT (-73.909072 40.667312),"301 Sutter Avenue, BROOKLYN, NY 11212",090600
OLDER ADULT CENTER CONTRACTS,C4704,JCCGCI KINGS HIGHWAY OLDER ADULT CENTER (C47),JEWISH COMMUNITY COUNCIL OF GREATER CONEY ISLAND INC,1879 East 3rd Street,BROOKLYN,NY,11223,BROOKLYN,917-596-0761,Y,9:00,5:00,9:00,5:00,9:00,5:00,9:00,5:00,9:00,5:00,0:00,0:00,0:00,0:00,40.604098,-73.969944,315.0,47.0,41402.0,3178594.0,3066810225.0,Homecrest,POINT (-73.969944 40.604098),"1879 East 3rd Street, BROOKLYN, NY 11223",041402
NATURALLY OCCURING RETIREMENT COMMUNITY CONTRACTS,N6204,SELFHELP FRESH MEADOWS NORC (N62),SELFHELP COMMUNITY SERVICES INC,67-00 192ND STREET,FLUSHING,NY,11365,QUEENS,718-559-4330,Y,9:00,5:00,9:00,5:00,9:00,5:00,9:00,5:00,9:00,5:00,0:00,0:00,0:00,0:00,40.737813,-73.781534,408.0,23.0,1347.0,4444040.0,4071170003.0,Fresh Meadows-Utopia,POINT (-73.781534 40.737813),"67-00 192ND STREET, FLUSHING, NY 11365",134701
GERIATRIC MENTAL HEALTH SERVICES CONTRACTS,4G801,SAMUEL FIELD GMH QN (4G8),COMMONPOINT QUEENS,58-20 LITTLE NECK PARKWAY,FLUSHING,NY,11362,QUEENS,718-225-6750,Y,8:00,4:00,8:00,4:00,8:00,4:00,8:00,4:00,8:00,4:00,0:00,0:00,0:00,0:00,40.761577,-73.723122,411.0,23.0,152902.0,4173029.0,4083520051.0,Douglas Manor-Douglaston-Little Neck,POINT (-73.723122 40.761577),"58-20 LITTLE NECK PARKWAY, FLUSHING, NY 11362",152902
NATURALLY OCCURING RETIREMENT COMMUNITY CONTRACTS,N6201,SELFHELP BOULEVARD GARDENS NORC (N62),SELFHELP COMMUNITY SERVICES INC,51-42 30th AVENUE,FLUSHING,NY,11377,QUEENS,646-648-3202,Y,9:00,5:00,9:00,5:00,9:00,5:00,9:00,5:00,9:00,5:00,0:00,0:00,0:00,0:00,40.759516,-73.904993,401.0,22.0,295.0,4431254.0,4011110001.0,Woodside,POINT (-73.904993 40.759516),"51-42 30th AVENUE, FLUSHING, NY 11377",029500
NATURALLY OCCURING RETIREMENT COMMUNITY CONTRACTS,N5101,CENTER LIGHT PARKCHESTER ENHANCED NORC (N51),CENTERLIGHT HEALTH SYSTEM INC.,1525 Unionport Road,BRONX,NY,10462,BRONX,718-409-1619,Y,9:00,5:00,9:00,5:00,9:00,5:00,9:00,5:00,9:00,5:00,0:00,0:00,0:00,0:00,40.836585,-73.856898,209.0,18.0,212.0,2096653.0,2039387501.0,Parkchester,POINT (-73.856898 40.836585),"1525 Unionport Road, BRONX, NY 10462",021200
NATURALLY OCCURING RETIREMENT COMMUNITY CONTRACTS,N6901,NEIGHBORHOOD SHOPP NORC -LAFAYETTE ESTATES (N69),THE NEIGHBORHOOD SELF-HELP BY OLDER PERSONS PROJECT INC,953 SOUTHERN BLVD,BRONX,NY,10459,BRONX,718-542-0006,Y,9:00,5:00,9:00,5:00,9:00,5:00,9:00,5:00,9:00,5:00,0:00,0:00,0:00,0:00,40.82084,-73.872649,209.0,17.0,28.0,2092725.0,2036270030.0,Soundview-Castle Hill-Clason Point-Harding Park,POINT (-73.872649 40.82084),"953 SOUTHERN BLVD, BRONX, NY 10459",015900
OLDER ADULT CENTER CONTRACTS,W1202,BAY RIDGE CTR FOR HEALTH AND WELLNESS (W12),BAY RIDGE CENTER INC d/b/a BAY RIDGE CENTER,15 Bay Ridge Avenue,BROOKLYN,NY,11209,BROOKLYN,718-748-0650,Y,9:00,5:00,9:00,5:00,9:00,5:00,9:00,5:00,9:00,5:00,0:00,0:00,0:00,0:00,40.638645,-74.035376,310.0,47.0,34.0,3144947.0,3058590060.0,Bay Ridge,POINT (-74.035376 40.638645),"15 Bay Ridge Avenue, BROOKLYN, NY 11209",003400
NATURALLY OCCURING RETIREMENT COMMUNITY CONTRACTS,N5401,HANAC QUEENSVIEW NORC (N54),HANAC INC.,33-34 Crescent Street,LONG ISLAND CITY,NY,11106,QUEENS,718-433-9045,Y,9:00,5:00,9:00,5:00,9:00,5:00,9:00,5:00,9:00,5:00,0:00,0:00,0:00,0:00,40.762105,-73.929717,401.0,22.0,45.0,4430862.0,4005570003.0,Astoria,POINT (-73.929717 40.762105),"33-34 Crescent Street, LONG ISLAND CITY, NY 11106",004500
OLDER ADULT CENTER CONTRACTS,C9302,YOUNG AT HEART SENIOR CENTER AT THE FLATBUSH YMCA (C93),YMCA OF GREATER NEW YORK,1401 Flatbush Avenue,BROOKLYN,NY,11210,BROOKLYN,212-630-9645,Y,9:00,5:00,9:00,5:00,9:00,5:00,9:00,5:00,9:00,5:00,0:00,0:00,0:00,0:00,40.636511,-73.951539,314.0,45.0,788.0,3120877.0,3052280008.0,Flatbush,POINT (-73.951539 40.636511),"1401 Flatbush Avenue, BROOKLYN, NY 11210",078801
OLDER ADULT CENTER CONTRACTS,C9402,YOUNG ISRAEL PROGRAMS MIDWOOD (C94),YOUNG ISRAEL PROGRAMS INC,1694 Ocean Avenue,BROOKLYN,NY,11230,BROOKLYN,718-253-7800,Y,8:00,4:00,8:00,4:00,8:00,4:00,8:00,4:00,8:00,4:00,0:00,0:00,0:00,0:00,40.620447,-73.955405,314.0,44.0,538.0,3180733.0,3067390044.0,Midwood,POINT (-73.955405 40.620447),"1694 Ocean Avenue, BROOKLYN, NY 11230",053800
OLDER ADULT CENTER CONTRACTS,C9701,NEW BEGINNINGS (RIVERDALE Y) (C97),YM YWHA OF THE BRONX dba RIVERDALE YM YWHA,5625 Arlington Avenue,BRONX,NY,10471,BRONX,718-548-8200,Y,8:00,5:00,8:00,5:00,8:00,5:00,8:00,5:00,8:00,5:00,0:00,0:00,0:00,0:00,40.905009,-73.907133,208.0,11.0,323.0,2086312.0,2059520374.0,North Riverdale-Fieldston-Riverdale,POINT (-73.907133 40.905009),"5625 Arlington Avenue, BRONX, NY 10471",032300
HOME DELIVERED MEAL SERVICE CONTRACTS,11Y02,RAIN HOME DELIVERED MEALS - BRONX 3 (11Y),REGIONAL AID FOR INTERIM NEEDS INC,3450 Boston Road,BRONX,NY,10469,BRONX,718-829-2131,Y,9:00,5:00,9:00,5:00,9:00,5:00,9:00,5:00,9:00,5:00,0:00,0:00,0:00,0:00,40.876304,-73.848594,212.0,12.0,364.0,2060739.0,2047370105.0,Eastchester-Edenwald-Baychester,POINT (-73.848594 40.876304),"3450 Boston Road, BRONX, NY 10469",036400
OLDER ADULT CENTER CONTRACTS,C8303,JASA SUE GINSBURG (C83),THE JEWISH ASSOCIATION FOR SERVICES FOR THE AGED,975 Waring Avenue,BRONX,NY,10469,BRONX,718-881-1758,Y,8:00,4:00,8:00,4:00,8:00,4:00,8:00,4:00,8:00,4:00,0:00,0:00,0:00,0:00,40.861214,-73.859738,211.0,13.0,324.0,2093415.0,2044440001.0,Bronxdale,POINT (-73.859738 40.861214),"975 Waring Avenue, BRONX, NY 10469",032400
HOME DELIVERED MEAL SERVICE CONTRACTS,11Y01,RAIN HOME DELIVERED MEALS - BRONX 2 (11Y),REGIONAL AID FOR INTERIM NEEDS INC,3450 Boston Road,BRONX,NY,10469,BRONX,718-829-2131,Y,9:00,5:00,9:00,5:00,9:00,5:00,9:00,5:00,9:00,5:00,0:00,0:00,0:00,0:00,40.876304,-73.848594,212.0,12.0,364.0,2060739.0,2047370105.0,Eastchester-Edenwald-Baychester,POINT (-73.848594 40.876304),"3450 Boston Road, BRONX, NY 10469",036400
OLDER ADULT CENTER CONTRACTS,W1702,AVIS SOUTH SHORE OAC (W17),JEWISH COMMUNITY CENTER OF STATEN ISLAND INC,1297 Arthur Kill Road,STATEN ISLAND,NY,10312,STATEN ISLAND,718-475-5283,Y,8:00,4:00,8:00,4:00,8:00,4:00,8:00,4:00,8:00,4:00,0:00,0:00,0:00,0:00,40.565339,-74.183774,503.0,51.0,228.0,5077603.0,5059000105.0,New Springville-Bloomfield-Travis,POINT (-74.183774 40.565339),"1297 Arthur Kill Road, STATEN ISLAND, NY 10312",022801
OLDER ADULT CENTER CONTRACTS,C9901,JACKIE ROBINSON OLDER ADULT CENTER (C99),CHARLES A WALBURG MULTI SERVICE ORGANIZATION INC,1301 Amsterdam Avenue,NEW YORK,NY,10027,MANHATTAN,212-222-2552,Y,9:00,5:00,9:00,5:00,9:00,5:00,9:00,5:00,9:00,5:00,0:00,0:00,0:00,0:00,40.811994,-73.957264,109.0,7.0,20901.0,1084095.0,1019640001.0,Morningside Heights,POINT (-73.957264 40.811994),"1301 Amsterdam Avenue, NEW YORK, NY 10027",020901
OLDER ADULT CENTER CONTRACTS,4N101,NNORC WOW (4N1),COMMONPOINT QUEENS,58-20 Little Neck Parkway,FLUSHING,NY,11362,QUEENS,718-225-6750,Y,,,,,,,,,,,,,,,40.761577,-73.723122,411.0,23.0,152902.0,4173029.0,4083520051.0,Douglas Manor-Douglaston-Little Neck,POINT (-73.723122 40.761577),"58-20 Little Neck Parkway, FLUSHING, NY 11362",152902
HOMECARE SERVICES CONTRACTS,1HR01,PERSONAL TOUCH - HOME CARE - BX (1HR),PERSONAL-TOUCH HOME CARE OF N.Y. INC.,36-36 33rd Street,LONG ISLAND CITY,NY,11106,QUEENS,718-468-2500,Y,9:00,5:00,9:00,5:00,9:00,5:00,9:00,5:00,9:00,5:00,0:00,0:00,0:00,0:00,40.755141,-73.928728,401.0,26.0,55.0,4007923.0,4006010001.0,Queensbridge-Ravenswood-Long Island City,POINT (-73.928728 40.755141),"36-36 33rd Street, LONG ISLAND CITY, NY 11106",005500
OLDER ADULT CENTER CONTRACTS,C0804,BERGEN BASIN MIDWOOD OLDER ADULT CENTER (C08),BERGEN BASIN COMMUNITY DEVELOPMENT CORPORATION DBA MILLENNIU,2164 Ralph Avenue,BROOKLYN,NY,11234,BROOKLYN,718-253-5557,Y,9:00,5:00,9:00,5:00,9:00,5:00,9:00,5:00,9:00,5:00,0:00,0:00,0:00,0:00,40.625065,-73.917858,318.0,46.0,692.0,3218178.0,3078390001.0,Flatlands,POINT (-73.917858 40.625065),"2164 Ralph Avenue, BROOKLYN, NY 11234",069200
NATURALLY OCCURING RETIREMENT COMMUNITY CONTRACTS,N6803,JASA CONEY ISLAND ACTIVE AGING NORC (N68),THE JEWISH ASSOCIATION FOR SERVICES FOR THE AGED,2950 WEST 35TH STREET,BROOKLYN,NY,11224,BROOKLYN,718-943-7812,Y,9:00,5:00,9:00,5:00,9:00,5:00,9:00,5:00,9:00,5:00,0:00,0:00,0:00,0:00,40.573838,-74.000493,313.0,47.0,342.0,3189511.0,3070460022.0,Seagate-Coney Island,POINT (-74.000493 40.573838),"2950 WEST 35TH STREET, BROOKLYN, NY 11224",034200
OLDER ADULT CENTER CONTRACTS,C1201,BCA BENSONHURST OLDER ADULT CENTER (C12),BROOKLYN CHINESE-AMERICAN ASSOCIATION INC,6409 20th Avenue,BROOKLYN,NY,11204,BROOKLYN,718-331-3088,Y,8:30,4:30,8:30,4:30,8:30,4:30,8:30,4:30,8:30,4:30,0:00,0:00,0:00,0:00,40.616996,-73.985354,311.0,43.0,254.0,3133622.0,3055490005.0,Bensonhurst West,POINT (-73.985354 40.616996),"6409 20th Avenue, BROOKLYN, NY 11204",025400
OLDER ADULT CENTER CONTRACTS,C0503,ARC XVI FORT WASHINGTON OAC (C05),ARC XVI FORT WASHINGTON INC,516 W 181th Street,NEW YORK,NY,10033,MANHATTAN,212-781-5700,Y,9:00,5:00,9:00,5:00,9:00,5:00,9:00,5:00,9:00,5:00,0:00,0:00,0:00,0:00,40.848436,-73.93165,112.0,10.0,269.0,1063614.0,1021520067.0,Washington Heights North,POINT (-73.93165 40.848436),"516 W 181th Street, NEW YORK, NY 10033",026900
OLDER ADULT CENTER CONTRACTS,C8301,JASA HES OLDER ADULT CENTER (C83),THE JEWISH ASSOCIATION FOR SERVICES FOR THE AGED,9502 Seaview Avenue,BROOKLYN,NY,11236,BROOKLYN,718-251-3700,Y,8:00,4:00,8:00,4:00,8:00,4:00,8:00,4:00,8:00,4:00,0:00,0:00,0:00,0:00,40.632808,-73.89122,318.0,46.0,1028.0,3235056.0,3083180008.0,Canarsie,POINT (-73.89122 40.632808),"9502 Seaview Avenue, BROOKLYN, NY 11236",102801
OLDER ADULT CENTER CONTRACTS,C8307,JASA SENIOR ALLIANCE OLDER ADULT CENTER (C83),THE JEWISH ASSOCIATION FOR SERVICES FOR THE AGED,161 Corbin Place,BROOKLYN,NY,11235,BROOKLYN,718-646-4100,Y,8:00,4:00,8:00,4:00,8:00,4:00,8:00,4:00,8:00,4:00,0:00,0:00,0:00,0:00,40.578026,-73.954127,315.0,48.0,61004.0,3245719.0,3087190073.0,Brighton Beach,POINT (-73.954127 40.578026),"161 Corbin Place, BROOKLYN, NY 11235",061004
OLDER ADULT CENTER CONTRACTS,C3514,HAZEL BROOKS OAC (C35),FORT GREENE COUNCIL,961 Ocean Avenue,BROOKLYN,NY,11226,BROOKLYN,347-435-3287,Y,9:00,5:00,9:00,5:00,9:00,5:00,9:00,5:00,9:00,5:00,0:00,0:00,0:00,0:00,40.638891,-73.958877,314.0,40.0,51601.0,3120264.0,3052060062.0,Flatbush,POINT (-73.958877 40.638891),"961 Ocean Avenue, BROOKLYN, NY 11226",051601
OLDER ADULT CENTER CONTRACTS,C3303,FIND AID HAMILTON OAC (C33),FIND AID FOR THE AGED,141 W 73rd Street,NEW YORK,NY,10023,MANHATTAN,212-787-7710,Y,9:00,5:00,9:00,5:00,9:00,5:00,9:00,5:00,9:00,5:00,0:00,0:00,9:00,5:00,40.778624,-73.979527,107.0,6.0,157.0,1030011.0,1011450012.0,Lincoln Square,POINT (-73.979527 40.778624),"141 W 73rd Street, NEW YORK, NY 10023",015700
OLDER ADULT CENTER CONTRACTS,C0201,ALLEN AME THEODORA JACKSON CENTER (C02),ALLEN AME CHURCH dba ALLEN COMMUNITY SENIOR CITIZENS CENTER,92-47 165th Street,JAMAICA,NY,11433,QUEENS,929-357-9552,Y,9:00,5:00,9:00,5:00,9:00,5:00,9:00,5:00,9:00,5:00,0:00,0:00,0:00,0:00,40.704393,-73.794058,412.0,27.0,444.0,4216225.0,4101550029.0,Jamaica,POINT (-73.794058 40.704393),"92-47 165th Street, JAMAICA, NY 11433",044400
OLDER ADULT CENTER CONTRACTS,C3503,SETH LOW SOCIAL CLUB (C35),FORT GREENE COUNCIL,137 Belmont Avenue,BROOKLYN,NY,11212,BROOKLYN,718-485-4991,Y,9:00,5:00,9:00,5:00,9:00,5:00,9:00,5:00,9:00,5:00,0:00,0:00,0:00,0:00,40.669205,-73.905172,316.0,41.0,908.0,3327015.0,3037270001.0,Brownsville,POINT (-73.905172 40.669205),"137 Belmont Avenue, BROOKLYN, NY 11212",090800
TRANSPORTATION SERVICES CONTRACTS,61401,SENTRY- TRAN INDIVIDUAL RIDES - CITYWIDE (614),Fejost LLC,90 Lincoln Avenue,BRONX,NY,10454,BRONX,917-259-7735,Y,9:00,5:00,9:00,5:00,9:00,5:00,9:00,5:00,9:00,5:00,0:00,0:00,0:00,0:00,40.807309,-73.929824,201.0,8.0,19.0,2000682.0,2023080001.0,Mott Haven-Port Morris,POINT (-73.929824 40.807309),"90 Lincoln Avenue, BRONX, NY 10454",001901
NATURALLY OCCURING RETIREMENT COMMUNITY CONTRACTS,N7401,AMALGAMATED PK RESEVOIR NORC (N74),YM YWHA OF THE BRONX dba RIVERDALE YM YWHA,98 VAN CORTLANDT PARK SOUTH,BRONX,NY,10463,BRONX,718-548-4990,Y,9:00,5:00,9:00,5:00,9:00,5:00,9:00,5:00,9:00,5:00,0:00,0:00,0:00,0:00,40.905009,-73.907133,208.0,11.0,323.0,2086312.0,2059520374.0,North Riverdale-Fieldston-Riverdale,POINT (-73.907133 40.905009),"98 VAN CORTLANDT PARK SOUTH, BRONX, NY 10463",028100
OLDER ADULT CENTER CONTRACTS,C4401,INDIA HOME DESI SENIOR CENTER (C44),INDIA HOME INC,85-37 168 Street,JAMAICA,NY,11432,QUEENS,917-825-1559,Y,9:00,5:00,9:00,5:00,9:00,5:00,9:00,5:00,9:00,5:00,0:00,0:00,0:00,0:00,40.713247,-73.796339,408.0,24.0,454.0,4210720.0,4098510017.0,Briarwood-Jamaica Hills,POINT (-73.796339 40.713247),"85-37 168 Street, JAMAICA, NY 11432",045400
OLDER ADULT CENTER CONTRACTS,C5604,QCH QUEENS CENTER FOR GAY SENIORS (QCGS) OAC (C56),QUEENS COMMUNITY HOUSE INC.,37-06 77th Street,FLUSHING,NY,11372,QUEENS,718-533-6459,Y,9:00,5:00,9:00,5:00,9:00,5:00,9:00,5:00,9:00,5:00,0:00,0:00,0:00,0:00,40.748907,-73.88902,403.0,25.0,287.0,4029864.0,4012870010.0,Jackson Heights,POINT (-73.88902 40.748907),"37-06 77th Street, FLUSHING, NY 11372",028700
NATURALLY OCCURING RETIREMENT COMMUNITY CONTRACTS,N6001,ROCHDALE VILLAGE NORC (N60),ROCHDALE VILLAGE SOCIAL SERVICES INC,169-65 137TH AVENUE,JAMAICA,NY,11434,QUEENS,718-286-1541,Y,9:00,5:00,9:00,5:00,9:00,5:00,9:00,5:00,9:00,5:00,0:00,0:00,0:00,0:00,40.672622,-73.770641,412.0,28.0,33402.0,4436348.0,4124950002.0,Springfield Gardens North,POINT (-73.770641 40.672622),"169-65 137TH AVENUE, JAMAICA, NY 11434",033404
OLDER ADULT CENTER CONTRACTS,C8308,JASA STARRETT CITY OLDER ADULT CENTER (C83),THE JEWISH ASSOCIATION FOR SERVICES FOR THE AGED,1540 Van Siclen Avenue,BROOKLYN,NY,11239,BROOKLYN,718-642-1010,Y,8:00,4:00,8:00,4:00,8:00,4:00,8:00,4:00,8:00,4:00,0:00,0:00,0:00,0:00,40.648214,-73.877613,305.0,42.0,105801.0,3343608.0,3044520200.0,Starrett City,POINT (-73.877613 40.648214),"1540 Van Siclen Avenue, BROOKLYN, NY 11239",105801
OLDER ADULT CENTER CONTRACTS,C0202,ALLEN INTERNATIONAL TOWERS AFFILIATE (C02),ALLEN AME CHURCH dba ALLEN COMMUNITY SENIOR CITIZENS CENTER,90-20 170th Street,JAMAICA,NY,11432,QUEENS,718-657-5075,Y,9:00,5:00,9:00,5:00,9:00,5:00,9:00,5:00,9:00,5:00,0:00,0:00,0:00,0:00,40.708578,-73.790579,412.0,27.0,460.0,4209721.0,4098020041.0,Jamaica,POINT (-73.790579 40.708578),"90-20 170th Street, JAMAICA, NY 11432",046000
NATURALLY OCCURING RETIREMENT COMMUNITY CONTRACTS,N5303,HAMILTON MADISON CONFUCIOUS PLAZA NORC (N53),HAMILTON MADISON HOUSE INC,165 PARK ROW (activities and nursing ser,NEW YORK,NY,10038,MANHATTAN,212-349-3724,Y,9:00,5:00,9:00,5:00,9:00,5:00,9:00,5:00,9:00,5:00,0:00,0:00,0:00,0:00,40.713086,-74.000566,103.0,1.0,27.0,1077407.0,1001170001.0,Chinatown,POINT (-74.000566 40.713086),"165 PARK ROW (activities and nursing ser, NEW YORK, NY 10038",002700
OLDER ADULT CENTER CONTRACTS,W2401,GAYLORD WHITE OAC (W24),UNION SETTLEMENT ASSOCIATION,2029 Second Avenue,NEW YORK,NY,10029,MANHATTAN,212-828-6055,Y,9:00,5:00,9:00,5:00,9:00,5:00,9:00,5:00,9:00,5:00,0:00,0:00,0:00,0:00,40.789473,-73.943288,111.0,8.0,170.0,1080669.0,1016540011.0,East Harlem South,POINT (-73.943288 40.789473),"2029 Second Avenue, NEW YORK, NY 10029",017000
OLDER ADULT CENTER CONTRACTS,W2202,JASA DREISER (W22),THE JEWISH ASSOCIATION FOR SERVICES FOR THE AGED,177 Dreiser Loop 2nd Flr.,BRONX,NY,10475,BRONX,718-320-1345,Y,8:00,4:00,8:00,4:00,8:00,4:00,8:00,4:00,8:00,4:00,0:00,0:00,0:00,0:00,40.877087,-73.829619,210.0,12.0,46201.0,2097469.0,2051410500.0,Co-op City,POINT (-73.829619 40.877087),"177 Dreiser Loop 2nd Flr., BRONX, NY 10475",046207
OLDER ADULT CENTER CONTRACTS,C2601,COTHOA LUNCHEON CLUB (C26),COTHOA LUNCHEON CLUB INC,2005 Amsterdam Avenue,NEW YORK,NY,10032,MANHATTAN,212-781-6580,Y,8:00,4:00,8:00,4:00,8:00,4:00,8:00,4:00,8:00,4:00,0:00,0:00,0:00,0:00,40.834326,-73.940952,112.0,10.0,245.0,1062531.0,1021090003.0,Washington Heights South,POINT (-73.940952 40.834326),"2005 Amsterdam Avenue, NEW YORK, NY 10032",024500
OLDER ADULT CENTER CONTRACTS,2TT01,COPO (2TT),COUNCIL OF PEOPLES ORGANIZATION INC.,1081 Coney Island Avenue,BROOKLYN,NY,11230,BROOKLYN,718-434-3266,Y,,,,,,,,,,,,,,,40.631068,-73.966441,314.0,45.0,528.0,3178916.0,3066860076.0,Flatbush,POINT (-73.966441 40.631068),"1081 Coney Island Avenue, BROOKLYN, NY 11230",052800
OLDER ADULT CENTER CONTRACTS,C8304,JASA CLUB 76 OLDER ADULT CENTER (C83),THE JEWISH ASSOCIATION FOR SERVICES FOR THE AGED,120 West 76th Street,NEW YORK,NY,10023,MANHATTAN,212-712-0170,Y,9:00,5:00,9:00,5:00,9:00,5:00,9:00,5:00,9:00,5:00,0:00,0:00,0:00,0:00,40.780342,-73.977739,107.0,6.0,161.0,1030146.0,1011470042.0,Upper West Side,POINT (-73.977739 40.780342),"120 West 76th Street, NEW YORK, NY 10023",016100
OLDER ADULT CENTER CONTRACTS,C8306,JASA SCHEUER CONEY ISLAND OAC (C83),THE JEWISH ASSOCIATION FOR SERVICES FOR THE AGED,3601 Surf Ave Brooklyn NY 11224,BROOKLYN,NY,11224,BROOKLYN,718-373-3954,Y,8:00,4:00,8:00,4:00,8:00,4:00,8:00,4:00,8:00,4:00,0:00,0:00,0:00,0:00,40.573144,-74.001587,313.0,47.0,342.0,3321762.0,3070450031.0,Seagate-Coney Island,POINT (-74.001587 40.573144),"3601 Surf Ave Brooklyn NY 11224, BROOKLYN, NY 11224",034200
OLDER ADULT CENTER CONTRACTS,C1105,BRONXWORKS TWIN PARKS WEST (C11),BRONXWORKS INC,355 EAST 183 Street,BRONX,NY,10458,BRONX,,Y,8:00,4:00,8:00,4:00,8:00,4:00,8:00,4:00,8:00,4:00,0:00,0:00,0:00,0:00,40.856391,-73.895991,205.0,15.0,38302.0,2092394.0,2031430155.0,Fordham South,POINT (-73.895991 40.856391),"355 EAST 183 Street, BRONX, NY 10458",038301
OLDER ADULT CENTER CONTRACTS,C8312,JASA LUNA PARK ANNEX (C83),THE JEWISH ASSOCIATION FOR SERVICES FOR THE AGED,2880 West 12th Street,BROOKLYN,NY,11224,BROOKLYN,718-388-6865,Y,8:00,4:00,8:00,4:00,8:00,4:00,8:00,4:00,8:00,4:00,0:00,0:00,0:00,0:00,40.577347,-73.979625,313.0,47.0,350.0,3196559.0,3072660060.0,West Brighton,POINT (-73.979625 40.577347),"2880 West 12th Street, BROOKLYN, NY 11224",035000
OLDER ADULT CENTER CONTRACTS,C1705,CCNS OZONE PARK OAC (C17),CATHOLIC CHARITIES NEIGHBORHOOD SERVICES INC,103-02 101st Avenue,JAMAICA,NY,11416,QUEENS,718-847-2100,Y,8:00,4:00,8:00,4:00,8:00,4:00,8:00,4:00,8:00,4:00,0:00,0:00,0:00,0:00,40.686027,-73.839777,409.0,29.0,112.0,4198392.0,4094210001.0,Richmond Hill,POINT (-73.839777 40.686027),"103-02 101st Avenue, JAMAICA, NY 11416",011200
OLDER ADULT CENTER CONTRACTS,C4201,HOMECREST BENSONHURST OAC & AVE T BROOKLYN (C42),HOMECREST COMMUNITY SERVICES INC,6915 15th Avenue,BROOKLYN,NY,11228,BROOKLYN,718-621-7960,Y,8:00,3:00,8:00,3:00,8:00,3:00,8:00,3:00,8:00,3:00,0:00,0:00,0:00,0:00,40.620826,-73.999701,311.0,38.0,190.0,3156583.0,3061580001.0,Bensonhurst West,POINT (-73.999701 40.620826),"6915 15th Avenue, BROOKLYN, NY 11228",019000
OLDER ADULT CENTER CONTRACTS,C8201,HUDSON GUILD (C82),HUDSON GUILD,119 9th Avenue,NEW YORK,NY,10011,MANHATTAN,212-924-6710,Y,9:00,5:00,9:00,5:00,9:00,5:00,9:00,5:00,9:00,5:00,0:00,0:00,0:00,0:00,40.743172,-74.00376,104.0,3.0,83.0,1078418.0,1007150010.0,Hudson Yards-Chelsea-Flatiron-Union Square,POINT (-74.00376 40.743172),"119 9th Avenue, NEW YORK, NY 10011",008300
NATURALLY OCCURING RETIREMENT COMMUNITY CONTRACTS,N6102,COMMONPOINT QUEENS DEEPDALE GARDENS NORC (N61),COMMONPOINT QUEENS,57-17 Marathon Parkway,FLUSHING,NY,11362,QUEENS,718-225-3929,Y,9:00,5:00,9:00,5:00,9:00,5:00,9:00,5:00,9:00,5:00,0:00,0:00,0:00,0:00,40.75942,-73.731285,411.0,23.0,152902.0,4459800.0,4083370001.0,Douglas Manor-Douglaston-Little Neck,POINT (-73.731285 40.75942),"57-17 Marathon Parkway, FLUSHING, NY 11362",152902
OLDER ADULT CENTER CONTRACTS,C9403,YOUNG ISRAEL PROGRAMS QUEENS VALLEY II (C94),YOUNG ISRAEL PROGRAMS INC,141-55 77th Avenue,FLUSHING,NY,11367,QUEENS,718-263-6995,Y,8:00,4:00,8:00,4:00,8:00,4:00,8:00,4:00,8:00,4:00,0:00,0:00,0:00,0:00,40.721128,-73.819822,408.0,24.0,77903.0,4143547.0,4066280084.0,Kew Gardens Hills,POINT (-73.819822 40.721128),"141-55 77th Avenue, FLUSHING, NY 11367",077902
OLDER ADULT CENTER CONTRACTS,C2802,CYPRESS HILLS ADULT SOCIAL CLUB (C28),CYPRESS HILLS-FULTON STREET SENIOR CITIZENS CENTER INC,475 Fountain Avenue,BROOKLYN,NY,11208,BROOKLYN,347-529-7333,Y,8:15,4:15,8:15,4:15,8:15,4:15,8:15,4:15,8:15,4:15,0:00,0:00,0:00,0:00,40.668288,-73.873005,305.0,42.0,1210.0,3337041.0,3042920061.0,East New York,POINT (-73.873005 40.668288),"475 Fountain Avenue, BROOKLYN, NY 11208",121000
NATURALLY OCCURING RETIREMENT COMMUNITY CONTRACTS,N6202,SELFHELP BIG SIX NORC (N62),SELFHELP COMMUNITY SERVICES INC,61-10 QUEENS BLVD.,FLUSHING,NY,11377,QUEENS,718-565-6569,Y,9:00,5:00,9:00,5:00,9:00,5:00,9:00,5:00,9:00,5:00,0:00,0:00,0:00,0:00,40.741347,-73.903226,402.0,26.0,245.0,4437383.0,4023140100.0,Woodside,POINT (-73.903226 40.741347),"61-10 QUEENS BLVD., FLUSHING, NY 11377",024500
OLDER ADULT CENTER CONTRACTS,C1901,CENTRAL HARLEM KENNEDY (C19),CENTRAL HARLEM SENIOR CITIZENS CENTERS INC.,34 W 134th Street,NEW YORK,NY,10037,MANHATTAN,212-926-4871,Y,9:00,5:00,9:00,5:00,9:00,5:00,9:00,5:00,9:00,5:00,0:00,0:00,0:00,0:00,40.812702,-73.939645,110.0,9.0,212.0,1083985.0,1017300016.0,Central Harlem North-Polo Grounds,POINT (-73.939645 40.812702),"34 W 134th Street, NEW YORK, NY 10037",021200
OLDER ADULT CENTER CONTRACTS,C3101,EAST SIDE HOUSE BORINQUEN COURT MITCHEL OAC (C31),EAST SIDE HOUSE INC,295 East 138 Street,BRONX,NY,10454,BRONX,718-665-2168,Y,8:30,4:30,8:30,4:30,8:30,4:30,8:30,4:30,8:30,4:30,0:00,0:00,0:00,0:00,40.810463,-73.926028,201.0,8.0,39.0,2129115.0,2023140015.0,Mott Haven-Port Morris,POINT (-73.926028 40.810463),"295 East 138 Street, BRONX, NY 10454",003900
OLDER ADULT CENTER CONTRACTS,C2603,M M BETHUNE (C26),COTHOA LUNCHEON CLUB INC,1970 Amsterdam Avenue,NEW YORK,NY,10032,MANHATTAN,646-918-7710,Y,9:00,5:00,9:00,5:00,9:00,5:00,9:00,5:00,9:00,5:00,0:00,0:00,0:00,0:00,40.83328,-73.94174,112.0,10.0,241.0,1076742.0,1021160033.0,Washington Heights South,POINT (-73.94174 40.83328),"1970 Amsterdam Avenue, NEW YORK, NY 10032",024100
OLDER ADULT CENTER CONTRACTS,W1904,PSS MORRISANIA AIR RIGHTS (W19),PRESBYTERIAN SENIOR SERVICES,3135 Park Avenue,BRONX,NY,10451,BRONX,718-992-2528,Y,8:00,4:00,8:00,4:00,8:00,4:00,8:00,4:00,8:00,4:00,0:00,0:00,0:00,0:00,40.82415,-73.917164,204.0,16.0,173.0,2100990.0,2024209078.0,East Concourse-Concourse Village,POINT (-73.917164 40.82415),"3135 Park Avenue, BRONX, NY 10451",017300
OLDER ADULT CENTER CONTRACTS,C1202,BCA DYKER HEIGHTS OLDER ADULT CENTER (C12),BROOKLYN CHINESE-AMERICAN ASSOCIATION INC,7201 8th Avenue,BROOKLYN,NY,11228,BROOKLYN,718-622-3333,Y,9:00,5:00,9:00,5:00,9:00,5:00,9:00,5:00,9:00,5:00,0:00,0:00,0:00,0:00,40.62859,-74.01672,310.0,38.0,132.0,3147565.0,3059120009.0,Dyker Heights,POINT (-74.01672 40.62859),"7201 8th Avenue, BROOKLYN, NY 11228",013200
OLDER ADULT CENTER CONTRACTS,C8311,JASA WILLIAMSBURG OLDER ADULT CENTER (C83),THE JEWISH ASSOCIATION FOR SERVICES FOR THE AGED,202 Graham Avenue,BROOKLYN,NY,11206,BROOKLYN,718-388-6865,Y,8:00,4:00,8:00,4:00,8:00,4:00,8:00,4:00,8:00,4:00,0:00,0:00,0:00,0:00,40.708879,-73.943443,301.0,34.0,493.0,3344974.0,3030260001.0,Bushwick South,POINT (-73.943443 40.708879),"202 Graham Avenue, BROOKLYN, NY 11206",049302
OLDER ADULT CENTER CONTRACTS,W2402,WASHINGTON LEXINGTON SATELLITE (W24),UNION SETTLEMENT ASSOCIATION,1775 Third Avenue,NEW YORK,NY,10029,MANHATTAN,212-828-6115,Y,9:00,5:00,9:00,5:00,9:00,5:00,9:00,5:00,9:00,5:00,0:00,0:00,0:00,0:00,40.786574,-73.948303,111.0,8.0,15602.0,1079203.0,1016470001.0,East Harlem South,POINT (-73.948303 40.786574),"1775 Third Avenue, NEW YORK, NY 10029",015602
OLDER ADULT CENTER CONTRACTS,C2101,CPC BROOKLYN SENIOR CENTER (C21),CHINESE AMERICAN PLANNING COUNCIL INC,4101 8th Avenue,BROOKLYN,NY,11232,BROOKLYN,917-922-8382,Y,9:00,5:00,9:00,5:00,9:00,5:00,9:00,5:00,9:00,5:00,0:00,0:00,0:00,0:00,40.64607,-73.998544,312.0,38.0,92.0,3018218.0,3009230009.0,Sunset Park East,POINT (-73.998544 40.64607),"4101 8th Avenue, BROOKLYN, NY 11232",009202
OLDER ADULT CENTER CONTRACTS,C8310,JASA VAN CORTLANDT OLDER ADULT CENTER (C83),THE JEWISH ASSOCIATION FOR SERVICES FOR THE AGED,185 W. 231st Street,BRONX,NY,10463,BRONX,718-549-4700,Y,9:00,5:00,9:00,5:00,9:00,5:00,9:00,5:00,9:00,5:00,0:00,0:00,0:00,0:00,40.878666,-73.904096,208.0,11.0,283.0,2016157.0,2032670076.0,Spuyten Duyvil-Kingsbridge,POINT (-73.904096 40.878666),"185 W. 231st Street, BRONX, NY 10463",028300
OLDER ADULT CENTER CONTRACTS,C6903,SAGE CTR AT STONEWALL HOUSE (BROOKLYN) (C69),SERVICES AND ADVOCACY FOR GAYLESBIANBISEXUAL AND TRANSGEND,271 Myrtle Avenue,BROOKLYN,NY,11201,BROOKLYN,646-518-9744,Y,9:00,5:00,9:00,5:00,9:00,5:00,9:00,5:00,9:00,5:00,0:00,0:00,0:00,0:00,40.693454,-73.978042,302.0,35.0,2901.0,,,Fort Greene,POINT (-73.978042 40.693454),"271 Myrtle Avenue, BROOKLYN, NY 11201",002901
OLDER ADULT CENTER CONTRACTS,C9601,BORO PARK Y OAC (C96),YOUNG MENS AND YOUNG WOMENS HEBREW ASSOCIATION OF BORO PARK,4912 14th Avenue,BROOKLYN,NY,11219,BROOKLYN,718-435-3804,Y,8:00,4:00,8:00,4:00,8:00,4:00,8:00,4:00,8:00,4:00,0:00,0:00,0:00,0:00,40.63357,-73.99006,312.0,44.0,236.0,3328617.0,3056420042.0,Borough Park,POINT (-73.99006 40.63357),"4912 14th Avenue, BROOKLYN, NY 11219",023600
OLDER ADULT CENTER CONTRACTS,C9801,CROWN HEIGHTS PRESERVATION COMMITTEE CORP (C98),CROWN HEIGHTS PRESERVATION CORP,483 Albany Avenue,BROOKLYN,NY,11203,BROOKLYN,718-774-9213,Y,9:00,5:00,9:00,5:00,9:00,5:00,9:00,5:00,9:00,5:00,0:00,0:00,0:00,0:00,40.663388,-73.939975,309.0,40.0,331.0,3038418.0,3014267501.0,Crown Heights South,POINT (-73.939975 40.663388),"483 Albany Avenue, BROOKLYN, NY 11203",033100
NATURALLY OCCURING RETIREMENT COMMUNITY CONTRACTS,N6101,COMMONPOINT QUEENS CLEARVIEW GARDENS NORC (N61),COMMONPOINT QUEENS,163-59 17TH AVENUE,FLUSHING,NY,11357,QUEENS,718-352-4157,Y,9:00,5:00,9:00,5:00,9:00,5:00,9:00,5:00,9:00,5:00,0:00,0:00,0:00,0:00,40.782976,-73.798982,407.0,19.0,1017.0,4444920.0,4057300001.0,Ft. Totten-Bay Terrace-Clearview,POINT (-73.798982 40.782976),"163-59 17TH AVENUE, FLUSHING, NY 11357",101700
OLDER ADULT CENTER CONTRACTS,C8302,JASA BAY EDEN OLDER ADULT CENTER (C83),THE JEWISH ASSOCIATION FOR SERVICES FOR THE AGED,1220 East 229th Street,BRONX,NY,10466,BRONX,718-882-3815,Y,8:00,4:00,8:00,4:00,8:00,4:00,8:00,4:00,8:00,4:00,0:00,0:00,0:00,0:00,40.884011,-73.842204,212.0,12.0,460.0,2093741.0,2049050360.0,Eastchester-Edenwald-Baychester,POINT (-73.842204 40.884011),"1220 East 229th Street, BRONX, NY 10466",046000
OLDER ADULT CENTER CONTRACTS,C0102,AGUDATH ISRAEL MORIAH OLDER ADULT LUNCHEON CLUB (C01),AGUDATH ISRAEL OF AMERICA COMMUNITY SERVICES INC,90 Bennett Avenue,NEW YORK,NY,10033,MANHATTAN,212-923-5715,Y,8:00,4:00,8:00,4:00,8:00,4:00,8:00,4:00,8:00,4:00,0:00,0:00,0:00,0:00,40.853017,-73.935379,112.0,10.0,271.0,1064436.0,1021800172.0,Washington Heights North,POINT (-73.935379 40.853017),"90 Bennett Avenue, NEW YORK, NY 10033",027100
OLDER ADULT CENTER CONTRACTS,C4902,KOREAN COMMUNITY SERVICES FLUSHING + SATELLITE MN9 (C49),KOREAN COMMUNITY SERVICES OF METROPOLITAN NEW YORK INC,42-15 166th Street,FLUSHING,NY,11358,QUEENS,718-886-8203,Y,5:00,5:00,5:00,5:00,5:00,5:00,5:00,5:00,5:00,5:00,0:00,0:00,0:00,0:00,40.75939,-73.800335,407.0,19.0,1185.0,4439629.0,4053970006.0,East Flushing,POINT (-73.800335 40.75939),"42-15 166th Street, FLUSHING, NY 11358",118500
OLDER ADULT CENTER CONTRACTS,C1102,BRONXWORKS E. ROBERTS MOORE OAC (C11),BRONXWORKS INC,515 Jackson Avenue,BRONX,NY,10455,BRONX,718-665-5559,Y,8:00,4:00,8:00,4:00,8:00,4:00,8:00,4:00,8:00,4:00,0:00,0:00,0:00,0:00,40.812353,-73.909401,201.0,8.0,35.0,2091284.0,2025570083.0,Mott Haven-Port Morris,POINT (-73.909401 40.812353),"515 Jackson Avenue, BRONX, NY 10455",003500
OLDER ADULT CENTER CONTRACTS,W1503,INDEPENDENCE PLAZA (W15),GREENWICH HOUSE INC.,310 Greenwich Street,NEW YORK,NY,10013,MANHATTAN,212-267-0499,Y,9:00,5:00,9:00,5:00,9:00,5:00,9:00,5:00,9:00,5:00,0:00,0:00,0:00,0:00,40.717604,-74.010667,101.0,1.0,39.0,1083243.0,1001420025.0,SoHo-TriBeCa-Civic Center-Little Italy,POINT (-74.010667 40.717604),"310 Greenwich Street, NEW YORK, NY 10013",003900
ELDER ABUSE SERVICES CONTRACTS,1E401,JASA - ELDER JUSTICE - BK NORTH (1E4),THE JEWISH ASSOCIATION FOR SERVICES FOR THE AGED,202 Graham Avenue,BROOKLYN,NY,11206,BROOKLYN,212-273-5200,Y,9:00,5:00,9:00,5:00,9:00,5:00,9:00,5:00,9:00,5:00,0:00,0:00,0:00,0:00,40.708879,-73.943443,301.0,34.0,493.0,3344974.0,3030260001.0,Bushwick South,POINT (-73.943443 40.708879),"202 Graham Avenue, BROOKLYN, NY 11206",049302
OLDER ADULT CENTER CONTRACTS,C5301,OCEAN BAY CDC OLDER ADULT CENTER (C53),OCEAN BAY COMMUNITY DEVELOPMENT CORPORATION,57-17 Shore Front Parkway,FAR ROCKAWAY,NY,11693,QUEENS,718-945-8640,Y,8:00,4:00,8:00,4:00,8:00,4:00,8:00,4:00,8:00,4:00,0:00,0:00,0:00,0:00,40.588954,-73.78843,414.0,31.0,97202.0,4536732.0,4159260001.0,Hammels-Arverne-Edgemere,POINT (-73.78843 40.588954),"57-17 Shore Front Parkway, FAR ROCKAWAY, NY 11693",097202
OLDER ADULT CENTER CONTRACTS,C6904,EDIE WINDSOR SAGE CENTER (C69),SERVICES AND ADVOCACY FOR GAYLESBIANBISEXUAL AND TRANSGEND,305 7th Avenue,NEW YORK,NY,10001,MANHATTAN,646-576-8669,Y,11:00,8:00,11:00,8:00,11:00,8:00,11:00,8:00,11:00,8:00,0:00,0:00,0:00,0:00,40.746817,-73.993655,105.0,3.0,95.0,1015060.0,1008037502.0,Midtown-Midtown South,POINT (-73.993655 40.746817),"305 7th Avenue, NEW YORK, NY 10001",009500
OLDER ADULT CENTER CONTRACTS,C3501,GRACE AGARD HAREWOOD OAC (C35),FORT GREENE COUNCIL,19 Rogers Avenue,BROOKLYN,NY,11216,BROOKLYN,718-638-6910,Y,9:00,5:00,9:00,5:00,9:00,5:00,9:00,5:00,9:00,5:00,0:00,0:00,0:00,0:00,40.676909,-73.952667,308.0,36.0,315.0,3030302.0,3012120006.0,Crown Heights North,POINT (-73.952667 40.676909),"19 Rogers Avenue, BROOKLYN, NY 11216",031500
OLDER ADULT CENTER CONTRACTS,W2404,WAGNER SATELLITE (W24),UNION SETTLEMENT ASSOCIATION,435 East 120th Street,NEW YORK,NY,10035,MANHATTAN,212-987-2980,Y,9:00,5:00,9:00,5:00,9:00,5:00,9:00,5:00,9:00,5:00,0:00,0:00,0:00,0:00,40.798041,-73.932186,111.0,8.0,192.0,1081287.0,1018080001.0,East Harlem North,POINT (-73.932186 40.798041),"435 East 120th Street, NEW YORK, NY 10035",019200
HOME DELIVERED MEAL SERVICE CONTRACTS,42G01,JASA HDM QN14 (42G),THE JEWISH ASSOCIATION FOR SERVICES FOR THE AGED,131 Beach 19th Street,FAR ROCKAWAY,NY,11691,QUEENS,718-769-7455,Y,9:00,5:00,9:00,5:00,9:00,5:00,9:00,5:00,9:00,5:00,0:00,0:00,0:00,0:00,40.593761,-73.753207,414.0,31.0,99802.0,4301622.0,4158100055.0,Far Rockaway-Bayswater,POINT (-73.753207 40.593761),"131 Beach 19th Street, FAR ROCKAWAY, NY 11691",099802
OLDER ADULT CENTER CONTRACTS,CC301,ROBERT COUCHE OLDER ADULT CENTER (CC3),MERRILL PARK CIVIC ASSOCIATION OF SPRINGFIELD GARDENS INC,137-57 Farmers Boulevard,JAMAICA,NY,11434,QUEENS,718-978-8352,Y,9:00,5:00,9:00,5:00,9:00,5:00,9:00,5:00,9:00,5:00,0:00,0:00,0:00,0:00,40.67251,-73.764138,412.0,31.0,330.0,4280089.0,4130200013.0,Springfield Gardens North,POINT (-73.764138 40.67251),"137-57 Farmers Boulevard, JAMAICA, NY 11434",033000
OLDER ADULT CENTER CONTRACTS,C2901,DORCHESTER SENIOR CITIZENS CENTER OAC (C29),DORCHESTER SENIOR CITIZENS CENTER INC,1419 Dorchester Road,BROOKLYN,NY,11226,BROOKLYN,718-941-6700,Y,8:00,4:00,8:00,4:00,8:00,4:00,8:00,4:00,8:00,4:00,0:00,0:00,0:00,0:00,40.638972,-73.964689,314.0,40.0,520.0,3118688.0,3051570035.0,Flatbush,POINT (-73.964689 40.638972),"1419 Dorchester Road, BROOKLYN, NY 11226",052000
OLDER ADULT CENTER CONTRACTS,C3102,EAST SIDE HOUSE MELROSE OLDER ADULT CENTER (C31),EAST SIDE HOUSE INC,372 E152 Street,BRONX,NY,10455,BRONX,718-665-2280,Y,8:00,4:00,8:00,4:00,8:00,4:00,8:00,4:00,8:00,4:00,0:00,0:00,0:00,0:00,40.818516,-73.91793,201.0,17.0,67.0,2090413.0,2023980014.0,Melrose South-Mott Haven North,POINT (-73.91793 40.818516),"372 E152 Street, BRONX, NY 10455",006700
TRANSPORTATION SERVICES CONTRACTS,53801,CASC - TRAN INDIVIDUAL RIDES - STATEN ISLAND (538),COMMUNITY AGENCY FOR SENIOR CITIZENS INC,120 Stuyvesant Place Suite 409,STATEN ISLAND,NY,10301,STATEN ISLAND,718-981-6226,Y,8:00,4:00,8:00,4:00,8:00,4:00,8:00,4:00,8:00,4:00,0:00,0:00,0:00,0:00,40.642992,-74.076954,501.0,49.0,3.0,5000084.0,5000080060.0,West New Brighton-New Brighton-St. George,POINT (-74.076954 40.642992),"120 Stuyvesant Place Suite 409, STATEN ISLAND, NY 10301",000300
OLDER ADULT CENTER CONTRACTS,C2801,CYPRESS HILLS FULTON STREET SENIOR CITIZENS CENTER (C28),CYPRESS HILLS-FULTON STREET SENIOR CITIZENS CENTER INC,3208 Fulton Street,BROOKLYN,NY,11208,BROOKLYN,718-235-0064,Y,8:15,4:15,8:15,4:15,8:15,4:15,8:15,4:15,8:15,4:15,0:00,0:00,0:00,0:00,40.682337,-73.876771,305.0,37.0,1178.0,3092631.0,3041400013.0,Cypress Hills-City Line,POINT (-73.876771 40.682337),"3208 Fulton Street, BROOKLYN, NY 11208",117800
OLDER ADULT CENTER CONTRACTS,W1505,WESTBETH (W15),GREENWICH HOUSE INC.,155 Bank Street,NEW YORK,NY,10014,MANHATTAN,212-255-5191,Y,0:00,0:00,9:00,6:00,9:00,6:00,9:00,6:00,9:00,5:00,9:00,1:00,0:00,0:00,40.736095,-74.009205,102.0,3.0,79.0,1012047.0,1006390001.0,West Village,POINT (-74.009205 40.736095),"155 Bank Street, NEW YORK, NY 10014",007900
OLDER ADULT CENTER CONTRACTS,C1103,BRONXWORKS EAST CONCOURSE (MY SPOT/MI RINCON OAC) (C11),BRONXWORKS INC,236 East Tremont Avenue,BRONX,NY,10457,BRONX,718-731-6300,Y,8:00,4:00,8:00,4:00,8:00,4:00,8:00,4:00,8:00,4:00,0:00,0:00,0:00,0:00,40.848936,-73.904562,205.0,15.0,23302.0,2007599.0,2028040021.0,Mount Hope,POINT (-73.904562 40.848936),"236 East Tremont Avenue, BRONX, NY 10457",023302
OLDER ADULT CENTER CONTRACTS,C8309,JASA THROGGS NECK OLDER ADULT CENTER (C83),THE JEWISH ASSOCIATION FOR SERVICES FOR THE AGED,2705 Schley Avenue,BRONX,NY,10465,BRONX,718-823-1771,Y,7:00,3:00,7:00,3:00,7:00,3:00,7:00,3:00,7:00,3:00,0:00,0:00,0:00,0:00,40.821662,-73.827061,210.0,13.0,144.0,2080423.0,2055680050.0,Schuylerville-Throgs Neck-Edgewater Park,POINT (-73.827061 40.821662),"2705 Schley Avenue, BRONX, NY 10465",014400
OLDER ADULT CENTER CONTRACTS,C0205,ALLEN AME ROCKAWAY BLVD SENIOR CENTER (C02),ALLEN AME CHURCH dba ALLEN COMMUNITY SENIOR CITIZENS CENTER,123-10 143rd Street,JAMAICA,NY,11436,QUEENS,718-657-6752,Y,9:00,5:00,9:00,5:00,9:00,5:00,9:00,5:00,9:00,5:00,0:00,0:00,0:00,0:00,40.674522,-73.795725,412.0,28.0,182.0,4261337.0,4120390044.0,Baisley Park,POINT (-73.795725 40.674522),"123-10 143rd Street, JAMAICA, NY 11436",018200
ELDER ABUSE SERVICES CONTRACTS,1E901,CASC - ELDER JUSTICE - STATEN ISLAND (1E9),COMMUNITY AGENCY FOR SENIOR CITIZENS INC,120 Stuyvesant Place Suite 409,STATEN ISLAND,NY,10301,STATEN ISLAND,718-981-6226,Y,9:00,5:00,9:00,5:00,9:00,5:00,9:00,5:00,9:00,5:00,0:00,0:00,0:00,0:00,40.642992,-74.076954,501.0,49.0,3.0,5000084.0,5000080060.0,West New Brighton-New Brighton-St. George,POINT (-74.076954 40.642992),"120 Stuyvesant Place Suite 409, STATEN ISLAND, NY 10301",000300
OLDER ADULT CENTER CONTRACTS,C1902,CENTRAL HARLEM ST NICK (C19),CENTRAL HARLEM SENIOR CITIZENS CENTERS INC.,210 W. 131st Street,NEW YORK,NY,10037,MANHATTAN,646-678-4451,Y,9:00,5:00,9:00,5:00,9:00,5:00,9:00,5:00,9:00,5:00,0:00,0:00,0:00,0:00,40.812977,-73.94614,110.0,9.0,224.0,1081515.0,1019330050.0,Central Harlem North-Polo Grounds,POINT (-73.94614 40.812977),"210 W. 131st Street, NEW YORK, NY 10037",022400
OLDER ADULT CENTER CONTRACTS,C1101,BRONXWORKS CAROLYN MCLAUGHLIN COMMUNITY CENTER -CONCOURSE OAC (C11),BRONXWORKS INC,1130 Grand Concourse,BRONX,NY,10455,BRONX,718-508-3040,Y,9:00,5:00,9:00,5:00,9:00,5:00,9:00,5:00,9:00,5:00,0:00,0:00,0:00,0:00,40.832331,-73.91959,204.0,16.0,18102.0,2002833.0,2024620042.0,East Concourse-Concourse Village,POINT (-73.91959 40.832331),"1130 Grand Concourse, BRONX, NY 10455",018102
OLDER ADULT CENTER CONTRACTS,W2203,JASA EINSTEIN (W22),THE JEWISH ASSOCIATION FOR SERVICES FOR THE AGED,135 EINSTEIN LOOP,BRONX,NY,10475,BRONX,718-320-2066,Y,8:00,4:00,8:00,4:00,8:00,4:00,8:00,4:00,8:00,4:00,0:00,0:00,0:00,0:00,40.864255,-73.82203,210.0,12.0,302.0,2095160.0,2051350210.0,Co-op City,POINT (-73.82203 40.864255),"135 EINSTEIN LOOP, BRONX, NY 10475",030202
HOME DELIVERED MEAL SERVICE CONTRACTS,4PU01,PROJECT LEAD INC. (4PU),PROJECT LEAD INC.,85-12 126th Street,JAMAICA,NY,11415,QUEENS,718-495-6210,Y,,,,,,,,,,,,,,,40.703976,-73.825379,409.0,29.0,140.0,4193638.0,4092710012.0,Kew Gardens,POINT (-73.825379 40.703976),"85-12 126th Street, JAMAICA, NY 11415",014000
OLDER ADULT CENTER CONTRACTS,C4001,PARK SLOPE CTR FOR SUCCESSFUL AGING (C40),HEIGHTS AND HILLS INC.,463A  7th Street,BROOKLYN,NY,11215,BROOKLYN,718-832-3726,Y,8:00,4:00,8:00,4:00,8:00,4:00,8:00,4:00,8:00,4:00,0:00,0:00,0:00,0:00,40.668419,-73.981201,306.0,39.0,153.0,3021748.0,3009950051.0,Park Slope-Gowanus,POINT (-73.981201 40.668419),"463A  7th Street, BROOKLYN, NY 11215",015300
HOME DELIVERED MEAL SERVICE CONTRACTS,6XQ01,METROPOLITAN NEW YORK COORDINATING COUNCIL ON JEWISH POVERTY (6XQ),METROPOLITAN NY COORDINATING COUNCIL ON JEWISH POVERTY D/B/A,1 State Street Plaza,NEW YORK,NY,10005,MANHATTAN,212-453-9500,Y,,,,,,,,,,,,,,,40.702411,-74.012948,101.0,1.0,9.0,1000018.0,1000090001.0,Battery Park City-Lower Manhattan,POINT (-74.012948 40.702411),"1 State Street Plaza, NEW YORK, NY 10005",000900
OLDER ADULT CENTER CONTRACTS,C1104,BRONXWORKS HEIGHTS SC (C11),BRONXWORKS INC,200 West Tremont Avenue,BRONX,NY,10453,BRONX,718-299-0300,Y,8:00,4:00,8:00,4:00,8:00,4:00,8:00,4:00,8:00,4:00,0:00,0:00,0:00,0:00,40.851984,-73.916804,205.0,14.0,20502.0,2008966.0,2028770522.0,University Heights-Morris Heights,POINT (-73.916804 40.851984),"200 West Tremont Avenue, BRONX, NY 10453",020502
ELDER ABUSE SERVICES CONTRACTS,1E601,CBN - ELDER JUSTICE - MN (1E6),CARTER BURDEN NETWORK INC.,312 East 109th Street,NEW YORK,NY,10029,MANHATTAN,212-879-7400,Y,9:00,5:00,9:00,5:00,9:00,5:00,9:00,5:00,9:00,5:00,0:00,0:00,0:00,0:00,40.792306,-73.94048,111.0,8.0,170.0,1074278.0,1016800045.0,East Harlem South,POINT (-73.94048 40.792306),"312 East 109th Street, NEW YORK, NY 10029",017000
OLDER ADULT CENTER CONTRACTS,C4301,HOPE OF ISRAEL SENIOR CITIZENS CENTER (C43),HOPE OF ISRAEL SENIOR CITIZENS CENTER INC,1068 Gerard Avenue,BRONX,NY,10452,BRONX,718-665-8400,Y,9:00,5:00,9:00,5:00,9:00,5:00,9:00,5:00,9:00,5:00,0:00,0:00,0:00,0:00,40.832289,-73.922123,204.0,16.0,195.0,2002944.0,2024780007.0,West Concourse,POINT (-73.922123 40.832289),"1068 Gerard Avenue, BRONX, NY 10452",019500
HOME DELIVERED MEAL SERVICE CONTRACTS,33D01,STANLEY M ISAACS - HDM - MN08 11 (33D),STANLEY M ISAACS NEIGHBORHOOD CENTER INC,415 East 93rd Street,NEW YORK,NY,10128,MANHATTAN,212-360-7620,Y,9:00,5:00,9:00,5:00,9:00,5:00,9:00,5:00,9:00,5:00,0:00,0:00,0:00,0:00,40.780904,-73.945112,108.0,5.0,152.0,1082367.0,1015730001.0,Yorkville,POINT (-73.945112 40.780904),"415 East 93rd Street, NEW YORK, NY 10128",015200
GERIATRIC MENTAL HEALTH SERVICES CONTRACTS,6HS01,OHEL - GMH HUB & SPOKE DEMO (6HS),OHEL CHILDREN'S HOME AND FAMILY SERVICES INC,1268 East 14th Street,BROOKLYN,NY,11230,BROOKLYN,718-686-3222,Y,9:00,5:00,9:00,5:00,9:00,5:00,9:00,5:00,9:00,5:00,0:00,0:00,0:00,0:00,40.618643,-73.961112,314.0,44.0,768.0,3180645.0,3067330035.0,Midwood,POINT (-73.961112 40.618643),"1268 East 14th Street, BROOKLYN, NY 11230",076800
OLDER ADULT CENTER CONTRACTS,C5803,RAIN BOSTON SECOR OAC (C58),REGIONAL AID FOR INTERIM NEEDS INC,3540 Bivona Street,BRONX,NY,10475,BRONX,718-671-8550,Y,8:00,4:00,8:00,4:00,8:00,4:00,8:00,4:00,8:00,4:00,0:00,0:00,0:00,0:00,40.883026,-73.833227,212.0,12.0,46202.0,2093879.0,2052630070.0,Co-op City,POINT (-73.833227 40.883026),"3540 Bivona Street, BRONX, NY 10475",046209
OLDER ADULT CENTER CONTRACTS,C8701,UNIVERSITY SETTLEMENT OAC (C87),UNIVERSITY SETTLEMENT SOCIETY OF NEW YORK,189 Allen Street,NEW YORK,NY,10002,MANHATTAN,212-453-4564,Y,8:00,4:00,8:00,4:00,8:00,4:00,8:00,4:00,8:00,4:00,0:00,0:00,0:00,0:00,40.722133,-73.988964,103.0,1.0,3601.0,1005537.0,1004170001.0,Chinatown,POINT (-73.988964 40.722133),"189 Allen Street, NEW YORK, NY 10002",003601
HOME DELIVERED MEAL SERVICE CONTRACTS,27F01,BAY RIDGE - HDM - BK10 11 (27F),BAY RIDGE CENTER INC d/b/a BAY RIDGE CENTER,411 OVINGTON AVENUE,BROOKLYN,NY,11209,BROOKLYN,718-748-0650,Y,9:00,5:00,9:00,5:00,9:00,5:00,9:00,5:00,9:00,5:00,0:00,0:00,0:00,0:00,40.633477,-74.023321,310.0,43.0,130.0,3145772.0,3058730089.0,Bay Ridge,POINT (-74.023321 40.633477),"411 OVINGTON AVENUE, BROOKLYN, NY 11209",013000
ELDER ABUSE SERVICES CONTRACTS,1E302,NSHOPP - ELDER JUSTICE - BX (1E3),THE NEIGHBORHOOD SELF-HELP BY OLDER PERSONS PROJECT INC,975 Kelly Street Suite 401,BRONX,NY,10459,BRONX,718-542-0006,Y,9:00,5:00,9:00,5:00,9:00,5:00,9:00,5:00,9:00,5:00,0:00,0:00,0:00,0:00,40.822052,-73.895879,202.0,17.0,87.0,2114693.0,2027037501.0,Longwood,POINT (-73.895879 40.822052),"975 Kelly Street Suite 401, BRONX, NY 10459",008700
OLDER ADULT CENTER CONTRACTS,W1201,BAY RIDGE CTR FOR LIFE LONG LEARNING (W12),BAY RIDGE CENTER INC d/b/a BAY RIDGE CENTER,15 Bay Ridge Avenue,BROOKLYN,NY,11209,BROOKLYN,718-748-0650,Y,8:00,4:00,8:00,4:00,8:00,4:00,8:00,4:00,8:00,4:00,0:00,0:00,0:00,0:00,40.638645,-74.035376,310.0,47.0,34.0,3144947.0,3058590060.0,Bay Ridge,POINT (-74.035376 40.638645),"15 Bay Ridge Avenue, BROOKLYN, NY 11209",003400
OLDER ADULT CENTER CONTRACTS,C1501,CANAAN SENIOR SERVICE CENTER (C15),CANAAN BAPTIST CHURCH OF CHRIST,1428 5th Avenue,NEW YORK,NY,10035,MANHATTAN,212-876-2638,Y,9:00,5:00,9:00,5:00,9:00,5:00,9:00,5:00,9:00,5:00,0:00,0:00,0:00,0:00,40.80115,-73.946121,110.0,9.0,190.0,1051430.0,1016000021.0,Central Harlem South,POINT (-73.946121 40.80115),"1428 5th Avenue, NEW YORK, NY 10035",019000
OLDER ADULT CENTER CONTRACTS,C6902,SAGE CENTER HARLEM (C69),SERVICES AND ADVOCACY FOR GAYLESBIANBISEXUAL AND TRANSGEND,220 West 143rd Street,NEW YORK,NY,10030,MANHATTAN,929-458-0170,Y,9:00,5:00,9:00,5:00,9:00,5:00,9:00,5:00,9:00,5:00,0:00,0:00,0:00,0:00,40.8208,-73.94113,110.0,9.0,232.0,1086084.0,1020280016.0,Central Harlem North-Polo Grounds,POINT (-73.94113 40.8208),"220 West 143rd Street, NEW YORK, NY 10030",023200
HOME DELIVERED MEAL SERVICE CONTRACTS,2TY01,THE CAMPAIGN AGAINST HUNGER INC. (2TY),THE CAMPAIGN AGAINST HUNGER INC,2010 Fulton Street,BROOKLYN,NY,11233,BROOKLYN,718-773-3551,Y,,,,,,,,,,,,,,,40.678643,-73.917677,303.0,41.0,301.0,3042111.0,3015490016.0,Ocean Hill,POINT (-73.917677 40.678643),"2010 Fulton Street, BROOKLYN, NY 11233",030100
TRANSPORTATION SERVICES CONTRACTS,36702,NY FOUNDATION - TRAN GROUP RIDES - MN SOUTH (367),NEW YORK FOUNDATION FOR SENIOR CITIZENS INC,404 WEST   54 STREET,NEW YORK,NY,10019,MANHATTAN,212-962-7653,Y,9:00,5:00,9:00,5:00,9:00,5:00,9:00,5:00,9:00,5:00,0:00,0:00,0:00,0:00,40.766197,-73.987636,104.0,3.0,133.0,1026769.0,1010630035.0,Clinton,POINT (-73.987636 40.766197),"404 WEST   54 STREET, NEW YORK, NY 10019",013300
GERIATRIC MENTAL HEALTH SERVICES CONTRACTS,1G701,JASA - GMH - BX (1G7),THE JEWISH ASSOCIATION FOR SERVICES FOR THE AGED,1490 SOUTHERN BLVD FRNT,BRONX,NY,10460,BRONX,212-273-5200,Y,9:00,5:00,9:00,5:00,9:00,5:00,9:00,5:00,9:00,5:00,0:00,0:00,0:00,0:00,40.833251,-73.890198,203.0,17.0,157.0,2010571.0,2029810014.0,Crotona Park East,POINT (-73.890198 40.833251),"1490 SOUTHERN BLVD FRNT, BRONX, NY 10460",015700
HOME DELIVERED MEAL SERVICE CONTRACTS,29F01,BAY RIDGE CENTER (29F),BAY RIDGE CENTER INC d/b/a BAY RIDGE CENTER,411 OVINGTON AVENUE,BROOKLYN,NY,11209,BROOKLYN,718-748-0650,Y,,,,,,,,,,,,,,,40.633477,-74.023321,310.0,47.0,130.0,3145772.0,3058730089.0,Bay Ridge,POINT (-74.023321 40.633477),"411 OVINGTON AVENUE, BROOKLYN, NY 11209",013000
OLDER ADULT CENTER CONTRACTS,C8502,UJCES LUNCH CLUB OAC (C85),UNITED JEWISH COUNCIL OF THE EAST SIDE INC,15 Willett Street,NEW YORK,NY,10002,MANHATTAN,212-673-9328,Y,8:00,4:00,8:00,4:00,8:00,4:00,8:00,4:00,8:00,4:00,0:00,0:00,0:00,0:00,40.71566,-73.982977,103.0,1.0,12.0,1088884.0,1003360005.0,Lower East Side,POINT (-73.982977 40.71566),"15 Willett Street, NEW YORK, NY 10002",002201
HOME DELIVERED MEAL SERVICE CONTRACTS,33E01,CHARLES A. WALBURG - HDM - MN09 10 12 (33E),CHARLES A WALBURG MULTI SERVICE ORGANIZATION INC,163 West 125th Street 13th Floor,NEW YORK,NY,10027,MANHATTAN,212-222-2552,Y,9:00,5:00,9:00,5:00,9:00,5:00,9:00,5:00,9:00,5:00,0:00,0:00,0:00,0:00,40.808644,-73.947524,110.0,9.0,222.0,1081602.0,1019100001.0,Central Harlem South,POINT (-73.947524 40.808644),"163 West 125th Street 13th Floor, NEW YORK, NY 10027",022200
OLDER ADULT CENTER CONTRACTS,W2405,CORSI OAC (W24),UNION SETTLEMENT ASSOCIATION,307 E 116th Street,NEW YORK,NY,10029,MANHATTAN,212-828-6756,Y,8:00,4:00,8:00,4:00,8:00,4:00,8:00,4:00,8:00,4:00,0:00,0:00,0:00,0:00,40.796935,-73.93759,111.0,8.0,188.0,1079357.0,1016880045.0,East Harlem North,POINT (-73.93759 40.796935),"307 E 116th Street, NEW YORK, NY 10029",018800
HOME DELIVERED MEAL SERVICE CONTRACTS,42S01,CORONA HDM QN7 (42S),CORONA CONGREGATIONAL CHURCH,102-19 34th Avenue,FLUSHING,NY,11368,QUEENS,718-899-0553,Y,9:00,5:00,9:00,5:00,9:00,5:00,9:00,5:00,9:00,5:00,0:00,0:00,0:00,0:00,40.755742,-73.865988,403.0,21.0,379.0,4042602.0,4017170033.0,North Corona,POINT (-73.865988 40.755742),"102-19 34th Avenue, FLUSHING, NY 11368",037900
OLDER ADULT CENTER CONTRACTS,C7801,STEIN OLDER ADULT CENTER (C78),STEIN SENIOR CENTER INC,204 East 23rd Street,NEW YORK,NY,10010,MANHATTAN,646-395-8083,Y,8:00,4:00,8:00,4:00,8:00,4:00,8:00,4:00,8:00,4:00,0:00,0:00,0:00,0:00,40.738655,-73.982755,106.0,2.0,64.0,1019664.0,1009030056.0,Gramercy,POINT (-73.982755 40.738655),"204 East 23rd Street, NEW YORK, NY 10010",006400
HOME DELIVERED MEAL SERVICE CONTRACTS,46P01,PETER CARDELLA SENIOR CENTER (46P),PETER CARDELLA SENIOR CITIZEN CENTER INC,68-52 fresh pond road,FLUSHING,NY,11385,QUEENS,718-497-2908,Y,,,,,,,,,,,,,,,40.703874,-73.895674,405.0,30.0,583.0,4085200.0,4035350024.0,Ridgewood,POINT (-73.895674 40.703874),"68-52 fresh pond road, FLUSHING, NY 11385",058300
ELDER ABUSE SERVICES CONTRACTS,1E301,NSHOPP - ELDER JUSTICE - BX (1E3),THE NEIGHBORHOOD SELF-HELP BY OLDER PERSONS PROJECT INC,975 Kelly Street Suite 401,BRONX,NY,10459,BRONX,718-542-0006,Y,9:00,5:00,9:00,5:00,9:00,5:00,9:00,5:00,9:00,5:00,0:00,0:00,0:00,0:00,40.822052,-73.895879,202.0,17.0,87.0,2114693.0,2027037501.0,Longwood,POINT (-73.895879 40.822052),"975 Kelly Street Suite 401, BRONX, NY 10459",008700
OLDER ADULT CENTER CONTRACTS,C3601,GODDARD RIVERSIDE LSNC OAC @ WEST 65TH ST (C36),GODDARD-RIVERSIDE COMMUNITY CENTER,250 West 65th Street,NEW YORK,NY,10023,MANHATTAN,212-874-0860,Y,8:00,4:00,8:00,4:00,8:00,4:00,8:00,4:00,8:00,4:00,0:00,0:00,0:00,0:00,40.77501,-73.98689,107.0,6.0,151.0,1030340.0,1011560020.0,Lincoln Square,POINT (-73.98689 40.77501),"250 West 65th Street, NEW YORK, NY 10023",015101
NATURALLY OCCURING RETIREMENT COMMUNITY CONTRACTS,N7301,VISION URBANA NORC (N73),VISION URBANA INC.,175 DELANCEY STREET,NEW YORK,NY,10002,MANHATTAN,646-626-9748,Y,9:00,5:00,9:00,5:00,9:00,5:00,9:00,5:00,9:00,5:00,0:00,0:00,0:00,0:00,40.717466,-73.985004,103.0,1.0,1402.0,1089451.0,1003477501.0,Lower East Side,POINT (-73.985004 40.717466),"175 DELANCEY STREET, NEW YORK, NY 10002",001800
OLDER ADULT CENTER CONTRACTS,W1501,CENTER ON THE SQ (W15),GREENWICH HOUSE INC.,20 Washington Square North,NEW YORK,NY,10011,MANHATTAN,212-777-3555,Y,9:00,5:00,9:00,5:00,9:00,5:00,9:00,5:00,9:00,5:00,0:00,0:00,0:00,0:00,40.731781,-73.997705,102.0,1.0,63.0,1008851.0,1005510008.0,West Village,POINT (-73.997705 40.731781),"20 Washington Square North, NEW YORK, NY 10011",006300
HOME DELIVERED MEAL SERVICE CONTRACTS,46G01,JASA QUEENS HOME DELIVERED MEALS (46G),THE JEWISH ASSOCIATION FOR SERVICES FOR THE AGED,131 BEACH   19 STREET,FAR ROCKAWAY,NY,11691,QUEENS,212-273-5200,Y,,,,,,,,,,,,,,,40.593761,-73.753207,414.0,31.0,99802.0,4301622.0,4158100055.0,Far Rockaway-Bayswater,POINT (-73.753207 40.593761),"131 BEACH   19 STREET, FAR ROCKAWAY, NY 11691",099802
OLDER ADULT CENTER CONTRACTS,C3001,CASABE SENIOR HOUSES AKA EAST HARLEM NSC (C30),EAST HARLEM COUNCIL FOR HUMAN SERVICES INC,150 East 121st Street,NEW YORK,NY,10035,MANHATTAN,212-722-2205,Y,9:00,5:00,9:00,5:00,9:00,5:00,9:00,5:00,9:00,5:00,0:00,0:00,0:00,0:00,40.801704,-73.939037,111.0,8.0,196.0,1054378.0,1017690021.0,East Harlem North,POINT (-73.939037 40.801704),"150 East 121st Street, NEW YORK, NY 10035",019600
OLDER ADULT CENTER CONTRACTS,C5809,RAIN NEREID OAC (C58),REGIONAL AID FOR INTERIM NEEDS INC,720 Nereid Avenue,BRONX,NY,10466,BRONX,718-994-0132,Y,8:00,4:00,8:00,4:00,8:00,4:00,8:00,4:00,8:00,4:00,0:00,0:00,0:00,0:00,40.898158,-73.853568,212.0,11.0,434.0,2069882.0,2050460033.0,Woodlawn-Wakefield,POINT (-73.853568 40.898158),"720 Nereid Avenue, BRONX, NY 10466",043400
OLDER ADULT CENTER CONTRACTS,W2403,JEFFERSON OAC (W24),UNION SETTLEMENT ASSOCIATION,2205 1st Avenue,NEW YORK,NY,10029,MANHATTAN,212-828-6104,Y,8:00,4:30,8:00,4:30,8:00,4:30,8:00,4:30,8:00,4:30,0:00,0:00,0:00,0:00,40.794319,-73.93665,111.0,8.0,180.0,1081091.0,1016840001.0,East Harlem North,POINT (-73.93665 40.794319),"2205 1st Avenue, NEW YORK, NY 10029",018000
OLDER ADULT CENTER CONTRACTS,C5804,RAIN EASTCHESTER LATIN SOUL CAF OAC (C58),REGIONAL AID FOR INTERIM NEEDS INC,1246 Burke Avenue,BRONX,NY,10469,BRONX,718-882-8513,Y,8:00,4:00,8:00,4:00,8:00,4:00,8:00,4:00,8:00,4:00,0:00,0:00,0:00,0:00,40.871144,-73.851046,211.0,12.0,348.0,2093500.0,2045810001.0,Allerton-Pelham Gardens,POINT (-73.851046 40.871144),"1246 Burke Avenue, BRONX, NY 10469",034800
OLDER ADULT CENTER CONTRACTS,4DV01,INDIA HOME INC. (4DV),INDIA HOME INC,178-36 Wexford Terrace,JAMAICA,NY,11432,QUEENS,917-288-7600,Y,,,,,,,,,,,,,,,40.713508,-73.784561,408.0,24.0,466.0,4534092.0,4099377501.0,Jamaica Estates-Holliswood,POINT (-73.784561 40.713508),"178-36 Wexford Terrace, JAMAICA, NY 11432",046600
HOME DELIVERED MEAL SERVICE CONTRACTS,33C01,ENCORE - HDM - MN04 05 07 (33C),ENCORE COMMUNITY SERVICES,239 West 49th Street,NEW YORK,NY,10019,MANHATTAN,212-581-3490,Y,9:00,5:00,9:00,5:00,9:00,5:00,9:00,5:00,9:00,5:00,0:00,0:00,0:00,0:00,40.761143,-73.985312,105.0,3.0,125.0,1024789.0,1010210009.0,Midtown-Midtown South,POINT (-73.985312 40.761143),"239 West 49th Street, NEW YORK, NY 10019",012500
ELDER ABUSE SERVICES CONTRACTS,64701,WEILL MEDICAL - PROTECT MENTAL HEALTH - CITYWIDE (647),WEILL MEDICAL COLLEGE OF CORNELL UNIVERSITY,21 BLOOMINGDALE RD,WHITE PLAINS,NY,10605,,914-997-4333,Y,9:00,5:00,9:00,5:00,9:00,5:00,9:00,5:00,9:00,5:00,0:00,0:00,0:00,0:00,,,,,,,,,,"21 BLOOMINGDALE RD, WHITE PLAINS, NY 10605",009702
OLDER ADULT CENTER CONTRACTS,C0501,ARC XVI A. PHILIP RANDOLPH OAC (C05),ARC XVI FORT WASHINGTON INC,108 West 146 Street,NEW YORK,NY,10039,MANHATTAN,212-281-1349,Y,9:00,5:00,9:00,5:00,9:00,5:00,9:00,5:00,9:00,5:00,0:00,0:00,0:00,0:00,40.821341,-73.936317,110.0,9.0,232.0,1060189.0,1020140036.0,Central Harlem North-Polo Grounds,POINT (-73.936317 40.821341),"108 West 146 Street, NEW YORK, NY 10039",023200
OLDER ADULT CENTER CONTRACTS,W1502,OUR LADY OF POMPEII (W15),GREENWICH HOUSE INC.,25 Carmine Street,NEW YORK,NY,10014,MANHATTAN,212-989-3620,Y,9:00,5:00,9:00,5:00,9:00,5:00,9:00,5:00,9:00,5:00,0:00,0:00,0:00,0:00,40.730178,-74.002955,102.0,3.0,67.0,1009904.0,1005860020.0,West Village,POINT (-74.002955 40.730178),"25 Carmine Street, NEW YORK, NY 10014",006700
TRANSPORTATION SERVICES CONTRACTS,44601,HANAC - TRAN INDIVIDUAL RIDES - QN WEST (446),HANAC INC.,27-40 Hoyt Avenue South,LONG ISLAND CITY,NY,11102,QUEENS,212-840-8005,Y,6:00,0:00,6:00,0:00,6:00,0:00,6:00,0:00,6:00,0:00,0:00,0:00,0:00,0:00,40.771857,-73.9198,401.0,22.0,69.0,4537921.0,4008390001.0,Old Astoria,POINT (-73.9198 40.771857),"27-40 Hoyt Avenue South, LONG ISLAND CITY, NY 11102",006900
GERIATRIC MENTAL HEALTH SERVICES CONTRACTS,3G101,SPOP - GMH - MN 9-12 (3G1),SERVICE PROGRAM FOR OLDER PEOPLE INC,302 WEST   91 STREET,NEW YORK,NY,10024,MANHATTAN,212-787-7120,Y,9:00,5:00,9:00,5:00,9:00,5:00,9:00,5:00,9:00,5:00,0:00,0:00,0:00,0:00,40.792171,-73.975796,107.0,6.0,179.0,1034085.0,1012510022.0,Upper West Side,POINT (-73.975796 40.792171),"302 WEST   91 STREET, NEW YORK, NY 10024",017900
GERIATRIC MENTAL HEALTH SERVICES CONTRACTS,2G801,OHEL - GMH - BK 1 2 3 4 6 8 9 16 17 (2G8),OHEL CHILDREN'S HOME AND FAMILY SERVICES INC,1268 EAST   14 STREET,BROOKLYN,NY,11230,BROOKLYN,718-686-3222,Y,9:00,5:00,9:00,5:00,9:00,5:00,9:00,5:00,9:00,5:00,0:00,0:00,0:00,0:00,40.618643,-73.961112,314.0,44.0,768.0,3180645.0,3067330035.0,Midwood,POINT (-73.961112 40.618643),"1268 EAST   14 STREET, BROOKLYN, NY 11230",076800
TRANSPORTATION SERVICES CONTRACTS,19601,RAIN EASTCHESTER - TRAN INDIVIDUAL RIDES - BX NORTH (196),REGIONAL AID FOR INTERIM NEEDS INC,1246 Burke Avenue,BRONX,NY,10469,BRONX,718-882-8513,Y,8:00,4:00,8:00,4:00,8:00,4:00,8:00,4:00,8:00,4:00,0:00,0:00,0:00,0:00,40.871144,-73.851046,211.0,12.0,348.0,2093501.0,2045810001.0,Allerton-Pelham Gardens,POINT (-73.851046 40.871144),"1246 Burke Avenue, BRONX, NY 10469",034800
ELDER ABUSE SERVICES CONTRACTS,1E701,SUNNYSIDE - ELDER JUSTICE - QN NORTH (1E7),SUNNYSIDE COMMUNITY SERVICES INC,43-31 39th Street,LONG ISLAND CITY,NY,11104,QUEENS,718-784-6173,Y,9:00,5:00,9:00,5:00,9:00,5:00,9:00,5:00,9:00,5:00,0:00,0:00,0:00,0:00,40.74519,-73.925909,402.0,26.0,179.0,4436677.0,4001910005.0,Hunters Point-Sunnyside-West Maspeth,POINT (-73.925909 40.74519),"43-31 39th Street, LONG ISLAND CITY, NY 11104",017901
ELDER ABUSE SERVICES CONTRACTS,1E501,METRO NY - ELDER JUSTICE - BK SOUTH (1E5),METROPOLITAN NY COORDINATING COUNCIL ON JEWISH POVERTY D/B/A,77 Water Street,NEW YORK,NY,10005,MANHATTAN,212-453-9500,Y,9:00,5:00,9:00,5:00,9:00,5:00,9:00,5:00,9:00,5:00,0:00,0:00,0:00,0:00,40.704275,-74.008681,101.0,1.0,7.0,1000863.0,1000330001.0,Battery Park City-Lower Manhattan,POINT (-74.008681 40.704275),"77 Water Street, NEW YORK, NY 10005",000700
GERIATRIC MENTAL HEALTH SERVICES CONTRACTS,6G801,GREENWICH HOUSE GMH MN 1-8 (6G8),GREENWICH HOUSE INC.,122 WEST   27 STREET,NEW YORK,NY,10001,MANHATTAN,212-991-0003,Y,9:00,5:00,9:00,5:00,9:00,5:00,9:00,5:00,9:00,5:00,0:00,0:00,0:00,0:00,40.745782,-73.991847,105.0,3.0,95.0,1015051.0,1008020056.0,Midtown-Midtown South,POINT (-73.991847 40.745782),"122 WEST   27 STREET, NEW YORK, NY 10001",009500
TRANSPORTATION SERVICES CONTRACTS,49901,CATHAY - TRAN INDIVIDUAL RIDES - QN EAST (499),Cathay Express Transportation,30-50 WHITESTONE EXPRESSWAY,FLUSHING,NY,11357,QUEENS,212-337-3333,Y,9:00,5:00,9:00,5:00,9:00,5:00,9:00,5:00,9:00,5:00,0:00,0:00,0:00,0:00,40.770483,-73.835639,407.0,19.0,907.0,4540190.0,4043630100.0,College Point,POINT (-73.835639 40.770483),"30-50 WHITESTONE EXPRESSWAY, FLUSHING, NY 11357",None
TRANSPORTATION SERVICES CONTRACTS,49902,CATHAY - TRAN GROUP RIDES - QN EAST (499),Cathay Express Transportation,30-50 WHITESTONE EXPRESSWAY,FLUSHING,NY,11357,QUEENS,212-337-3333,Y,9:00,5:00,9:00,5:00,9:00,5:00,9:00,5:00,9:00,5:00,0:00,0:00,0:00,0:00,40.770483,-73.835639,407.0,19.0,907.0,4540190.0,4043630100.0,College Point,POINT (-73.835639 40.770483),"30-50 WHITESTONE EXPRESSWAY, FLUSHING, NY 11357",None
OLDER ADULT CENTER CONTRACTS,W1605,JAMES MONROE (W16),INSTITUTE FOR THE PUERTO RICAN HISPANIC ELDERLY INC,1780 Story Avenue,BRONX,NY,10473,BRONX,718-893-3484,Y,8:00,4:00,8:00,4:00,8:00,4:00,8:00,4:00,8:00,4:00,0:00,0:00,0:00,0:00,40.823265,-73.865779,209.0,18.0,42.0,2092748.0,2036370001.0,Soundview-Castle Hill-Clason Point-Harding Park,POINT (-73.865779 40.823265),"1780 Story Avenue, BRONX, NY 10473",004200
LEGAL SERVICES CONTRACTS,32V01,MFJ - LEGAL SERVICES - MN (32V),MOBILIZATION FOR JUSTICE INC,100 William Street 6th Fl,NEW YORK,NY,10038,MANHATTAN,212-417-3700,Y,9:00,5:00,9:00,5:00,9:00,5:00,9:00,5:00,9:00,5:00,0:00,0:00,0:00,0:00,40.708497,-74.007477,101.0,1.0,1502.0,1001116.0,1000680036.0,Battery Park City-Lower Manhattan,POINT (-74.007477 40.708497),"100 William Street 6th Fl, NEW YORK, NY 10038",None
HOME DELIVERED MEAL SERVICE CONTRACTS,11S01,EAST SIDE HOUSE - HDM - BX1-6 (11S),EAST SIDE HOUSE INC,805 E. 139TH STREET,BRONX,NY,10454,BRONX,718-665-5250,Y,9:00,5:00,9:00,5:00,9:00,5:00,9:00,5:00,9:00,5:00,0:00,0:00,0:00,0:00,40.804413,-73.909661,201.0,17.0,19.0,2004017.0,2025910037.0,Mott Haven-Port Morris,POINT (-73.909661 40.804413),"805 E. 139TH STREET, BRONX, NY 10454",001903
NATURALLY OCCURING RETIREMENT COMMUNITY CONTRACTS,N6502,STANLEY M. ISAACS NEIGHBORHOOD CENTER-TAFT NORC (N65),STANLEY M ISAACS NEIGHBORHOOD CENTER INC,415 EAST   93 STREET,NEW YORK,NY,10128,MANHATTAN,212-360-7620,Y,9:00,5:00,9:00,5:00,9:00,5:00,9:00,5:00,9:00,5:00,0:00,0:00,0:00,0:00,40.780904,-73.945112,108.0,5.0,152.0,1082367.0,1015730001.0,Yorkville,POINT (-73.945112 40.780904),"415 EAST   93 STREET, NEW YORK, NY 10128",015200
TRANSPORTATION SERVICES CONTRACTS,24602,JCCGCI - TRAN GROUP RIDES - BK (246),JEWISH COMMUNITY COUNCIL OF GREATER CONEY ISLAND INC,3001 WEST 37 STREET,BROOKLYN,NY,11224,BROOKLYN,718-449-5000,Y,9:00,5:00,9:00,5:00,9:00,5:00,9:00,5:00,9:00,5:00,0:00,0:00,0:00,0:00,40.573177,-74.002509,313.0,47.0,340.0,3189617.0,3070650001.0,Seagate-Coney Island,POINT (-74.002509 40.573177),"3001 WEST 37 STREET, BROOKLYN, NY 11224",034000
HOMECARE SERVICES CONTRACTS,4HR01,PEOPLE CARE HOME CARE QN (4HR),PEOPLE CARE INCORPORATED,1649 61St Street,BROOKLYN,NY,11204,BROOKLYN,212-631-7384,Y,9:00,5:00,9:00,5:00,9:00,5:00,9:00,5:00,9:00,5:00,0:00,0:00,0:00,0:00,40.623549,-73.991333,312.0,44.0,242.0,3132079.0,3055170065.0,Borough Park,POINT (-73.991333 40.623549),"1649 61St Street, BROOKLYN, NY 11204",024200
CITY MEALS ADMINISTRATIVE SERVICES CONTRACTS,CM601,CMOW HDM CITYWIDE (CM6),CITYMEALS-ON-WHEELS,355 Lexington Ave Fl 3,NEW YORK,NY,10017,MANHATTAN,212-687-1234,Y,9:00,0:00,9:00,0:00,9:00,0:00,9:00,0:00,9:00,0:00,0:00,0:00,0:00,0:00,40.750245,-73.976909,106.0,4.0,80.0,1036147.0,1012950023.0,Murray Hill-Kips Bay,POINT (-73.976909 40.750245),"355 Lexington Ave Fl 3, NEW YORK, NY 10017",008000
ELDER ABUSE SERVICES CONTRACTS,1E402,JASA - ELDER JUSTICE - QN SOUTH (1E4),THE JEWISH ASSOCIATION FOR SERVICES FOR THE AGED,131 BEACH   19 STREET,FAR ROCKAWAY,NY,11691,QUEENS,212-273-5200,Y,9:00,5:00,9:00,5:00,9:00,5:00,9:00,5:00,9:00,5:00,0:00,0:00,0:00,0:00,40.593761,-73.753207,414.0,31.0,99802.0,4301622.0,4158100055.0,Far Rockaway-Bayswater,POINT (-73.753207 40.593761),"131 BEACH   19 STREET, FAR ROCKAWAY, NY 11691",099802
GERIATRIC MENTAL HEALTH SERVICES CONTRACTS,5G301,WEILL MEDICAL GMH BK 5 7 10 11 12 13 14 15 18; SI (5G3),WEILL MEDICAL COLLEGE OF CORNELL UNIVERSITY,21 BLOOMINGDALE RD,WHITE PLAINS,NY,10605,,646-962-8290,Y,9:00,5:00,9:00,5:00,9:00,5:00,9:00,5:00,9:00,5:00,0:00,0:00,0:00,0:00,,,,,,,,,,"21 BLOOMINGDALE RD, WHITE PLAINS, NY 10605",009702
OLDER ADULT CENTER CONTRACTS,CC201,JAMAICA OLDER ADULT CENTER (CC2),QUEENS COMMUNITY HOUSE INC.,89-60 164th Street,JAMAICA,NY,11432,QUEENS,718-592-5757,Y,9:00,5:00,9:00,5:00,9:00,5:00,9:00,5:00,9:00,5:00,0:00,0:00,0:00,0:00,40.707053,-73.796924,412.0,24.0,44601.0,4209585.0,4097930086.0,Jamaica,POINT (-73.796924 40.707053),"89-60 164th Street, JAMAICA, NY 11432",044601
TRANSPORTATION SERVICES CONTRACTS,44602,HANAC - TRAN GROUP RIDES - QN WEST (446),HANAC INC.,27-40 Hoyt Avenue South,LONG ISLAND CITY,NY,11102,QUEENS,212-840-8005,Y,9:00,5:00,9:00,5:00,9:00,5:00,9:00,5:00,9:00,5:00,0:00,0:00,0:00,0:00,40.771857,-73.9198,401.0,22.0,69.0,4537921.0,4008390001.0,Old Astoria,POINT (-73.9198 40.771857),"27-40 Hoyt Avenue South, LONG ISLAND CITY, NY 11102",006900
HOME DELIVERED MEAL SERVICE CONTRACTS,42P01,PETER CARDELLA HDM QN2 5 (42P),PETER CARDELLA SENIOR CITIZEN CENTER INC,68-52 FRESH POND ROAD,FLUSHING,NY,11385,QUEENS,718-497-2908,Y,8:00,4:00,8:00,4:00,8:00,4:00,8:00,4:00,8:00,4:00,0:00,0:00,0:00,0:00,40.703894,-73.895681,405.0,30.0,583.0,4085200.0,4035350024.0,Ridgewood,POINT (-73.895681 40.703894),"68-52 FRESH POND ROAD, FLUSHING, NY 11385",058300
NATURALLY OCCURING RETIREMENT COMMUNITY CONTRACTS,N6601,EDUCATIONAL ALLIANCE CO OP VILLAGE NORC (N66),THE EDUCATIONAL ALLIANCE INC,465 Grand Street,NEW YORK,NY,10002,MANHATTAN,646-395-4510,Y,9:00,5:00,9:00,5:00,9:00,5:00,9:00,5:00,9:00,5:00,0:00,0:00,0:00,0:00,40.715133,-73.984031,103.0,1.0,1401.0,1004056.0,1003150070.0,Lower East Side,POINT (-73.984031 40.715133),"465 Grand Street, NEW YORK, NY 10002",001401
TRANSPORTATION SERVICES CONTRACTS,30901,ARC XVI - TRAN INDIVIDUAL RIDES - MN NORTH (309),ARC XVI FORT WASHINGTON INC,108 WEST  146 STREET,NEW YORK,NY,10039,MANHATTAN,212-281-1349,Y,8:30,4:30,8:30,4:30,8:30,4:30,8:30,4:30,8:30,4:30,0:00,0:00,0:00,0:00,40.821341,-73.936317,110.0,9.0,232.0,1060189.0,1020140036.0,Central Harlem North-Polo Grounds,POINT (-73.936317 40.821341),"108 WEST  146 STREET, NEW YORK, NY 10039",023200
OLDER ADULT CENTER CONTRACTS,4AT01,MIDDLE VILLAGE ADULT CENTER (4AT),RABBI ISRAEL MEYER HACOHEN RABBINICAL SEMINARY OF AMERICA,69-10 75th St.,FLUSHING,NY,11379,QUEENS,718-894-3441,Y,,,,,,,,,,,,,,,40.709285,-73.876664,405.0,30.0,619.0,4091868.0,4037860020.0,Middle Village,POINT (-73.876664 40.709285),"69-10 75th St., FLUSHING, NY 11379",061900
OLDER ADULT CENTER CONTRACTS,C2002,MMCC-CDC OLDER ADULT CENTER MAIN BUILDING (C20),CHILD DEVELOPMENT CENTER OF THE MOSHOLU-MONTEFIORE COMMMUNIT,3450 Dekalb Avenue,BRONX,NY,10467,BRONX,718-798-6601,Y,8:30,4:30,8:30,4:30,8:30,4:30,8:30,4:30,8:30,4:30,0:00,0:00,0:00,0:00,40.881486,-73.881226,207.0,11.0,421.0,2096396.0,2033270001.0,Norwood,POINT (-73.881226 40.881486),"3450 Dekalb Avenue, BRONX, NY 10467",042100
OLDER ADULT CENTER CONTRACTS,C5601,QCH FOREST HILLS OAC (C56),QUEENS COMMUNITY HOUSE INC.,108-25 62nd Drive,FLUSHING,NY,11375,QUEENS,718-699-1010,Y,8:00,4:00,8:00,4:00,8:00,4:00,8:00,4:00,8:00,4:00,0:00,0:00,0:00,0:00,40.73591,-73.850212,406.0,29.0,745.0,4432108.0,4021590002.0,Forest Hills,POINT (-73.850212 40.73591),"108-25 62nd Drive, FLUSHING, NY 11375",074500
OLDER ADULT CENTER CONTRACTS,C4705,JCCGCI MARIEN-HEIM OLDER ADULT CENTER (C47),JEWISH COMMUNITY COUNCIL OF GREATER CONEY ISLAND INC,870 Ocean Parkway,BROOKLYN,NY,11230,BROOKLYN,718-438-7771,Y,8:30,4:30,8:30,4:30,8:30,4:30,8:30,4:30,8:30,4:30,0:00,0:00,0:00,0:00,40.627218,-73.971057,312.0,44.0,46201.0,3170453.0,3065080006.0,Flatbush,POINT (-73.971057 40.627218),"870 Ocean Parkway, BROOKLYN, NY 11230",046201
OLDER ADULT CENTER CONTRACTS,C2401,HAMILTON GRANGE NSC (C24),CONVENT AVENUE BAPTIST CHURCH,420 West 145th Street,NEW YORK,NY,10032,MANHATTAN,212-862-4181,Y,9:00,5:00,9:00,5:00,9:00,5:00,9:00,5:00,9:00,5:00,0:00,0:00,0:00,0:00,40.824436,-73.945733,109.0,7.0,227.0,1060948.0,1020500042.0,Hamilton Heights,POINT (-73.945733 40.824436),"420 West 145th Street, NEW YORK, NY 10032",022700
OLDER ADULT CENTER CONTRACTS,C1107,BRONXWORKS SOUNDVIEW (C11),BRONXWORKS INC,391 Bronx River Avenue,BRONX,NY,10473,BRONX,917-633-5951,Y,8:00,4:00,8:00,4:00,8:00,4:00,8:00,4:00,8:00,4:00,0:00,0:00,0:00,0:00,40.814436,-73.866773,209.0,18.0,20.0,2127010.0,2035150040.0,Soundview-Castle Hill-Clason Point-Harding Park,POINT (-73.866773 40.814436),"391 Bronx River Avenue, BRONX, NY 10473",000200
OLDER ADULT CENTER CONTRACTS,C5602,QCH KEW GARDENS COMMUNITY CENTER OAC (C56),QUEENS COMMUNITY HOUSE INC.,80-02 Kew Gardens Road,JAMAICA,NY,11415,QUEENS,718-268-0895,Y,9:00,5:00,9:00,5:00,9:00,5:00,9:00,5:00,9:00,5:00,0:00,0:00,0:00,0:00,40.713686,-73.830505,409.0,29.0,773.0,4312089.0,4033480037.0,Kew Gardens,POINT (-73.830505 40.713686),"80-02 Kew Gardens Road, JAMAICA, NY 11415",077300
OLDER ADULT CENTER CONTRACTS,C9101,CENTER AT THE RED OAK (C91),WEST SIDE FEDERATION FOR SENIOR AND SUPPORTIVE HOUSING INC,135 West 106 Street,NEW YORK,NY,10025,MANHATTAN,917-544-1892,Y,8:30,4:00,8:30,4:00,8:30,4:00,8:30,4:00,8:30,4:00,0:00,0:00,0:00,0:00,40.799919,-73.964459,107.0,7.0,193.0,1055957.0,1018610010.0,Morningside Heights,POINT (-73.964459 40.799919),"135 West 106 Street, NEW YORK, NY 10025",019300
OLDER ADULT CENTER CONTRACTS,C8102,EDUCATIONAL ALLIANCE WEINBERG OAC (C81),THE EDUCATIONAL ALLIANCE INC,197 East Broadway,NEW YORK,NY,10002,MANHATTAN,646-395-4270,Y,9:00,5:00,9:00,5:00,9:00,5:00,9:00,5:00,9:00,5:00,0:00,0:00,0:00,0:00,40.714219,-73.988219,103.0,1.0,6.0,1003704.0,1002850029.0,Lower East Side,POINT (-73.988219 40.714219),"197 East Broadway, NEW YORK, NY 10002",000600
HOME DELIVERED MEAL SERVICE CONTRACTS,CM501,CITYMEALS ON WHEELS (CM5),CITYMEALS-ON-WHEELS,355 Lexington Ave Fl 3,NEW YORK,NY,10017,MANHATTAN,212-687-1234,Y,,,,,,,,,,,,,,,40.750245,-73.976909,106.0,4.0,80.0,1036147.0,1012950023.0,Murray Hill-Kips Bay,POINT (-73.976909 40.750245),"355 Lexington Ave Fl 3, NEW YORK, NY 10017",008000
OLDER ADULT CENTER CONTRACTS,C3301,FIND AID CLINTON OAC (C33),FIND AID FOR THE AGED,530 West 55th Street,NEW YORK,NY,10019,MANHATTAN,212-757-2026,Y,9:00,5:00,9:00,5:00,9:00,5:00,9:00,5:00,9:00,5:00,0:00,0:00,0:00,0:00,40.768258,-73.990588,104.0,6.0,135.0,1027059.0,1010830015.0,Clinton,POINT (-73.990588 40.768258),"530 West 55th Street, NEW YORK, NY 10019",013502
OLDER ADULT CENTER CONTRACTS,W2002,BREVOORT SENIOR CLUB (W20),RISEBORO COMMUNITY PARTNERSHIP INC,280 Ralph Avenue,BROOKLYN,NY,11233,BROOKLYN,347-318-3383,Y,9:00,5:00,9:00,5:00,9:00,5:00,9:00,5:00,9:00,5:00,0:00,0:00,0:00,0:00,40.679794,-73.922153,303.0,41.0,381.0,3325173.0,3016880001.0,Crown Heights North,POINT (-73.922153 40.679794),"280 Ralph Avenue, BROOKLYN, NY 11233",038100
HOME DELIVERED MEAL SERVICE CONTRACTS,29E01,JASA BROOKLYN HOME DELIVERED MEALS (29E),THE JEWISH ASSOCIATION FOR SERVICES FOR THE AGED,1201 PENNSYLVANIA AVENUE,BROOKLYN,NY,11239,BROOKLYN,212-273-5200,Y,,,,,,,,,,,,,,,40.651173,-73.885082,305.0,42.0,105801.0,3336175.0,3044350001.0,Starrett City,POINT (-73.885082 40.651173),"1201 PENNSYLVANIA AVENUE, BROOKLYN, NY 11239",105801
OLDER ADULT CENTER CONTRACTS,W2103,SELFHELP CLEARVIEW (W21),SELFHELP COMMUNITY SERVICES INC,208-11 26th Avenue,FLUSHING,NY,11360,QUEENS,718-224-7888,Y,8:30,4:00,8:30,4:00,8:30,4:00,8:30,4:00,8:30,4:00,0:00,0:00,0:00,0:00,40.776381,-73.783798,407.0,19.0,99704.0,4130866.0,4058630250.0,Ft. Totten-Bay Terrace-Clearview,POINT (-73.783798 40.776381),"208-11 26th Avenue, FLUSHING, NY 11360",099704
OLDER ADULT CENTER CONTRACTS,C4702,JCCGCI HABER HOUSE OLDER ADULT CENTER (C47),JEWISH COMMUNITY COUNCIL OF GREATER CONEY ISLAND INC,3024 West 24th Street,BROOKLYN,NY,11224,BROOKLYN,718-372-5775,Y,8:00,4:00,8:00,4:00,8:00,4:00,8:00,4:00,7:30,2:30,0:00,0:00,0:00,0:00,40.573171,-73.990645,313.0,47.0,352.0,3322050.0,3070700001.0,Seagate-Coney Island,POINT (-73.990645 40.573171),"3024 West 24th Street, BROOKLYN, NY 11224",035200
OLDER ADULT CENTER CONTRACTS,C5001,MBSCC CONCOURSE PLAZA WELLNESS CENTER FOR OLDER ADULTS (C50),MID BRONX SENIOR CITIZENS COUNCIL INC,900 Grand Concourse,BRONX,NY,10451,BRONX,718-588-8200,Y,9:00,7:00,9:00,7:00,9:00,7:00,9:00,7:00,9:00,7:00,0:00,0:00,0:00,0:00,40.827412,-73.922277,204.0,16.0,18301.0,2002802.0,2024600001.0,East Concourse-Concourse Village,POINT (-73.922277 40.827412),"900 Grand Concourse, BRONX, NY 10451",018301
OLDER ADULT CENTER CONTRACTS,C8402,LEON OAC (C84),THE NEIGHBORHOOD SELF-HELP BY OLDER PERSONS PROJECT INC,735 East 152nd Street,BRONX,NY,10455,BRONX,718-708-6897,Y,8:30,4:30,8:30,4:30,8:30,4:30,8:30,4:30,8:30,4:30,0:00,0:00,0:00,0:00,40.815994,-73.907843,201.0,17.0,79.0,2091979.0,2026540002.0,Melrose South-Mott Haven North,POINT (-73.907843 40.815994),"735 East 152nd Street, BRONX, NY 10455",007900
OLDER ADULT CENTER CONTRACTS,C5201,NORTHEAST BRONX (C52),NORTHEAST BRONX SENIOR CITIZENS INC,2968 Bruckner Blvd,BRONX,NY,10465,BRONX,718-892-6090,Y,8:00,4:00,8:00,4:00,8:00,4:00,8:00,4:00,8:00,4:00,0:00,0:00,0:00,0:00,40.833889,-73.826264,210.0,13.0,164.0,2097558.0,2054200002.0,Schuylerville-Throgs Neck-Edgewater Park,POINT (-73.826264 40.833889),"2968 Bruckner Blvd, BRONX, NY 10465",016400
OLDER ADULT CENTER CONTRACTS,C1601,CARTER BURDEN LUNCHEON CLUB & SOCIAL SERVICE UNIT (C16),CARTER BURDEN NETWORK INC.,351 East 74th Street,NEW YORK,NY,10021,MANHATTAN,646-937-3520,Y,8:00,4:00,8:00,4:00,8:00,4:00,8:00,4:00,8:00,4:00,0:00,0:00,0:00,0:00,40.76962,-73.956197,108.0,5.0,134.0,1044930.0,1014490020.0,Lenox Hill-Roosevelt Island,POINT (-73.956197 40.76962),"351 East 74th Street, NEW YORK, NY 10021",013400
OLDER ADULT CENTER CONTRACTS,C1715,CCNS ST. LOUIS OAC (C17),CATHOLIC CHARITIES NEIGHBORHOOD SERVICES INC,230 Kingston Avenue,BROOKLYN,NY,11213,BROOKLYN,718-771-7945,Y,8:00,4:00,8:00,4:00,8:00,4:00,8:00,4:00,8:00,4:00,0:00,0:00,0:00,0:00,40.671821,-73.941982,308.0,35.0,339.0,3032045.0,3012500025.0,Crown Heights North,POINT (-73.941982 40.671821),"230 Kingston Avenue, BROOKLYN, NY 11213",033900
OLDER ADULT CENTER CONTRACTS,C3801,HMH CITY HALL OLDER ADULT CENTER (C38),HAMILTON MADISON HOUSE INC,100 Gold Street Lower Level,NEW YORK,NY,10038,MANHATTAN,212-788-5580,Y,8:30,4:30,8:30,4:30,8:30,4:30,8:30,4:30,8:30,4:30,0:00,0:00,0:00,0:00,40.710353,-74.004007,101.0,1.0,1501.0,1001289.0,1000940025.0,Battery Park City-Lower Manhattan,POINT (-74.004007 40.710353),"100 Gold Street Lower Level, NEW YORK, NY 10038",001501
OLDER ADULT CENTER CONTRACTS,C7202,WYCKOFF GARDENS NSC (C72),SPANISH SPEAKING ELDERLY COUNCIL RAICES INC.,280 Wyckoff Street,BROOKLYN,NY,11217,BROOKLYN,718-237-1802,Y,9:00,5:00,9:00,5:00,9:00,5:00,9:00,5:00,9:00,5:00,0:00,0:00,0:00,0:00,40.683365,-73.983941,306.0,33.0,127.0,3336056.0,3003940001.0,DUMBO-Vinegar Hill-Downtown Brooklyn-Boerum Hill,POINT (-73.983941 40.683365),"280 Wyckoff Street, BROOKLYN, NY 11217",012700
OLDER ADULT CENTER CONTRACTS,C7501,ST NICKS ALLIANCE COOPER PARK SOCIAL 2 (C75),ST. NICKS ALLIANCE CORP.,288 Frost Street,BROOKLYN,NY,11222,BROOKLYN,718-227-3652,Y,9:00,4:00,9:00,4:00,9:00,4:00,9:00,4:00,9:00,4:00,0:00,0:00,0:00,0:00,40.718837,-73.939856,301.0,34.0,449.0,3327829.0,3028670001.0,East Williamsburg,POINT (-73.939856 40.718837),"288 Frost Street, BROOKLYN, NY 11222",047700
OLDER ADULT CENTER CONTRACTS,C1603,CBN LEONARD COVELLO (ISC) SENIOR PROGRAM (C16),CARTER BURDEN NETWORK INC.,312 East 109th Street,NEW YORK,NY,10029,MANHATTAN,212-423-9665,Y,8:00,4:00,8:00,4:00,8:00,4:00,8:00,4:00,8:00,4:00,0:00,0:00,0:00,0:00,40.792306,-73.94048,111.0,8.0,170.0,1074278.0,1016800045.0,East Harlem South,POINT (-73.94048 40.792306),"312 East 109th Street, NEW YORK, NY 10029",017000
HOME DELIVERED MEAL SERVICE CONTRACTS,11V01,EAST SIDE HOUSE INC. (11V),EAST SIDE HOUSE INC,337 ALEXANDER AVENUE,BRONX,NY,10454,BRONX,718-665-5250,Y,,,,,,,,,,,,,,,40.812322,-73.923486,201.0,8.0,41.0,2090408.0,2023150038.0,Mott Haven-Port Morris,POINT (-73.923486 40.812322),"337 ALEXANDER AVENUE, BRONX, NY 10454",004100
OLDER ADULT CENTER CONTRACTS,C1904,CENTRAL HARLEM SC CTR BEATRICE LEWIS (C19),CENTRAL HARLEM SENIOR CITIZENS CENTERS INC.,2322 Third Avenue,NEW YORK,NY,10035,MANHATTAN,212-289-9155,Y,9:00,5:00,9:00,5:00,9:00,5:00,9:00,5:00,9:00,5:00,0:00,0:00,0:00,0:00,40.804468,-73.935267,111.0,9.0,242.0,1054497.0,1017750033.0,East Harlem North,POINT (-73.935267 40.804468),"2322 Third Avenue, NEW YORK, NY 10035",024200
OLDER ADULT CENTER CONTRACTS,C1702,CCNS DELLAMONICA- SREINWAY OAC (C17),CATHOLIC CHARITIES NEIGHBORHOOD SERVICES INC,23-56 Broadway,LONG ISLAND CITY,NY,11106,QUEENS,718-626-1500,Y,9:00,5:00,9:00,5:00,9:00,5:00,9:00,5:00,9:00,5:00,0:00,0:00,0:00,0:00,40.764285,-73.930011,401.0,22.0,53.0,4006560.0,4005660050.0,Astoria,POINT (-73.930011 40.764285),"23-56 Broadway, LONG ISLAND CITY, NY 11106",005300
OLDER ADULT CENTER CONTRACTS,C7704,NEW DORP BEACH OAC (C77),STATEN ISLAND COMMUNITY SERVICES FRIENDSHIP CLUBS INC,128 Cedar Grove Avenue,STATEN ISLAND,NY,10306,STATEN ISLAND,TBD,Y,9:00,5:00,9:00,5:00,9:00,5:00,9:00,5:00,9:00,5:00,0:00,0:00,0:00,0:00,40.561467,-74.100329,595.0,50.0,12804.0,5113475.0,5041050050.0,New Dorp-Midland Beach,POINT (-74.100329 40.561467),"128 Cedar Grove Avenue, STATEN ISLAND, NY 10306",012804
HOME DELIVERED MEAL SERVICE CONTRACTS,36G01,ENCORE HOME DELIVERED MEALS (36G),ENCORE COMMUNITY SERVICES,239 WEST   49 STREET,NEW YORK,NY,10019,MANHATTAN,646-726-4299,Y,,,,,,,,,,,,,,,40.761143,-73.985312,105.0,3.0,125.0,1024789.0,1010210009.0,Midtown-Midtown South,POINT (-73.985312 40.761143),"239 WEST   49 STREET, NEW YORK, NY 10019",012500
OLDER ADULT CENTER CONTRACTS,C3513,TERESA MOORE OAC (C35),FORT GREENE COUNCIL,2702 Linden Blvd,BROOKLYN,NY,11208,BROOKLYN,347-663-7770,Y,9:00,5:00,9:00,5:00,9:00,5:00,9:00,5:00,9:00,5:00,0:00,0:00,0:00,0:00,40.669208,-73.864514,305.0,42.0,1214.0,3326995.0,3044880001.0,East New York,POINT (-73.864514 40.669208),"2702 Linden Blvd, BROOKLYN, NY 11208",121400
OLDER ADULT CENTER CONTRACTS,C8001,SHORE HILL OLDER ADULT CENTER (C80),SUNSET PARK HEALTH COUNCIL INC d/b/a FAMILY HEALTH CENTERS A,9000 Shore Road,BROOKLYN,NY,11209,BROOKLYN,347-377-5474,Y,9:00,5:00,9:00,5:00,9:00,5:00,9:00,5:00,9:00,5:00,0:00,0:00,0:00,0:00,40.622093,-74.040244,310.0,43.0,5201.0,3322532.0,3060780010.0,Bay Ridge,POINT (-74.040244 40.622093),"9000 Shore Road, BROOKLYN, NY 11209",None
OLDER ADULT CENTER CONTRACTS,C1106,BRONXWORKS MORRIS (ISC) (C11),BRONXWORKS INC,80 East 181st Street,BRONX,NY,10453,BRONX,718-933-5300,Y,8:00,4:00,8:00,4:00,8:00,4:00,8:00,4:00,8:00,4:00,0:00,0:00,0:00,0:00,40.855076,-73.904199,205.0,14.0,241.0,2013953.0,2031780032.0,Mount Hope,POINT (-73.904199 40.855076),"80 East 181st Street, BRONX, NY 10453",024100
OLDER ADULT CENTER CONTRACTS,C1605,CBN ROOSEVELT ISLAND SENIOR CENTER (C16),CARTER BURDEN NETWORK INC.,546 Main Street,NEW YORK,NY,10044,MANHATTAN,212-980-1888,Y,9:00,5:00,9:00,5:00,9:00,5:00,9:00,5:00,9:00,5:00,0:00,0:00,0:00,0:00,40.761781,-73.949762,108.0,5.0,23801.0,1083202.0,1013730030.0,Lenox Hill-Roosevelt Island,POINT (-73.949762 40.761781),"546 Main Street, NEW YORK, NY 10044",000500
TRANSPORTATION SERVICES CONTRACTS,61402,FEJOST - TRAN GROUP RIDES - CITYWIDE (614),Fejost LLC,1401 WEBSTER AVENUE,BRONX,NY,10456,BRONX,914-413-5313,Y,,,,,,,,,,,,,,,40.836291,-73.907377,204.0,16.0,17702.0,2119686.0,2028870147.0,East Concourse-Concourse Village,POINT (-73.907377 40.836291),"1401 WEBSTER AVENUE, BRONX, NY 10456",017702
OLDER ADULT CENTER CONTRACTS,C1707,CCNS HILLCREST OAC (C17),CATHOLIC CHARITIES NEIGHBORHOOD SERVICES INC,91-34 182nd Pl,JAMAICA,NY,11432,QUEENS,718-297-7171,Y,9:00,5:00,9:00,5:00,9:00,5:00,9:00,5:00,9:00,5:00,0:00,0:00,0:00,0:00,40.709634,-73.778431,412.0,27.0,470.0,4211802.0,4099000001.0,Jamaica,POINT (-73.778431 40.709634),"91-34 182nd Pl, JAMAICA, NY 11432",047000
OLDER ADULT CENTER CONTRACTS,W1402,LIFELONG LEARNING CENTER @ ENCORE WEST (W14),ENCORE COMMUNITY SERVICES,755 10th Avenue,NEW YORK,NY,10019,MANHATTAN,212-991-3726,Y,8:00,4:30,8:00,4:30,8:00,4:30,8:00,4:30,8:00,4:30,0:00,0:00,0:00,0:00,40.765461,-73.991235,104.0,3.0,135.0,1087482.0,1010800030.0,Clinton,POINT (-73.991235 40.765461),"755 10th Avenue, NEW YORK, NY 10019",013501
OLDER ADULT CENTER CONTRACTS,C5605,QCH REGO PARK OAC (C56),QUEENS COMMUNITY HOUSE INC.,93-29 Queens Blvd,FLUSHING,NY,11374,QUEENS,718-896-8511,Y,8:00,4:00,8:00,4:00,8:00,4:00,8:00,4:00,8:00,4:00,0:00,0:00,0:00,0:00,40.73147,-73.866044,406.0,29.0,71702.0,4050408.0,4020770050.0,Rego Park,POINT (-73.866044 40.73147),"93-29 Queens Blvd, FLUSHING, NY 11374",071702
OLDER ADULT CENTER CONTRACTS,CC101,ELMCOR GOLDEN PHOENIX CLUB FOUR (CC1),ELMCOR YOUTH & ADULT ACTIVITIES INC,33-16 108th Street,FLUSHING,NY,11368,QUEENS,718-651-0096,Y,9:00,3:00,9:00,3:00,9:00,3:00,9:00,3:00,9:00,3:00,0:00,0:00,0:00,0:00,40.757429,-73.860938,403.0,21.0,381.0,4042761.0,4017220012.0,North Corona,POINT (-73.860938 40.757429),"33-16 108th Street, FLUSHING, NY 11368",038100
OLDER ADULT CENTER CONTRACTS,C5401,PETER CARDELLA OLDER ADULT CENTER (C54),PETER CARDELLA SENIOR CITIZEN CENTER INC,68-52 Fresh Pond Road,FLUSHING,NY,11385,QUEENS,718-497-2908,Y,8:00,3:30,8:00,3:30,8:00,3:30,8:00,3:30,8:00,3:30,0:00,0:00,0:00,0:00,40.703894,-73.895681,405.0,30.0,583.0,4085200.0,4035350024.0,Ridgewood,POINT (-73.895681 40.703894),"68-52 Fresh Pond Road, FLUSHING, NY 11385",058300
OLDER ADULT CENTER CONTRACTS,C3602,GODDARD RIVERSIDE OAC AT WEST 88TH STREET (C36),GODDARD-RIVERSIDE COMMUNITY CENTER,593 Columbus Avenue,NEW YORK,NY,10024,MANHATTAN,212-873-6600,Y,9:00,5:00,9:00,5:00,9:00,5:00,9:00,5:00,9:00,5:00,0:00,0:00,0:00,0:00,40.788212,-73.970904,107.0,6.0,173.0,1079511.0,1012020001.0,Upper West Side,POINT (-73.970904 40.788212),"593 Columbus Avenue, NEW YORK, NY 10024",017300
OLDER ADULT CENTER CONTRACTS,C8101,EDUCATIONAL ALLIANCE SIROVICH OLDER ADULT CENTER (C81),THE EDUCATIONAL ALLIANCE INC,331 East 12th Street,NEW YORK,NY,10003,MANHATTAN,646-395-4529,Y,8:00,5:00,8:00,5:00,8:00,5:00,8:00,5:00,8:00,5:00,9:00,3:00,0:00,0:00,40.730657,-73.985041,103.0,2.0,40.0,1006502.0,1004540052.0,East Village,POINT (-73.985041 40.730657),"331 East 12th Street, NEW YORK, NY 10003",004001
OLDER ADULT CENTER CONTRACTS,C3505,CHRISTOPHER BLENMAN OAC (C35),FORT GREENE COUNCIL,720 East New York Avenue,BROOKLYN,NY,11203,BROOKLYN,718-773-7400,Y,9:00,5:00,9:00,5:00,9:00,5:00,9:00,5:00,9:00,5:00,0:00,0:00,0:00,0:00,40.662289,-73.938916,309.0,41.0,87401.0,3106612.0,3047950016.0,Prospect Lefferts Gardens-Wingate,POINT (-73.938916 40.662289),"720 East New York Avenue, BROOKLYN, NY 11203",087401
OLDER ADULT CENTER CONTRACTS,C0803,BERGEN BASIN MARINE PARK OLDER ADULT CENTER (C08),BERGEN BASIN COMMUNITY DEVELOPMENT CORPORATION DBA MILLENNIU,3000 Fillmore Avenue,BROOKLYN,NY,11234,BROOKLYN,718-336-0275,Y,9:00,5:00,9:00,5:00,9:00,5:00,9:00,5:00,9:00,5:00,0:00,0:00,0:00,0:00,40.608592,-73.937467,318.0,46.0,666.0,3000000.0,3084960001.0,park-cemetery-etc-Brooklyn,POINT (-73.937467 40.608592),"3000 Fillmore Avenue, BROOKLYN, NY 11234",066600
CASE MANAGEMENT SERVICES CONTRACTS,2MH01,CCNS - CMA - BK 10 11 (2MH),CATHOLIC CHARITIES NEIGHBORHOOD SERVICES INC,6823 Fifth Avenue 3rd Floor,BROOKLYN,NY,11220,BROOKLYN,718-722-6000,Y,8:30,4:30,8:30,4:30,8:30,4:30,8:00,4:30,8:00,4:30,0:00,0:00,0:00,0:00,40.633953,-74.020799,310.0,47.0,130.0,3145313.0,3058650001.0,Bay Ridge,POINT (-74.020799 40.633953),"6823 Fifth Avenue 3rd Floor, BROOKLYN, NY 11220",013000
NATURALLY OCCURING RETIREMENT COMMUNITY CONTRACTS,N6801,JASA CO OP CITY NORC (N68),THE JEWISH ASSOCIATION FOR SERVICES FOR THE AGED,2049 Bartow Avenue,BRONX,NY,10475,BRONX,718-320-2066,Y,9:00,5:00,9:00,5:00,9:00,5:00,9:00,5:00,9:00,5:00,0:00,0:00,0:00,0:00,40.86942,-73.829027,210.0,12.0,46201.0,2097466.0,2051410100.0,Co-op City,POINT (-73.829027 40.86942),"2049 Bartow Avenue, BRONX, NY 10475",046205
OLDER ADULT CENTER CONTRACTS,C2102,CPC NAN SHAN NEIGHBORHOOD SENIOR CENTER (C21),CHINESE AMERICAN PLANNING COUNCIL INC,133-14 41st Avenue 1st Floor,FLUSHING,NY,11355,QUEENS,718-358-3030,Y,8:00,4:00,8:00,4:00,8:00,4:00,8:00,4:00,8:00,4:00,0:00,0:00,0:00,0:00,40.757805,-73.830321,407.0,20.0,849.0,4114228.0,4050410005.0,Flushing,POINT (-73.830321 40.757805),"133-14 41st Avenue 1st Floor, FLUSHING, NY 11355",084902
OLDER ADULT CENTER CONTRACTS,W2204,JASA BROOKDALE VILLAGE (W22),THE JEWISH ASSOCIATION FOR SERVICES FOR THE AGED,131 Beach 19 Street,FAR ROCKAWAY,NY,11691,QUEENS,718-471-3200,Y,8:30,4:30,8:30,4:30,8:30,4:30,8:30,4:30,8:30,4:30,0:00,0:00,0:00,0:00,40.593761,-73.753207,414.0,31.0,99802.0,4301622.0,4158100055.0,Far Rockaway-Bayswater,POINT (-73.753207 40.593761),"131 Beach 19 Street, FAR ROCKAWAY, NY 11691",099802
OLDER ADULT CENTER CONTRACTS,C5102,NYFSC LAGUARDIA OLDER ADULT CENTER (C51),NEW YORK FOUNDATION FOR SENIOR CITIZENS INC,280 Cherry Street,NEW YORK,NY,10002,MANHATTAN,212-732-3656,Y,8:30,4:30,8:30,4:30,8:30,4:30,8:30,4:30,8:30,4:30,0:00,0:00,0:00,0:00,40.711376,-73.988461,103.0,1.0,6.0,1003211.0,1002560014.0,Lower East Side,POINT (-73.988461 40.711376),"280 Cherry Street, NEW YORK, NY 10002",000600
OLDER ADULT CENTER CONTRACTS,C0805,BERGEN BASIN MILL BASIN OLDER ADULT CENTER (C08),BERGEN BASIN COMMUNITY DEVELOPMENT CORPORATION DBA MILLENNIU,2075 East 68th Street,BROOKLYN,NY,11234,BROOKLYN,718-444-3850,Y,9:00,5:00,9:00,5:00,9:00,5:00,9:00,5:00,9:00,5:00,0:00,0:00,0:00,0:00,40.618864,-73.910226,318.0,46.0,69602.0,3237201.0,3084090001.0,Georgetown-Marine Park-Bergen Beach-Mill Basin,POINT (-73.910226 40.618864),"2075 East 68th Street, BROOKLYN, NY 11234",069602
OLDER ADULT CENTER CONTRACTS,W2101,SELFHELP AUSTIN ST (W21),SELFHELP COMMUNITY SERVICES INC,106-06 Queens Boulevard,FLUSHING,NY,11375,QUEENS,718-520-8197,Y,8:30,4:30,8:30,4:30,8:30,4:30,8:30,4:30,8:30,4:30,0:00,0:00,0:00,0:00,40.72212,-73.847335,406.0,29.0,711.0,4077479.0,4032370040.0,Forest Hills,POINT (-73.847335 40.72212),"106-06 Queens Boulevard, FLUSHING, NY 11375",None
OLDER ADULT CENTER CONTRACTS,C9007,WAYSIDE OUT VAN DYKE II SENIOR CENTER (C90),WAYSIDE OUT-REACH DEVELOPMENT INC,430 Dumont Avenue,BROOKLYN,NY,11212,BROOKLYN,718-385-1110,Y,9:00,5:00,9:00,5:00,9:00,5:00,9:00,5:00,9:00,5:00,0:00,0:00,0:00,0:00,40.664982,-73.903308,316.0,41.0,910.0,3328126.0,3037940001.0,Brownsville,POINT (-73.903308 40.664982),"430 Dumont Avenue, BROOKLYN, NY 11212",091000
OLDER ADULT CENTER CONTRACTS,C7207,RAICES FARRAGUT OAC SATELLITE (C72),SPANISH SPEAKING ELDERLY COUNCIL RAICES INC.,228 York Street,BROOKLYN,NY,11201,BROOKLYN,718-422-1069,Y,9:00,5:00,9:00,5:00,9:00,5:00,9:00,5:00,9:00,5:00,0:00,0:00,0:00,0:00,40.701304,-73.981762,302.0,35.0,23.0,3325909.0,3000710001.0,DUMBO-Vinegar Hill-Downtown Brooklyn-Boerum Hill,POINT (-73.981762 40.701304),"228 York Street, BROOKLYN, NY 11201",002300
NATURALLY OCCURING RETIREMENT COMMUNITY CONTRACTS,N6701,HUDSON GUILD ELLIOTT-CHELSEA NORC (N67),HUDSON GUILD,428 West 26TH STREET,NEW YORK,NY,10001,MANHATTAN,212-760-9800,Y,9:00,5:00,9:00,5:00,9:00,5:00,9:00,5:00,9:00,5:00,0:00,0:00,0:00,0:00,40.749065,-74.001541,104.0,3.0,93.0,1083581.0,1007230015.0,Hudson Yards-Chelsea-Flatiron-Union Square,POINT (-74.001541 40.749065),"428 West 26TH STREET, NEW YORK, NY 10001",009300
OLDER ADULT CENTER CONTRACTS,C2104,CPC PROJECT OPEN DOOR NEIGHBORHOOD SENIOR CENTER (C21),CHINESE AMERICAN PLANNING COUNCIL INC,168 Grand Street,NEW YORK,NY,10013,MANHATTAN,212-431-9026,Y,9:00,5:00,9:00,5:00,9:00,5:00,9:00,5:00,9:00,5:00,0:00,0:00,0:00,0:00,40.71969,-73.998286,102.0,1.0,41.0,1075959.0,1004727501.0,SoHo-TriBeCa-Civic Center-Little Italy,POINT (-73.998286 40.71969),"168 Grand Street, NEW YORK, NY 10013",004100
OLDER ADULT CENTER CONTRACTS,C9404,YOUNG ISRAEL WAVECREST & BAYSWATER SENIOR LEAGUE (C94),YOUNG ISRAEL PROGRAMS INC,2716 Healy Avenue,FAR ROCKAWAY,NY,11691,QUEENS,718-327-0297,Y,8:00,4:00,8:00,4:00,8:00,4:00,8:00,4:00,8:00,4:00,0:00,0:00,0:00,0:00,40.604149,-73.765737,414.0,31.0,100802.0,4300494.0,4157220041.0,Far Rockaway-Bayswater,POINT (-73.765737 40.604149),"2716 Healy Avenue, FAR ROCKAWAY, NY 11691",100804
OLDER ADULT CENTER CONTRACTS,3TB01,WOODSIDE OLDER ADULT CENTER (3TB),SAMARITAN DAYTOP VILLAGE INC,50-37 Newtown Road,FLUSHING,NY,11377,QUEENS,718-206-2000,Y,,,,,,,,,,,,,,,40.753724,-73.911047,401.0,26.0,163.0,4430993.0,4007360002.0,Astoria,POINT (-73.911047 40.753724),"50-37 Newtown Road, FLUSHING, NY 11377",016300
OLDER ADULT CENTER CONTRACTS,C2103,CPC NY CHINATOWN NEIGHBORHOOD SENIOR CENTER (C21),CHINESE AMERICAN PLANNING COUNCIL INC,55 Chrystie Street,NEW YORK,NY,10002,MANHATTAN,212-233-8930,Y,9:00,5:00,9:00,5:00,9:00,5:00,9:00,5:00,9:00,5:00,0:00,0:00,0:00,0:00,40.716358,-73.994726,103.0,1.0,16.0,1003915.0,1003030027.0,Chinatown,POINT (-73.994726 40.716358),"55 Chrystie Street, NEW YORK, NY 10002",001600
OLDER ADULT CENTER CONTRACTS,C9103,MILL BROOK OAC (C91),WEST SIDE FEDERATION FOR SENIOR AND SUPPORTIVE HOUSING INC,570 East 137th street,BRONX,NY,10454,BRONX,646-214-2450,Y,8:30,4:00,8:30,4:00,8:30,4:00,8:30,4:00,8:30,4:00,0:00,0:00,0:00,0:00,40.805994,-73.917671,201.0,8.0,2701.0,2000000.0,2025480001.0,Mott Haven-Port Morris,POINT (-73.917671 40.805994),"570 East 137th street, BRONX, NY 10454",002701
OLDER ADULT CENTER CONTRACTS,C7703,MOUNT LORETTO OAC (C77),STATEN ISLAND COMMUNITY SERVICES FRIENDSHIP CLUBS INC,6581 Hylan Boulevard,STATEN ISLAND,NY,10309,STATEN ISLAND,718-984-8589,Y,8:00,4:00,8:00,4:00,8:00,4:00,8:00,4:00,8:00,4:00,0:00,0:00,0:00,0:00,40.508809,-74.222403,503.0,51.0,198.0,5123970.0,5076640001.0,Annadale-Huguenot-Prince's Bay-Eltingville,POINT (-74.222403 40.508809),"6581 Hylan Boulevard, STATEN ISLAND, NY 10309",None
OLDER ADULT CENTER CONTRACTS,C7209,ASTORIA NSC (C72),SPANISH SPEAKING ELDERLY COUNCIL RAICES INC.,21-21 30th Drive,LONG ISLAND CITY,NY,11102,QUEENS,718-726-9642,Y,9:00,5:00,9:00,5:00,9:00,5:00,9:00,5:00,9:00,5:00,0:00,0:00,0:00,0:00,40.768135,-73.928916,401.0,22.0,79.0,4006319.0,4005500007.0,Old Astoria,POINT (-73.928916 40.768135),"21-21 30th Drive, LONG ISLAND CITY, NY 11102",007900
OLDER ADULT CENTER CONTRACTS,C3304,FIND AID WOODSTOCK OAC (C33),FIND AID FOR THE AGED,127 West 43rd Street,NEW YORK,NY,10036,MANHATTAN,212-575-0693,Y,9:00,5:00,9:00,5:00,9:00,5:00,9:00,5:00,9:00,5:00,0:00,0:00,0:00,0:00,40.755873,-73.984454,105.0,4.0,119.0,1022613.0,1009960014.0,Midtown-Midtown South,POINT (-73.984454 40.755873),"127 West 43rd Street, NEW YORK, NY 10036",011900
OLDER ADULT CENTER CONTRACTS,C3509,MARIA LAWTON OAC (C35),FORT GREENE COUNCIL,400 Hart Street,BROOKLYN,NY,11206,BROOKLYN,718-452-7474,Y,9:00,5:00,9:00,5:00,9:00,5:00,9:00,5:00,9:00,5:00,0:00,0:00,0:00,0:00,40.694725,-73.93519,303.0,36.0,287.0,3341752.0,3015950024.0,Stuyvesant Heights,POINT (-73.93519 40.694725),"400 Hart Street, BROOKLYN, NY 11206",None
CASE MANAGEMENT SERVICES CONTRACTS,3M901,SELFHELP - CMA - MN 4 7 (3M9),SELFHELP COMMUNITY SERVICES INC,520 8 Avenue,NEW YORK,NY,10018,MANHATTAN,212-971-7600,Y,8:00,4:00,8:00,4:00,8:00,4:00,8:00,4:00,8:00,4:00,0:00,0:00,0:00,0:00,40.753612,-73.992417,105.0,3.0,109.0,1083624.0,1007860001.0,Midtown-Midtown South,POINT (-73.992417 40.753612),"520 8 Avenue, NEW YORK, NY 10018",010900
OLDER ADULT CENTER CONTRACTS,C1710,CCNS NORTHSIDE OAC (C17),CATHOLIC CHARITIES NEIGHBORHOOD SERVICES INC,179 North 6th Street,BROOKLYN,NY,11211,BROOKLYN,718-387-2316,Y,8:00,4:00,8:00,4:00,8:00,4:00,8:00,4:00,8:00,4:00,0:00,0:00,0:00,0:00,40.716685,-73.957339,301.0,33.0,553.0,3062100.0,3023280025.0,North Side-South Side,POINT (-73.957339 40.716685),"179 North 6th Street, BROOKLYN, NY 11211",055300
OLDER ADULT CENTER CONTRACTS,C3504,WILLOUGHBY OAC (C35),FORT GREENE COUNCIL,105 North Portland Avenue,BROOKLYN,NY,11205,BROOKLYN,718-875-1011,Y,9:00,5:00,9:00,5:00,9:00,5:00,9:00,5:00,9:00,5:00,0:00,0:00,0:00,0:00,40.694782,-73.976116,302.0,35.0,18501.0,3335258.0,3020410001.0,Fort Greene,POINT (-73.976116 40.694782),"105 North Portland Avenue, BROOKLYN, NY 11205",018501
OLDER ADULT CENTER CONTRACTS,C3401,FOOD BANK FOR NEW YORK CITY OAC (C34),FOOD BANK FOR NEW YORK CITY,252 West 116th Street,NEW YORK,NY,10026,MANHATTAN,212-566-7855,Y,9:00,6:00,9:00,6:00,9:00,6:00,9:00,6:00,9:00,6:00,0:00,0:00,0:00,0:00,40.80386,-73.954062,110.0,9.0,218.0,1055248.0,1018310060.0,Central Harlem South,POINT (-73.954062 40.80386),"252 West 116th Street, NEW YORK, NY 10026",021800
OLDER ADULT CENTER CONTRACTS,C1714,CCNS NARROWS OAC (C17),CATHOLIC CHARITIES NEIGHBORHOOD SERVICES INC,930 53rd Street,BROOKLYN,NY,11219,BROOKLYN,718-232-2311,Y,8:00,4:00,8:00,4:00,8:00,4:00,8:00,4:00,8:00,4:00,0:00,0:00,0:00,0:00,40.637498,-74.002266,312.0,38.0,116.0,3343065.0,3056660012.0,Borough Park,POINT (-74.002266 40.637498),"930 53rd Street, BROOKLYN, NY 11219",011600
OLDER ADULT CENTER CONTRACTS,C3511,HUGH GILROY OAC (C35),FORT GREENE COUNCIL,447 Kingsborough 4th Walk,BROOKLYN,NY,11233,BROOKLYN,718-756-8400,Y,9:00,5:00,9:00,5:00,9:00,5:00,9:00,5:00,9:00,5:00,0:00,0:00,0:00,0:00,40.675242,-73.924931,308.0,41.0,307.0,3035751.0,3013440175.0,Crown Heights North,POINT (-73.924931 40.675242),"447 Kingsborough 4th Walk, BROOKLYN, NY 11233",030700
OLDER ADULT CENTER CONTRACTS,C1301,COUNCIL CTR FOR SENIOR CITIZENS (C13),BROOKLYN SECTION NATIONAL COUNCIL OF JEWISH WOMEN INC.,1001 Quentin road,BROOKLYN,NY,11223,BROOKLYN,718-627-7680,Y,9:00,5:00,9:00,5:00,9:00,5:00,9:00,5:00,9:00,5:00,0:00,0:00,0:00,0:00,40.607755,-73.962822,315.0,44.0,420.0,3176314.0,3066420045.0,Homecrest,POINT (-73.962822 40.607755),"1001 Quentin road, BROOKLYN, NY 11223",042000
OLDER ADULT CENTER CONTRACTS,C1604,LEHMAN VILLAGE SENIOR PROGRAM (SOCIAL CLUB) (C16),CARTER BURDEN NETWORK INC.,1641 Madison Avenue,NEW YORK,NY,10029,MANHATTAN,646-370-5642,Y,8:00,4:00,8:00,4:00,8:00,4:00,8:00,4:00,8:00,4:00,0:00,0:00,0:00,0:00,40.79584,-73.947866,111.0,8.0,17401.0,1078867.0,1016150023.0,East Harlem South,POINT (-73.947866 40.79584),"1641 Madison Avenue, NEW YORK, NY 10029",017401
OLDER ADULT CENTER CONTRACTS,C1719,CCNS ST. CHARLES JUBILEE OAC (C17),CATHOLIC CHARITIES NEIGHBORHOOD SERVICES INC,55 Pierrepont Street,BROOKLYN,NY,11201,BROOKLYN,718-855-0326,Y,9:00,5:00,9:00,5:00,9:00,5:00,9:00,5:00,9:00,5:00,0:00,0:00,0:00,0:00,40.695783,-73.995117,302.0,33.0,501.0,3001825.0,3002367502.0,Brooklyn Heights-Cobble Hill,POINT (-73.995117 40.695783),"55 Pierrepont Street, BROOKLYN, NY 11201",000501
OLDER ADULT CENTER CONTRACTS,C0807,BERGEN BASIN VANDALIA OLDER ADULT CENTER (C08),BERGEN BASIN COMMUNITY DEVELOPMENT CORPORATION DBA MILLENNIU,47 Vandalia Avenue,BROOKLYN,NY,11239,BROOKLYN,718-272-3949,Y,9:00,5:00,9:00,5:00,9:00,5:00,9:00,5:00,9:00,5:00,0:00,0:00,0:00,0:00,40.649799,-73.88676,305.0,42.0,105804.0,3348859.0,3044310100.0,Starrett City,POINT (-73.88676 40.649799),"47 Vandalia Avenue, BROOKLYN, NY 11239",105804
NATURALLY OCCURING RETIREMENT COMMUNITY CONTRACTS,N5001,PELHAM PARKWAY HOUSES NORC (N50),BRONX HOUSE INC,2435 WILLIAMSBRIDGE RD,BRONX,NY,10469,BRONX,718-652-6363,Y,9:00,5:00,9:00,5:00,9:00,5:00,9:00,5:00,9:00,5:00,0:00,0:00,0:00,0:00,40.862084,-73.857697,211.0,13.0,324.0,,,Bronxdale,POINT (-73.857697 40.862084),"2435 WILLIAMSBRIDGE RD, BRONX, NY 10469",032400
OLDER ADULT CENTER CONTRACTS,C4601,QUEENSBRIDGE CENTER (C46),JACOB A RIIS NEIGHBORHOOD SETTLEMENT,10-25 41st Avenue,LONG ISLAND CITY,NY,11101,QUEENS,718-784-7447,Y,8:00,4:00,8:00,4:00,8:00,4:00,8:00,4:00,8:00,4:00,0:00,0:00,0:00,0:00,40.755488,-73.945328,401.0,26.0,25.0,4433386.0,4004700100.0,Queensbridge-Ravenswood-Long Island City,POINT (-73.945328 40.755488),"10-25 41st Avenue, LONG ISLAND CITY, NY 11101",002500
OLDER ADULT CENTER CONTRACTS,C1708,CCNS RIVERWAY OAC (ISC) (C17),CATHOLIC CHARITIES NEIGHBORHOOD SERVICES INC,230 Riverdale Avenue,BROOKLYN,NY,11212,BROOKLYN,718-942-5345,Y,8:30,4:30,8:30,4:30,8:30,4:30,8:30,4:30,8:30,4:30,0:00,0:00,0:00,0:00,40.661083,-73.908024,316.0,42.0,916.0,3413856.0,3036030025.0,Brownsville,POINT (-73.908024 40.661083),"230 Riverdale Avenue, BROOKLYN, NY 11212",091600
OLDER ADULT CENTER CONTRACTS,C5501,POLISH & SLAVIC CTR KRAKUS OAC (+ SOCIAL SVS) (C55),POLISH & SLAVIC CENTER INC,176 Java Street,BROOKLYN,NY,11222,BROOKLYN,718-383-5290,Y,9:00,4:00,9:00,4:00,9:00,4:00,9:00,4:00,9:00,4:00,0:00,0:00,0:00,0:00,40.731692,-73.953577,301.0,33.0,575.0,3064615.0,3025510014.0,Greenpoint,POINT (-73.953577 40.731692),"176 Java Street, BROOKLYN, NY 11222",057500
OLDER ADULT CENTER CONTRACTS,C7201,RED HOOK NSC (C72),SPANISH SPEAKING ELDERLY COUNCIL RAICES INC.,120 West 9th Street,BROOKLYN,NY,11231,BROOKLYN,718-269-0519,Y,9:00,5:00,9:00,5:00,9:00,5:00,9:00,5:00,9:00,5:00,0:00,0:00,0:00,0:00,40.675925,-74.001961,306.0,38.0,85.0,3339412.0,3005380001.0,Carroll Gardens-Columbia Street-Red Hook,POINT (-74.001961 40.675925),"120 West 9th Street, BROOKLYN, NY 11231",006500
OLDER ADULT CENTER CONTRACTS,W1302,GOLDEN PHOENIX 2 (ELMCOR LEFRAK NSC) (W13),ELMCOR YOUTH & ADULT ACTIVITIES INC,95-18 Northern Blvd,FLUSHING,NY,11368,QUEENS,718-651-0096,Y,9:00,4:00,9:00,4:00,9:00,4:00,9:00,4:00,9:00,4:00,0:00,0:00,0:00,0:00,40.756866,-73.872861,403.0,21.0,375.0,4042344.0,4017100010.0,North Corona,POINT (-73.872861 40.756866),"95-18 Northern Blvd, FLUSHING, NY 11368",037502
OLDER ADULT CENTER CONTRACTS,W1902,PSS DAVIDSON (W19),PRESBYTERIAN SENIOR SERVICES,950 Union Avenue,BRONX,NY,10459,BRONX,718-328-2811,Y,8:00,4:00,8:00,4:00,8:00,4:00,8:00,4:00,8:00,4:00,0:00,0:00,0:00,0:00,40.822812,-73.901821,203.0,17.0,12901.0,2005015.0,2026780001.0,Longwood,POINT (-73.901821 40.822812),"950 Union Avenue, BRONX, NY 10459",012901
OLDER ADULT CENTER CONTRACTS,45D01,ELMCOR GOLDEN PHOENIX CLUB THREE (45D),ELMCOR YOUTH & ADULT ACTIVITIES INC,96-05 Horace Harding ExpressWay,FLUSHING,NY,11368,QUEENS,718-651-0096,Y,9:00,5:00,9:00,5:00,9:00,5:00,9:00,5:00,9:00,5:00,0:00,0:00,0:00,0:00,40.734383,-73.864309,404.0,21.0,455.0,4047337.0,4019180114.0,Corona,POINT (-73.864309 40.734383),"96-05 Horace Harding ExpressWay, FLUSHING, NY 11368",045500
OLDER ADULT CENTER CONTRACTS,C8002,SUNSET PARK OAC (C80),SUNSET PARK HEALTH COUNCIL INC d/b/a FAMILY HEALTH CENTERS A,4520 4th Avenue,BROOKLYN,NY,11220,BROOKLYN,718-210-1050,Y,9:00,5:00,9:00,5:00,9:00,5:00,9:00,5:00,9:00,5:00,0:00,0:00,0:00,0:00,40.649111,-74.009845,307.0,38.0,80.0,3324373.0,3007460039.0,Sunset Park West,POINT (-74.009845 40.649111),"4520 4th Avenue, BROOKLYN, NY 11220",008000
OLDER ADULT CENTER CONTRACTS,C0701,SISTER ANNUNCIATA BETHELL OAC (C07),BEDFORD PARK MULTI-SERVICE CENTER FOR SENIOR CITIZENS INC,243 East 204th Street,BRONX,NY,10458,BRONX,718-365-3725,Y,8:30,4:30,8:30,4:30,8:30,4:30,8:30,4:30,8:30,4:30,0:00,0:00,0:00,0:00,40.874205,-73.884457,207.0,11.0,413.0,2017363.0,2033110146.0,Bedford Park-Fordham North,POINT (-73.884457 40.874205),"243 East 204th Street, BRONX, NY 10458",042500
OLDER ADULT CENTER CONTRACTS,C5808,RAIN MT. CARMEL OAC (C58),REGIONAL AID FOR INTERIM NEEDS INC,2405 Southern Boulevard,BRONX,NY,10462,BRONX,718-733-8852,Y,8:00,4:00,8:00,4:00,8:00,4:00,8:00,4:00,8:00,4:00,0:00,0:00,0:00,0:00,40.853773,-73.881558,206.0,15.0,393.0,2013061.0,2031150005.0,Belmont,POINT (-73.881558 40.853773),"2405 Southern Boulevard, BRONX, NY 10462",039300
OLDER ADULT CENTER CONTRACTS,W1301,GOLDEN PHOENIX 1 (ELMCOR NSC) (W13),ELMCOR YOUTH & ADULT ACTIVITIES INC,98-19 Astoria Blvd,FLUSHING,NY,11369,QUEENS,718-651-0096,Y,9:00,5:00,9:00,5:00,9:00,5:00,9:00,5:00,9:00,5:00,0:00,0:00,0:00,0:00,40.762296,-73.871089,403.0,21.0,367.0,4032768.0,4013720045.0,East Elmhurst,POINT (-73.871089 40.762296),"98-19 Astoria Blvd, FLUSHING, NY 11369",036700
OLDER ADULT CENTER CONTRACTS,C1717,CCNS THE LODGE OAC (C17),CATHOLIC CHARITIES NEIGHBORHOOD SERVICES INC,7711 18th Avenue,BROOKLYN,NY,11214,BROOKLYN,718-621-1081,Y,7:00,3:00,7:00,3:00,7:00,3:00,7:00,3:00,7:00,3:00,0:00,0:00,0:00,0:00,40.612087,-73.997288,311.0,47.0,274.0,3161485.0,3062490006.0,Bensonhurst West,POINT (-73.997288 40.612087),"7711 18th Avenue, BROOKLYN, NY 11214",027400
OLDER ADULT CENTER CONTRACTS,C9301,YMCA - GLEBE OLDER ADULT COMMUNITY HUB (C93),YMCA OF GREATER NEW YORK,2125 Glebe Avenue,BRONX,NY,10462,BRONX,212-912-2490,Y,8:00,4:00,8:00,4:00,8:00,4:00,8:00,4:00,8:00,4:00,0:00,0:00,0:00,0:00,40.8351,-73.850368,210.0,18.0,20601.0,2041406.0,2039630043.0,Westchester-Unionport,POINT (-73.850368 40.8351),"2125 Glebe Avenue, BRONX, NY 10462",020601
OLDER ADULT CENTER CONTRACTS,C5101,NYFSC DYCKMAN OLDER ADULT CENTER (C51),NEW YORK FOUNDATION FOR SENIOR CITIZENS INC,3754 10th Avenue,NEW YORK,NY,10034,MANHATTAN,212-569-7790,Y,8:30,4:30,8:30,4:30,8:30,4:30,8:30,4:30,8:30,4:30,0:00,0:00,0:00,0:00,40.860844,-73.921587,112.0,10.0,299.0,1080032.0,1022160001.0,Marble Hill-Inwood,POINT (-73.921587 40.860844),"3754 10th Avenue, NEW YORK, NY 10034",029900
OLDER ADULT CENTER CONTRACTS,C8501,UJCES LILLIAN WALD OAC CENTER (C85),UNITED JEWISH COUNCIL OF THE EAST SIDE INC,12 Ave D,NEW YORK,NY,10009,MANHATTAN,212-260-2731,Y,9:00,5:00,9:00,5:00,9:00,5:00,9:00,5:00,9:00,5:00,0:00,0:00,0:00,0:00,40.720462,-73.978369,103.0,2.0,20.0,1078045.0,1003560001.0,Lower East Side,POINT (-73.978369 40.720462),"12 Ave D, NEW YORK, NY 10009",002000
OLDER ADULT CENTER CONTRACTS,W2009,STUYVESANT GARDENS SENIOR CLUB (W20),RISEBORO COMMUNITY PARTNERSHIP INC,150 Malcolm X Boulevard,BROOKLYN,NY,11221,BROOKLYN,347-318-3313,Y,9:00,5:00,9:00,5:00,9:00,5:00,9:00,5:00,9:00,5:00,0:00,0:00,0:00,0:00,40.688335,-73.930144,303.0,36.0,293.0,3044658.0,3016360024.0,Stuyvesant Heights,POINT (-73.930144 40.688335),"150 Malcolm X Boulevard, BROOKLYN, NY 11221",029300
OLDER ADULT CENTER CONTRACTS,C0901,BRC SENIOR CENTER (C09),BOWERY RESIDENTS COMMITTEE INC,30 Delancy Street,NEW YORK,NY,10002,MANHATTAN,212-533-2020,Y,8:00,3:30,8:00,3:30,8:00,3:30,8:00,3:30,8:00,3:30,0:00,0:00,0:00,0:00,40.719792,-73.992269,103.0,1.0,18.0,1079081.0,1004200001.0,Chinatown,POINT (-73.992269 40.719792),"30 Delancy Street, NEW YORK, NY 10002",001800
OLDER ADULT CENTER CONTRACTS,C6201,RIVERSTONE SENIOR LIFE SERVICES OAC (C62),RIVERSTONE SENIOR LIFE SERVICES INC.,99 Fort Washington Avenue,NEW YORK,NY,10032,MANHATTAN,212-927-5600,Y,8:30,4:30,8:30,4:30,8:30,4:30,8:30,4:30,8:30,4:30,0:00,0:00,0:00,0:00,40.83851,-73.943738,112.0,10.0,247.0,1063346.0,1021360235.0,Washington Heights South,POINT (-73.943738 40.83851),"99 Fort Washington Avenue, NEW YORK, NY 10032",007100
OLDER ADULT CENTER CONTRACTS,C6601,SBH OLDER ADULT CENTER - SENIOR PAVILION (C66),SBH COMMUNITY SERVICE NETWORKINC.,1963 McDonald Avenue,BROOKLYN,NY,11223,BROOKLYN,718-787-1100,Y,8:30,4:30,8:30,4:30,8:30,4:30,8:30,4:30,9:00,1:00,0:00,0:00,0:00,0:00,40.604832,-73.972263,315.0,44.0,422.0,3397113.0,3066580062.0,Homecrest,POINT (-73.972263 40.604832),"1963 McDonald Avenue, BROOKLYN, NY 11223",042200
OLDER ADULT CENTER CONTRACTS,C9401,YOUNG ISRAEL PROGRAMS FOREST HILLS (C94),YOUNG ISRAEL PROGRAMS INC,68-07 Burns Street,FLUSHING,NY,11375,QUEENS,718-520-2305,Y,8:00,4:00,8:00,4:00,8:00,4:00,8:00,4:00,8:00,4:00,0:00,0:00,0:00,0:00,40.721357,-73.851655,406.0,29.0,711.0,4077448.0,4032340089.0,Forest Hills,POINT (-73.851655 40.721357),"68-07 Burns Street, FLUSHING, NY 11375",071100
OLDER ADULT CENTER CONTRACTS,C7203,CORONA OAC (C72),SPANISH SPEAKING ELDERLY COUNCIL RAICES INC.,107-24 Corona Avenue,FLUSHING,NY,11368,QUEENS,718-321-0463,Y,9:00,5:00,9:00,5:00,9:00,5:00,9:00,5:00,9:00,5:00,0:00,0:00,0:00,0:00,40.743551,-73.855705,404.0,21.0,439.0,4431694.0,4019420053.0,Corona,POINT (-73.855705 40.743551),"107-24 Corona Avenue, FLUSHING, NY 11368",043900
OLDER ADULT CENTER CONTRACTS,C1706,CCNS THE BAY OAC (C17),CATHOLIC CHARITIES NEIGHBORHOOD SERVICES INC,3643 Nostrand Avenue,BROOKLYN,NY,11229,BROOKLYN,718-648-2053,Y,8:00,4:00,8:00,4:00,8:00,4:00,8:00,4:00,8:00,4:00,0:00,0:00,0:00,0:00,40.594966,-73.940825,315.0,46.0,572.0,3344554.0,3074051001.0,Sheepshead Bay-Gerritsen Beach-Manhattan Beach,POINT (-73.940825 40.594966),"3643 Nostrand Avenue, BROOKLYN, NY 11229",057200
OLDER ADULT CENTER CONTRACTS,C8401,THOMAS GUESS OAC (C84),THE NEIGHBORHOOD SELF-HELP BY OLDER PERSONS PROJECT INC,2070 Clinton Avenue,BRONX,NY,10457,BRONX,718-584-2357,Y,8:00,4:00,8:00,4:00,8:00,4:00,8:00,4:00,8:00,4:00,0:00,0:00,0:00,0:00,40.847236,-73.888101,206.0,15.0,371.0,2012652.0,2030940014.0,East Tremont,POINT (-73.888101 40.847236),"2070 Clinton Avenue, BRONX, NY 10457",037100
OLDER ADULT CENTER CONTRACTS,W1701,BERNIKOW OAC (W17),JEWISH COMMUNITY CENTER OF STATEN ISLAND INC,1466 Manor Road,STATEN ISLAND,NY,10314,STATEN ISLAND,718-475-5284,Y,9:00,5:00,9:00,5:00,9:00,5:00,9:00,5:00,9:00,5:00,0:00,0:00,0:00,0:00,40.594454,-74.125677,502.0,50.0,181.0,5141743.0,5009550100.0,Todt Hill-Emerson Hill-Heartland Village-Lighthouse Hill,POINT (-74.125677 40.594454),"1466 Manor Road, STATEN ISLAND, NY 10314",018100
OLDER ADULT CENTER CONTRACTS,W1802,SENIOR CENTER @ ST PETER'S CHURCH (W18),LENOX HILL NEIGHBORHOOD HOUSE INC,619 Lexington Avenue,NEW YORK,NY,10022,MANHATTAN,212-308-1959,Y,8:00,6:00,9:00,4:00,9:00,4:00,9:00,4:00,9:00,4:00,0:00,0:00,0:00,0:00,40.758698,-73.970744,106.0,4.0,100.0,1036474.0,1013087501.0,Turtle Bay-East Midtown,POINT (-73.970744 40.758698),"619 Lexington Avenue, NEW YORK, NY 10022",010000
OLDER ADULT CENTER CONTRACTS,C3302,FIND AID COFFEEHOUSE CENTER (C33),FIND AID FOR THE AGED,331 West 42nd Street,NEW YORK,NY,10036,MANHATTAN,646-545-4621,Y,9:00,5:00,9:00,5:00,9:00,5:00,9:00,5:00,9:00,5:00,0:00,0:00,0:00,0:00,40.757677,-73.990821,104.0,3.0,121.0,1083731.0,1010330049.0,Clinton,POINT (-73.990821 40.757677),"331 West 42nd Street, NEW YORK, NY 10036",012101
OLDER ADULT CENTER CONTRACTS,C1712,CCNS BEST LIFE OAC (C17),CATHOLIC CHARITIES NEIGHBORHOOD SERVICES INC,118-35 Farmers Boulevard,JAMAICA,NY,11412,QUEENS,718-722-6095,Y,9:00,5:00,9:00,5:00,9:00,5:00,9:00,5:00,9:00,5:00,0:00,0:00,0:00,0:00,40.689392,-73.762087,412.0,27.0,394.0,4000000.0,4126030063.0,St. Albans,POINT (-73.762087 40.689392),"118-35 Farmers Boulevard, JAMAICA, NY 11412",039400
NATURALLY OCCURING RETIREMENT COMMUNITY CONTRACTS,N6401,LINDSAY PARK NORC (N64),ST. NICKS ALLIANCE CORP.,31 Leonard Street,BROOKLYN,NY,11206,BROOKLYN,718-874-0102,Y,9:00,4:00,9:00,4:00,9:00,4:00,9:00,4:00,9:00,4:00,0:00,0:00,0:00,0:00,40.70428,-73.946062,301.0,34.0,491.0,3327972.0,3030770001.0,East Williamsburg,POINT (-73.946062 40.70428),"31 Leonard Street, BROOKLYN, NY 11206",049100
OLDER ADULT CENTER CONTRACTS,W1906,PSS HARLEM (W19),PRESBYTERIAN SENIOR SERVICES,127 West 127th Street,NEW YORK,NY,10027,MANHATTAN,212-222-3132,Y,8:00,4:00,8:00,4:00,8:00,4:00,8:00,4:00,8:00,4:00,0:00,0:00,0:00,0:00,40.809488,-73.945496,110.0,9.0,224.0,1057904.0,1019120012.0,Central Harlem North-Polo Grounds,POINT (-73.945496 40.809488),"127 West 127th Street, NEW YORK, NY 10027",022400
OLDER ADULT CENTER CONTRACTS,C5103,NYFSC MOTT STREET OLDER ADULT CENTER (C51),NEW YORK FOUNDATION FOR SENIOR CITIZENS INC,180 Mott Street,NEW YORK,NY,10012,MANHATTAN,212-966-5460,Y,9:00,5:00,9:00,5:00,9:00,5:00,9:00,5:00,9:00,5:00,0:00,0:00,0:00,0:00,40.7205,-73.995895,102.0,1.0,41.0,1007156.0,1004790001.0,SoHo-TriBeCa-Civic Center-Little Italy,POINT (-73.995895 40.7205),"180 Mott Street, NEW YORK, NY 10012",004100
OLDER ADULT CENTER CONTRACTS,C6901,SAGE BRONX CENTER AT CROTONA PRIDE HOUSE (C69),SERVICES AND ADVOCACY FOR GAYLESBIANBISEXUAL AND TRANSGEND,1784 Prospect Avenue,BRONX,NY,10457,BRONX,929-458-2150,Y,8:00,4:00,8:00,4:00,8:00,4:00,8:00,4:00,8:00,4:00,0:00,0:00,0:00,0:00,40.841212,-73.891989,206.0,17.0,367.0,2000000.0,2029520021.0,East Tremont,POINT (-73.891989 40.841212),"1784 Prospect Avenue, BRONX, NY 10457",036700
OLDER ADULT CENTER CONTRACTS,C3701,GRAND ST SETTLEMENT GRAND COALITION OF OLDER ADULTS OAC (C37),GRAND STREET SETTLEMENT INC,175  Delancey street,NEW YORK,NY,10002,MANHATTAN,646-201-4251,Y,9:00,5:00,9:00,5:00,9:00,5:00,9:00,5:00,9:00,5:00,0:00,0:00,0:00,0:00,40.717466,-73.985004,103.0,1.0,1402.0,1000000.0,1003477501.0,Lower East Side,POINT (-73.985004 40.717466),"175  Delancey street, NEW YORK, NY 10002",001800
OLDER ADULT CENTER CONTRACTS,W2201,JASA BARTOW (COOP CITY NSC) (W22),THE JEWISH ASSOCIATION FOR SERVICES FOR THE AGED,2049 Bartow Avenue,BRONX,NY,10475,BRONX,718-320-2066,Y,10:00,6:00,10:00,6:00,10:00,6:00,10:00,6:00,10:00,6:00,0:00,0:00,0:00,0:00,40.869472,-73.828582,210.0,12.0,46201.0,2097466.0,2051410100.0,Co-op City,POINT (-73.828582 40.869472),"2049 Bartow Avenue, BRONX, NY 10475",046205
CAREGIVER SERVICES CONTRACTS,1K501,NEIGHBORHOOD SHOPP CAREGIVER PROGRAM (1K5),THE NEIGHBORHOOD SELF-HELP BY OLDER PERSONS PROJECT INC,975 Kelly Street,BRONX,NY,10459,BRONX,718-542-0006,Y,9:00,5:00,9:00,5:00,9:00,5:00,9:00,5:00,9:00,5:00,0:00,0:00,0:00,0:00,40.822052,-73.895879,202.0,17.0,87.0,2114693.0,2027037501.0,Longwood,POINT (-73.895879 40.822052),"975 Kelly Street, BRONX, NY 10459",008700
OLDER ADULT CENTER CONTRACTS,C9201,WILLIAM HODSON OLDER ADULT CENTER (C92),WILLIAM HODSON COMMUNITY CENTER INC,1320 Webster Avenue,BRONX,NY,10456,BRONX,718-538-1515,Y,8:00,4:00,8:00,4:00,8:00,4:00,8:00,4:00,8:00,4:00,0:00,0:00,0:00,0:00,40.834189,-73.90854,203.0,16.0,14701.0,2092074.0,2028940001.0,Claremont-Bathgate,POINT (-73.90854 40.834189),"1320 Webster Avenue, BRONX, NY 10456",014701
CASE MANAGEMENT SERVICES CONTRACTS,2MG01,JASA STOREFRONT CASE MANAGEMENT PROGRAM (2MG),THE JEWISH ASSOCIATION FOR SERVICES FOR THE AGED,2211 CHURCH AVENUE,BROOKLYN,NY,11226,BROOKLYN,212-273-5200,Y,9:00,5:00,9:00,5:00,9:00,5:00,9:00,5:00,9:00,5:00,0:00,0:00,0:00,0:00,40.650424,-73.958175,314.0,40.0,79602.0,3116881.0,3050890071.0,Prospect Lefferts Gardens-Wingate,POINT (-73.958175 40.650424),"2211 CHURCH AVENUE, BROOKLYN, NY 11226",079602
OLDER ADULT CENTER CONTRACTS,C6101,RSS CENTER FOR AGELESS LIVING (C61),RIVERDALE SENIOR SERVICES INC,2600 Netherland Avenue,BRONX,NY,10463,BRONX,718-884-5900,Y,8:00,5:00,8:00,5:00,8:00,5:00,8:00,5:00,8:00,5:00,0:00,0:00,0:00,0:00,40.878744,-73.915679,208.0,11.0,29302.0,2083247.0,2057220475.0,Spuyten Duyvil-Kingsbridge,POINT (-73.915679 40.878744),"2600 Netherland Avenue, BRONX, NY 10463",029302
OLDER ADULT CENTER CONTRACTS,C3103,PATTERSON OLDER ADULT CENTERS (C31),EAST SIDE HOUSE INC,308 E 145 Street,BRONX,NY,10451,BRONX,718-993-5146,Y,8:30,4:30,8:30,4:30,8:30,4:30,8:30,4:30,8:30,4:30,0:00,0:00,0:00,0:00,40.815197,-73.922179,201.0,8.0,51.0,2091115.0,2023240001.0,Mott Haven-Port Morris,POINT (-73.922179 40.815197),"308 E 145 Street, BRONX, NY 10451",005100
OLDER ADULT CENTER CONTRACTS,C0401,AMICO 59TH ST SENIOR CITIZEN CTR (C04),AMERICAN ITALIAN COALITION OF ORGANIZATIONS INC AMICO,5901 13th Avenue,BROOKLYN,NY,11219,BROOKLYN,718-972-1558,Y,10:00,6:00,10:00,6:00,10:00,6:00,10:00,6:00,10:00,6:00,10:00,6:00,10:00,6:00,40.629332,-73.998022,312.0,44.0,192.0,3141065.0,3057120001.0,Borough Park,POINT (-73.998022 40.629332),"5901 13th Avenue, BROOKLYN, NY 11219",019200
CAREGIVER SERVICES CONTRACTS,6K501,VISIONS CAREGIVER CITYWIDE (6K5),VISIONS/SERVICES FOR THE BLIND AND VISUALLY IMPAIRED,500 Greenwich Street,NEW YORK,NY,10013,MANHATTAN,212-625-1616,Y,9:00,5:00,9:00,5:00,9:00,5:00,9:00,5:00,9:00,5:00,0:00,0:00,0:00,0:00,40.725564,-74.009178,102.0,1.0,37.0,1076084.0,1005957501.0,SoHo-TriBeCa-Civic Center-Little Italy,POINT (-74.009178 40.725564),"500 Greenwich Street, NEW YORK, NY 10013",003700
CASE MANAGEMENT SERVICES CONTRACTS,4MF01,CCNS CMA QN 9 10 12 (4MF),CATHOLIC CHARITIES NEIGHBORHOOD SERVICES INC,183-16 Jamaica Avenue,JAMAICA,NY,11432,QUEENS,718-217-0126,Y,9:00,5:00,9:00,5:00,9:00,5:00,9:00,5:00,9:00,5:00,0:00,0:00,0:00,0:00,40.708932,-73.776983,412.0,27.0,444.0,4438800.0,4103520058.0,Jamaica,POINT (-73.776983 40.708932),"183-16 Jamaica Avenue, JAMAICA, NY 11432",044400
OLDER ADULT CENTER CONTRACTS,C3201,BENSONHURST SENIOR CENTER (C32),EDITH AND CARL MARKS JEWISH COMMUNITY HOUSE OF BENSONHURST,7802 Bay Parkway,BROOKLYN,NY,11214,BROOKLYN,718-331-6800,Y,8:00,4:00,8:00,4:00,8:00,4:00,8:00,4:00,8:00,4:00,0:00,0:00,0:00,0:00,40.606369,-73.989235,311.0,43.0,270.0,3162352.0,3062640030.0,Bensonhurst West,POINT (-73.989235 40.606369),"7802 Bay Parkway, BROOKLYN, NY 11214",027000
OLDER ADULT CENTER CONTRACTS,C7210,RAICES ASTORIA SOCIAL CLUB (C72),SPANISH SPEAKING ELDERLY COUNCIL RAICES INC.,4-05 Astoria Blvd,LONG ISLAND CITY,NY,11102,QUEENS,718-762-9642,Y,9:00,5:00,9:00,5:00,9:00,5:00,9:00,5:00,9:00,5:00,0:00,0:00,0:00,0:00,40.772947,-73.933467,401.0,22.0,87.0,4430787.0,4004900101.0,Old Astoria,POINT (-73.933467 40.772947),"4-05 Astoria Blvd, LONG ISLAND CITY, NY 11102",008700
OLDER ADULT CENTER CONTRACTS,C4701,JCCGCI CONEY ISLAND SEASIDE OLDER ADULT CENTER (ISC) (C47),JEWISH COMMUNITY COUNCIL OF GREATER CONEY ISLAND INC,3001 West 37th Street,BROOKLYN,NY,11224,BROOKLYN,718-449-6363,Y,8:00,4:00,8:00,4:00,8:00,4:00,8:00,4:00,8:00,4:00,0:00,0:00,0:00,0:00,40.573177,-74.002509,313.0,47.0,340.0,3189617.0,3070650001.0,Seagate-Coney Island,POINT (-74.002509 40.573177),"3001 West 37th Street, BROOKLYN, NY 11224",034000
OLDER ADULT CENTER CONTRACTS,C0103,AGUDATH ISRAEL OF AMERICA BORO PARK SENIOR CITIZENS CENTER (C01),AGUDATH ISRAEL OF AMERICA COMMUNITY SERVICES INC,1021 38th Street,BROOKLYN,NY,11219,BROOKLYN,718-854-7430,Y,8:00,4:00,8:00,4:00,8:00,4:00,8:00,4:00,8:00,4:00,0:00,0:00,0:00,0:00,40.644785,-73.991644,312.0,38.0,110.0,3122949.0,3052890083.0,Sunset Park East,POINT (-73.991644 40.644785),"1021 38th Street, BROOKLYN, NY 11219",011000
OLDER ADULT CENTER CONTRACTS,C7901,SUNNYSIDE COMMUNITY SERVICES OAC (C79),SUNNYSIDE COMMUNITY SERVICES INC,43-39 39th Street,LONG ISLAND CITY,NY,11104,QUEENS,718-784-6173,Y,8:30,4:30,8:30,4:30,8:30,4:30,8:30,4:30,8:30,4:30,0:00,0:00,0:00,0:00,40.745099,-73.925927,402.0,26.0,179.0,4436676.0,4001910005.0,Hunters Point-Sunnyside-West Maspeth,POINT (-73.925927 40.745099),"43-39 39th Street, LONG ISLAND CITY, NY 11104",017901
OLDER ADULT CENTER CONTRACTS,C1401,BROOKS SENIOR CENTER (C14),BROOKS MEMORIAL UNITED METHODIST CHURCH,143-22 109th Avenue,JAMAICA,NY,11435,QUEENS,718-291-3935,Y,8:00,4:00,8:00,4:00,8:00,4:00,8:00,4:00,8:00,4:00,0:00,0:00,0:00,0:00,40.688564,-73.803554,412.0,28.0,196.0,4257866.0,4119330001.0,South Jamaica,POINT (-73.803554 40.688564),"143-22 109th Avenue, JAMAICA, NY 11435",019600
CASE MANAGEMENT SERVICES CONTRACTS,4MD01,QCH CMA QN 4 6 (4MD),QUEENS COMMUNITY HOUSE INC.,108-25 62nd Drive,FLUSHING,NY,11375,QUEENS,718-268-1412,Y,9:00,5:00,9:00,5:00,9:00,5:00,9:00,5:00,9:00,5:00,0:00,0:00,0:00,0:00,40.73591,-73.850212,406.0,24.0,745.0,4432108.0,4021590015.0,Forest Hills,POINT (-73.850212 40.73591),"108-25 62nd Drive, FLUSHING, NY 11375",074500
LEGAL SERVICES CONTRACTS,1AA01,LSNYBX - LEGAL SERVICES - BX (1AA),LSNY-BRONX CORPORATION,349 EAST 149TH STREET,BRONX,NY,10451,BRONX,917-661-4500,Y,9:00,5:00,9:00,5:00,9:00,5:00,9:00,5:00,9:00,5:00,0:00,0:00,0:00,0:00,40.81667,-73.919959,201.0,17.0,65.0,2000933.0,2023317501.0,Melrose South-Mott Haven North,POINT (-73.919959 40.81667),"349 EAST 149TH STREET, BRONX, NY 10451",006500
NATURALLY OCCURING RETIREMENT COMMUNITY CONTRACTS,N5301,HAMILTON MADISON ALFRED SMITH HOUSES NORC (N53),HAMILTON MADISON HOUSE INC,50 Madison Street,NEW YORK,NY,10038,MANHATTAN,212-349-3724,Y,9:00,5:00,9:00,5:00,9:00,5:00,9:00,5:00,9:00,5:00,0:00,0:00,0:00,0:00,40.711958,-73.997825,103.0,1.0,25.0,1077420.0,1001110100.0,Chinatown,POINT (-73.997825 40.711958),"50 Madison Street, NEW YORK, NY 10038",002500
OLDER ADULT CENTER CONTRACTS,C6801,SEPHARDIC MULTI SERVICES SENIOR CITIZENS CENTER (C68),SEPHARDIC MULTI SERVICES SENIOR CITIZEN CENTER INC,485 Kings Hwy,BROOKLYN,NY,11223,BROOKLYN,718-336-1300,Y,8:00,4:00,8:00,4:00,8:00,4:00,8:00,4:00,8:00,4:00,0:00,0:00,0:00,0:00,40.604258,-73.971654,315.0,44.0,422.0,3177186.0,3066580048.0,Homecrest,POINT (-73.971654 40.604258),"485 Kings Hwy, BROOKLYN, NY 11223",042200
CASE MANAGEMENT SERVICES CONTRACTS,1M901,NEIGHBORHOOD SHOPP - CMA (1M9),THE NEIGHBORHOOD SELF-HELP BY OLDER PERSONS PROJECT INC,910 East 172 Street 2nd Fl.,BRONX,NY,10460,BRONX,718-542-0006,Y,9:00,5:00,9:00,5:00,9:00,5:00,9:00,5:00,9:00,5:00,0:00,0:00,0:00,0:00,40.834198,-73.890157,203.0,17.0,155.0,2010507.0,2029770103.0,Crotona Park East,POINT (-73.890157 40.834198),"910 East 172 Street 2nd Fl., BRONX, NY 10460",015500
OLDER ADULT CENTER CONTRACTS,C0801,BERGEN BASIN ABE STARK OLDER ADULT CENTER (C08),BERGEN BASIN COMMUNITY DEVELOPMENT CORPORATION DBA MILLENNIU,103-15 Farragut Road,BROOKLYN,NY,11236,BROOKLYN,718-272-9515,Y,8:00,4:00,8:00,4:00,8:00,4:00,8:00,4:00,8:00,4:00,0:00,0:00,0:00,0:00,40.649668,-73.89929,318.0,42.0,1098.0,3229152.0,3081520201.0,East New York,POINT (-73.89929 40.649668),"103-15 Farragut Road, BROOKLYN, NY 11236",None
CAREGIVER SERVICES CONTRACTS,4K301,SNAP CAREGIVER QN 08-14 (4K3),SERVICES NOW FOR ADULT PERSONS INC,80-45 WINCHESTER BOULEVARD,JAMAICA,NY,11427,QUEENS,718-527-5380,Y,8:00,4:00,8:00,4:00,8:00,4:00,8:00,4:00,8:00,4:00,0:00,0:00,0:00,0:00,40.737685,-73.734021,413.0,23.0,1567.0,4537294.0,4078800400.0,Bellerose,POINT (-73.734021 40.737685),"80-45 WINCHESTER BOULEVARD, JAMAICA, NY 11427",156700
NATURALLY OCCURING RETIREMENT COMMUNITY CONTRACTS,N5501,HENRY STREET VLADECK CARES NORC (N55),HENRY STREET SETTLEMENT,351 Madison Street,NEW YORK,NY,10002,MANHATTAN,212-477-0455,Y,9:00,5:00,9:00,5:00,9:00,5:00,9:00,5:00,9:00,5:00,0:00,0:00,0:00,0:00,40.71334,-73.982772,103.0,1.0,202.0,1083404.0,1002670024.0,Lower East Side,POINT (-73.982772 40.71334),"351 Madison Street, NEW YORK, NY 10002",000202
HOMECARE SERVICES CONTRACTS,5HR01,RICHMOND HOME NEED HOME CARE SI (5HR),RICHMOND HOME NEED SERVICES INC,3155 AMBOY ROAD,STATEN ISLAND,NY,10306,STATEN ISLAND,718-313-1401,Y,9:00,5:00,9:00,5:00,9:00,5:00,9:00,5:00,9:00,5:00,0:00,0:00,0:00,0:00,40.564389,-74.131879,503.0,50.0,14606.0,5107641.0,5044720001.0,Great Kills,POINT (-74.131879 40.564389),"3155 AMBOY ROAD, STATEN ISLAND, NY 10306",014606
OLDER ADULT CENTER CONTRACTS,C0601,ABSW OAC (C06),ASSOCIATION OF BLACK SOCIAL WORKERS INC,221 West 107th Street,NEW YORK,NY,10025,MANHATTAN,212-749-8400,Y,8:00,4:00,8:00,4:00,8:00,4:00,8:00,4:00,8:00,4:00,0:00,0:00,0:00,0:00,40.801704,-73.966593,107.0,7.0,195.0,1075379.0,1018790017.0,Morningside Heights,POINT (-73.966593 40.801704),"221 West 107th Street, NEW YORK, NY 10025",019500
TRANSPORTATION SERVICES CONTRACTS,24603,JEWISH COMMUNITY COUNCIL OF GREATER CONEY ISLAND INC (246),JEWISH COMMUNITY COUNCIL OF GREATER CONEY ISLAND INC,3001 WEST   37 STREET,BROOKLYN,NY,11224,BROOKLYN,718-449-5000,Y,,,,,,,,,,,,,,,40.573177,-74.002509,313.0,47.0,340.0,3189617.0,3070650001.0,Seagate-Coney Island,POINT (-74.002509 40.573177),"3001 WEST   37 STREET, BROOKLYN, NY 11224",034000
OLDER ADULT CENTER CONTRACTS,C2301,CONGREGATION YETEV LEV --WILLIAMSBURG SATMAR (C23),CONGREGATION YETEV LEV DSATMAR,125 Heyward Street,BROOKLYN,NY,11206,BROOKLYN,718-625-1608,Y,9:00,5:00,9:00,5:00,9:00,5:00,9:00,5:00,0:00,0:00,0:00,0:00,9:00,5:00,40.701676,-73.956155,301.0,33.0,533.0,3060997.0,3022250042.0,Williamsburg,POINT (-73.956155 40.701676),"125 Heyward Street, BROOKLYN, NY 11206",053300
OLDER ADULT CENTER CONTRACTS,W2006,RIDGEWOOD BUSHWICK (W20),RISEBORO COMMUNITY PARTNERSHIP INC,319 Stanhope Street,BROOKLYN,NY,11237,BROOKLYN,718-366-3038,Y,8:00,4:00,8:00,4:00,8:00,4:00,8:00,4:00,8:00,4:00,0:00,0:00,0:00,0:00,40.70285,-73.918336,304.0,37.0,443.0,3074237.0,3032590023.0,Bushwick North,POINT (-73.918336 40.70285),"319 Stanhope Street, BROOKLYN, NY 11237",044300
OLDER ADULT CENTER CONTRACTS,W2004,HOPE GARDENS MULTISERVICE (W20),RISEBORO COMMUNITY PARTNERSHIP INC,195 Linden Street,BROOKLYN,NY,11221,BROOKLYN,718-455-1100,Y,8:00,4:00,8:00,4:00,8:00,4:00,8:00,4:00,8:00,4:00,0:00,0:00,0:00,0:00,40.69537,-73.917486,304.0,37.0,417.0,3076116.0,3033240019.0,Bushwick South,POINT (-73.917486 40.69537),"195 Linden Street, BROOKLYN, NY 11221",041700
HOME DELIVERED MEAL SERVICE CONTRACTS,15Y01,SENIOR OPTIONS HOME DELIVERED MEALS PROGRAM (15Y),REGIONAL AID FOR INTERIM NEEDS INC,3450 Boston Road,BRONX,NY,10469,BRONX,718-892-5520,Y,,,,,,,,,,,,,,,40.876315,-73.848561,212.0,12.0,364.0,2060739.0,2047370105.0,Eastchester-Edenwald-Baychester,POINT (-73.848561 40.876315),"3450 Boston Road, BRONX, NY 10469",036400
CAREGIVER SERVICES CONTRACTS,1K101,PSS CAREGIVER SUPPORT PROGRAM (1K1),PRESBYTERIAN SENIOR SERVICES,325 EAST 156 STREET,BRONX,NY,10451,BRONX,212-222-3132,Y,8:00,4:00,8:00,4:00,8:00,4:00,8:00,4:00,8:00,4:00,0:00,0:00,0:00,0:00,40.821439,-73.917995,201.0,17.0,69.0,2091224.0,2024160001.0,Melrose South-Mott Haven North,POINT (-73.917995 40.821439),"325 EAST 156 STREET, BRONX, NY 10451",006900
OLDER ADULT CENTER CONTRACTS,W2001,BORINQUEN PLAZA (W20),RISEBORO COMMUNITY PARTNERSHIP INC,80 Seigel Street,BROOKLYN,NY,11206,BROOKLYN,718-782-6335,Y,8:00,4:00,8:00,4:00,8:00,4:00,8:00,4:00,8:00,4:00,0:00,0:00,0:00,0:00,40.704366,-73.943775,301.0,34.0,491.0,3071447.0,3030960030.0,East Williamsburg,POINT (-73.943775 40.704366),"80 Seigel Street, BROOKLYN, NY 11206",049100
OLDER ADULT CENTER CONTRACTS,3YE01,ARCXVI FT WASHINGTONINC (3YE),ARC XVI FORT WASHINGTON INC,108 WEST  146 STREET,NEW YORK,NY,10039,MANHATTAN,212-281-1349,Y,,,,,,,,,,,,,,,40.821341,-73.936317,110.0,9.0,232.0,1060189.0,1020140036.0,Central Harlem North-Polo Grounds,POINT (-73.936317 40.821341),"108 WEST  146 STREET, NEW YORK, NY 10039",023200
OLDER ADULT CENTER CONTRACTS,W2010,SUMNER SENIOR CLUB (W20),RISEBORO COMMUNITY PARTNERSHIP INC,862 Park Avenue,BROOKLYN,NY,11206,BROOKLYN,718-455-8471,Y,9:00,5:00,9:00,5:00,9:00,5:00,9:00,5:00,9:00,5:00,0:00,0:00,0:00,0:00,40.698582,-73.940736,303.0,36.0,28502.0,3324728.0,3015800001.0,Stuyvesant Heights,POINT (-73.940736 40.698582),"862 Park Avenue, BROOKLYN, NY 11206",028502
OLDER ADULT CENTER CONTRACTS,2TZ01,UCA COMMUNITY SERVICE CENTER (2TZ),UNITED CHINESE ASSOCIATION OF BROOKLYN  INC,1787 Stillwell Avenue,BROOKLYN,NY,11223,BROOKLYN,718-232-0055,Y,,,,,,,,,,,,,,,40.602894,-73.986423,311.0,43.0,404.0,3176369.0,3066430053.0,Bensonhurst East,POINT (-73.986423 40.602894),"1787 Stillwell Avenue, BROOKLYN, NY 11223",040400
OLDER ADULT CENTER CONTRACTS,C5801,RAIN BOSTON EAST OAC (C58),REGIONAL AID FOR INTERIM NEEDS INC,3450 Boston Road,BRONX,NY,10469,BRONX,718-654-9200,Y,8:00,6:00,8:00,6:00,8:00,6:00,8:00,6:00,8:00,6:00,0:00,0:00,0:00,0:00,40.876315,-73.848561,212.0,12.0,364.0,2060739.0,2047370105.0,Eastchester-Edenwald-Baychester,POINT (-73.848561 40.876315),"3450 Boston Road, BRONX, NY 10469",036400
CAREGIVER SERVICES CONTRACTS,2K401,HEIGHTS AND HILLS CAREGIVER PROGRAM (2K4),HEIGHTS AND HILLS INC.,81 WILLOUGHBY STREET STE 302,BROOKLYN,NY,11201,BROOKLYN,718-596-8789,Y,9:00,5:00,9:00,5:00,9:00,5:00,9:00,5:00,9:00,5:00,0:00,0:00,0:00,0:00,40.692184,-73.985753,302.0,33.0,11.0,3000350.0,3001480046.0,DUMBO-Vinegar Hill-Downtown Brooklyn-Boerum Hill,POINT (-73.985753 40.692184),"81 WILLOUGHBY STREET STE 302, BROOKLYN, NY 11201",001100
OLDER ADULT CENTER CONTRACTS,C3512,REMSEN SARITA JEAN OAC (C35),FORT GREENE COUNCIL,3304 Clarendon Road,BROOKLYN,NY,11210,BROOKLYN,718-282-1259,Y,9:00,5:00,9:00,5:00,9:00,5:00,9:00,5:00,9:00,5:00,0:00,0:00,0:00,0:00,40.643428,-73.945697,317.0,45.0,830.0,3111409.0,3049500001.0,East Flatbush-Farragut,POINT (-73.945697 40.643428),"3304 Clarendon Road, BROOKLYN, NY 11210",083000
OLDER ADULT CENTER CONTRACTS,C0101,AGUDATH ISRAEL BROOKDALE SENIOR CENTER (C01),AGUDATH ISRAEL OF AMERICA COMMUNITY SERVICES INC,817 Avenue H,BROOKLYN,NY,11230,BROOKLYN,718-434-8670,Y,8:00,4:00,8:00,4:00,8:00,4:00,8:00,4:00,8:00,4:00,0:00,0:00,0:00,0:00,40.629268,-73.968686,314.0,45.0,460.0,3170160.0,3064960039.0,Flatbush,POINT (-73.968686 40.629268),"817 Avenue H, BROOKLYN, NY 11230",046000
HOMECARE SERVICES CONTRACTS,3HR01,NY FOUNDATION FOR SC HOME ATTENDANT - HOME CARE - MN (3HR),NEW YORK FOUNDATION FOR SENIOR CITIZENS HOME ATTENDANT SERVI,11 PARK PLACE,NEW YORK,NY,10007,MANHATTAN,212-962-7559,Y,9:00,5:00,9:00,5:00,9:00,5:00,9:00,5:00,9:00,5:00,0:00,0:00,0:00,0:00,40.712828,-74.008296,101.0,1.0,21.0,1001399.0,1001240004.0,SoHo-TriBeCa-Civic Center-Little Italy,POINT (-74.008296 40.712828),"11 PARK PLACE, NEW YORK, NY 10007",002100
OLDER ADULT CENTER CONTRACTS,W2007,ROUNDTABLE SENIOR (W20),RISEBORO COMMUNITY PARTNERSHIP INC,1175 Gates Avenue,BROOKLYN,NY,11206,BROOKLYN,718-443-1903,Y,8:00,5:30,8:00,5:30,8:00,5:30,8:00,5:30,8:00,5:30,0:00,0:00,0:00,0:00,40.691707,-73.919907,304.0,37.0,399.0,3076253.0,3033310025.0,Bushwick South,POINT (-73.919907 40.691707),"1175 Gates Avenue, BROOKLYN, NY 11206",039900
OLDER ADULT CENTER CONTRACTS,C1203,BCA 6TH AVENUE OLDER ADULT CENTER (C12),BROOKLYN CHINESE-AMERICAN ASSOCIATION INC,545 60th Street,BROOKLYN,NY,11200,BROOKLYN,718-567-9311,Y,9:00,5:00,9:00,5:00,9:00,5:00,9:00,5:00,9:00,5:00,0:00,0:00,0:00,0:00,40.638869,-74.015137,307.0,38.0,102.0,3337343.0,3008640001.0,Sunset Park East,POINT (-74.015137 40.638869),"545 60th Street, BROOKLYN, NY 11200",010200
OLDER ADULT CENTER CONTRACTS,C1713,CCNS NEW AGE OAC (C17),CATHOLIC CHARITIES NEIGHBORHOOD SERVICES INC,54 MacDonough Street,BROOKLYN,NY,11216,BROOKLYN,718-771-7945,Y,8:00,4:00,8:00,4:00,8:00,4:00,8:00,4:00,8:00,4:00,0:00,0:00,0:00,0:00,40.680929,-73.944383,303.0,36.0,269.0,3053461.0,3018540025.0,Bedford,POINT (-73.944383 40.680929),"54 MacDonough Street, BROOKLYN, NY 11216",026900
CASE MANAGEMENT SERVICES CONTRACTS,2MF01,REC ROOMS - CMA - BK 5 16 18 (2MF),RECREATION ROOMS AND SETTLEMENT INC,1304 EAST   57 STREET,BROOKLYN,NY,11234,BROOKLYN,718-257-1600,Y,9:00,5:00,9:00,5:00,9:00,5:00,9:00,5:00,9:00,5:00,0:00,0:00,0:00,0:00,40.621348,-73.920355,318.0,46.0,690.0,3345504.0,3078810033.0,Flatlands,POINT (-73.920355 40.621348),"1304 EAST   57 STREET, BROOKLYN, NY 11234",069000
OLDER ADULT CENTER CONTRACTS,VN601,BROOKS SENIOR CENTER (VN6),BROOKS SENIOR CENTER,143-22 109TH AVENUE.,JAMAICA,NY,11435,QUEENS,718-291-3935,Y,,,,,,,,,,,,,,,40.688564,-73.803554,412.0,28.0,196.0,4257866.0,4119330001.0,South Jamaica,POINT (-73.803554 40.688564),"143-22 109TH AVENUE., JAMAICA, NY 11435",019600
OLDER ADULT CENTER CONTRACTS,C3902,HARMONY JVL OLDER ADULT CENTER (C39),HANAC INC.,27-40 Hoyt Avenue South,LONG ISLAND CITY,NY,11102,QUEENS,718-396-5002,Y,8:30,4:30,8:30,4:30,8:30,4:30,8:30,4:30,8:30,4:30,9:30,1:00,0:00,0:00,40.771857,-73.9198,401.0,22.0,69.0,4537921.0,4008390001.0,Old Astoria,POINT (-73.9198 40.771857),"27-40 Hoyt Avenue South, LONG ISLAND CITY, NY 11102",006900
NEW YORK CONNECTS CONTRACTS,7C401,HUDSON GUILD NY CONNECTS MN (7C4),HUDSON GUILD,119 9th Ave,NEW YORK,NY,10011,MANHATTAN,212-966-9852,Y,9:00,5:00,9:00,5:00,9:00,5:00,9:00,5:00,9:00,5:00,0:00,0:00,0:00,0:00,40.743172,-74.00376,104.0,3.0,83.0,1078418.0,1007150010.0,Hudson Yards-Chelsea-Flatiron-Union Square,POINT (-74.00376 40.743172),"119 9th Ave, NEW YORK, NY 10011",008300
OLDER ADULT CENTER CONTRACTS,W1908,PSS HIGHBRIDGE (W19),PRESBYTERIAN SENIOR SERVICES,1181 Nelson Avenue,BRONX,NY,10452,BRONX,718-588-3004,Y,8:00,4:00,8:00,4:00,8:00,4:00,8:00,4:00,8:00,4:00,0:00,0:00,0:00,0:00,40.837232,-73.925706,204.0,16.0,199.0,2003301.0,2025160051.0,Highbridge,POINT (-73.925706 40.837232),"1181 Nelson Avenue, BRONX, NY 10452",019900
CAREGIVER SERVICES CONTRACTS,5K101,JCC OF SI CAREGIVER SI (5K1),JEWISH COMMUNITY CENTER OF STATEN ISLAND INC,1297 Arthur Kill Road,STATEN ISLAND,NY,10312,STATEN ISLAND,718-475-5287,Y,9:00,5:00,9:00,5:00,9:00,5:00,9:00,5:00,9:00,5:00,0:00,0:00,0:00,0:00,40.565339,-74.183774,503.0,51.0,228.0,5077603.0,5059000105.0,New Springville-Bloomfield-Travis,POINT (-74.183774 40.565339),"1297 Arthur Kill Road, STATEN ISLAND, NY 10312",022801
NATURALLY OCCURING RETIREMENT COMMUNITY CONTRACTS,N7201,VILLAGE VIEW NORC (N72),UNIVERSITY SETTLEMENT SOCIETY OF NEW YORK,175 E. 4th St.,NEW YORK,NY,10009,MANHATTAN,212-475-0150,Y,9:00,5:00,9:00,5:00,9:00,5:00,9:00,5:00,9:00,5:00,0:00,0:00,0:00,0:00,40.724528,-73.985461,103.0,2.0,32.0,1077559.0,1004320001.0,East Village,POINT (-73.985461 40.724528),"175 E. 4th St., NEW YORK, NY 10009",003200
CAREGIVER SERVICES CONTRACTS,3K301,LENOX HILL - CAREGIVER - MN 08-12 (3K3),LENOX HILL NEIGHBORHOOD HOUSE INC,331 EAST  70 STREET,NEW YORK,NY,10021,MANHATTAN,212-218-0438,Y,9:00,5:00,9:00,5:00,9:00,5:00,9:00,5:00,9:00,5:00,0:00,0:00,0:00,0:00,40.766925,-73.95795,108.0,5.0,126.0,1044838.0,1014450014.0,Lenox Hill-Roosevelt Island,POINT (-73.95795 40.766925),"331 EAST  70 STREET, NEW YORK, NY 10021",012601
OLDER ADULT CENTER CONTRACTS,W1801,CENTER @ LENOX HILL (ISC) (W18),LENOX HILL NEIGHBORHOOD HOUSE INC,343 East 70th Street,NEW YORK,NY,10021,MANHATTAN,212-218-0315,Y,8:00,6:00,8:00,6:00,8:00,6:00,8:00,6:00,8:00,6:00,8:00,3:00,8:00,3:00,40.766686,-73.95739,108.0,5.0,126.0,1044841.0,1014450023.0,Lenox Hill-Roosevelt Island,POINT (-73.95739 40.766686),"343 East 70th Street, NEW YORK, NY 10021",012601
CASE MANAGEMENT SERVICES CONTRACTS,2MK01,JASA - CMA - BK15 (2MK),THE JEWISH ASSOCIATION FOR SERVICES FOR THE AGED,161 Corbin Place,BROOKLYN,NY,11235,BROOKLYN,718-934-4295,Y,9:00,5:00,9:00,5:00,9:00,5:00,9:00,5:00,9:00,5:00,0:00,0:00,0:00,0:00,40.578026,-73.954127,315.0,48.0,61004.0,3245719.0,3087190073.0,Brighton Beach,POINT (-73.954127 40.578026),"161 Corbin Place, BROOKLYN, NY 11235",061004
NATURALLY OCCURING RETIREMENT COMMUNITY CONTRACTS,N5201,LINCOLN SQUARE NORC (N52),GODDARD-RIVERSIDE COMMUNITY CENTER,250 W. 66TH STREET,NEW YORK,NY,10023,MANHATTAN,212-874-0860,Y,9:00,5:00,9:00,5:00,9:00,5:00,9:00,5:00,9:00,5:00,0:00,0:00,0:00,0:00,40.775246,-73.985453,107.0,6.0,151.0,1030342.0,1011570001.0,Lincoln Square,POINT (-73.985453 40.775246),"250 W. 66TH STREET, NEW YORK, NY 10023",015101
OLDER ADULT CENTER CONTRACTS,C0806,BERGEN BASIN PENN WORTMAN OLDER ADULT CENTER (C08),BERGEN BASIN COMMUNITY DEVELOPMENT CORPORATION DBA MILLENNIU,530 Stanley Avenue,BROOKLYN,NY,11207,BROOKLYN,347-318-3770,Y,9:00,5:00,9:00,5:00,9:00,5:00,9:00,5:00,9:00,5:00,0:00,0:00,0:00,0:00,40.657212,-73.888852,305.0,42.0,1104.0,3324010.0,3043690011.0,East New York,POINT (-73.888852 40.657212),"530 Stanley Avenue, BROOKLYN, NY 11207",110400
OLDER ADULT CENTER CONTRACTS,W1903,PSS ANDREW JACKSON (W19),PRESBYTERIAN SENIOR SERVICES,325 East 156th Street,BRONX,NY,10451,BRONX,718-585-1640,Y,8:00,4:00,8:00,4:00,8:00,4:00,8:00,4:00,8:00,4:00,0:00,0:00,0:00,0:00,40.821439,-73.917995,201.0,17.0,69.0,2091224.0,2024160001.0,Melrose South-Mott Haven North,POINT (-73.917995 40.821439),"325 East 156th Street, BRONX, NY 10451",006900
OLDER ADULT CENTER CONTRACTS,C2003,MMCC-CDC OLDER ADULT CENTER MARBLE HILL (C20),CHILD DEVELOPMENT CENTER OF THE MOSHOLU-MONTEFIORE COMMMUNIT,5365 Broadway,BRONX,NY,10463,BRONX,718-562-8551,Y,8:30,4:30,8:30,4:30,8:30,4:30,8:30,4:30,8:30,4:30,0:00,0:00,0:00,0:00,40.876062,-73.907886,208.0,10.0,309.0,1082782.0,1022150623.0,Marble Hill-Inwood,POINT (-73.907886 40.876062),"5365 Broadway, BRONX, NY 10463",028900
CASE MANAGEMENT SERVICES CONTRACTS,5M401,CASC CMA SI (5M4),COMMUNITY AGENCY FOR SENIOR CITIZENS INC,120 Stuyvesant Place Suite 409,STATEN ISLAND,NY,10301,STATEN ISLAND,718-981-6226,Y,9:00,5:00,9:00,5:00,9:00,5:00,9:00,5:00,9:00,5:00,0:00,0:00,0:00,0:00,40.643264,-74.077159,501.0,49.0,3.0,5000084.0,5000080060.0,West New Brighton-New Brighton-St. George,POINT (-74.077159 40.643264),"120 Stuyvesant Place Suite 409, STATEN ISLAND, NY 10301",000300
NEW YORK CONNECTS CONTRACTS,4C401,SELFHELP NY CONNECTS QN (4C4),SELFHELP COMMUNITY SERVICES INC,45-35 Kissena Blvd.,FLUSHING,NY,11355,QUEENS,718-559-4400,Y,8:30,4:00,8:30,4:00,8:30,4:00,8:30,4:00,8:30,4:00,0:00,0:00,0:00,0:00,40.751617,-73.820173,407.0,20.0,1205.0,4117391.0,4052000151.0,East Flushing,POINT (-73.820173 40.751617),"45-35 Kissena Blvd., FLUSHING, NY 11355",120500
CASE MANAGEMENT SERVICES CONTRACTS,2ME01,HEIGHTS AND HILLS - CMA (2ME),HEIGHTS AND HILLS INC.,81 WILLOUGHBY STREET,BROOKLYN,NY,11201,BROOKLYN,718-596-8789,Y,9:00,5:00,9:00,5:00,9:00,5:00,9:00,5:00,9:00,5:00,0:00,0:00,0:00,0:00,40.692184,-73.985753,302.0,33.0,11.0,3000350.0,3001480046.0,DUMBO-Vinegar Hill-Downtown Brooklyn-Boerum Hill,POINT (-73.985753 40.692184),"81 WILLOUGHBY STREET, BROOKLYN, NY 11201",001100
CASE MANAGEMENT SERVICES CONTRACTS,3M801,NY FOUNDATION - CMA - MN 1 2 3 5 6 (3M8),NEW YORK FOUNDATION FOR SENIOR CITIZENS INC,11 Park Place,NEW YORK,NY,10007,MANHATTAN,212-962-7817,Y,9:00,5:00,9:00,5:00,9:00,5:00,9:00,5:00,9:00,5:00,0:00,0:00,0:00,0:00,40.712828,-74.008296,101.0,1.0,21.0,1001399.0,1001240004.0,SoHo-TriBeCa-Civic Center-Little Italy,POINT (-74.008296 40.712828),"11 Park Place, NEW YORK, NY 10007",002100
NATURALLY OCCURING RETIREMENT COMMUNITY CONTRACTS,N6203,SELFHELP NORTHRIDGE 11-BRULENE NORC (N62),SELFHELP COMMUNITY SERVICES INC,33-45 90TH STREET,FLUSHING,NY,11372,QUEENS,718-396-5425,Y,9:00,5:00,9:00,5:00,9:00,5:00,9:00,5:00,9:00,5:00,0:00,0:00,0:00,0:00,40.75489,-73.877655,403.0,25.0,277.0,4431400.0,4014380001.0,Jackson Heights,POINT (-73.877655 40.75489),"33-45 90TH STREET, FLUSHING, NY 11372",027702
OLDER ADULT CENTER CONTRACTS,W1606,ARTURO SCHOMBURG (W16),INSTITUTE FOR THE PUERTO RICAN HISPANIC ELDERLY INC,1315 Franklin Avenue,BRONX,NY,10456,BRONX,718-842-6880,Y,8:00,4:00,8:00,4:00,8:00,4:00,8:00,4:00,8:00,4:00,0:00,0:00,0:00,0:00,40.832062,-73.901641,203.0,16.0,149.0,2009713.0,2029310086.0,Morrisania-Melrose,POINT (-73.901641 40.832062),"1315 Franklin Avenue, BRONX, NY 10456",014900
CAREGIVER SERVICES CONTRACTS,3K401,HMH  LOWER MANHATTAN (3K4),HAMILTON MADISON HOUSE INC,50 Madison Street,NEW YORK,NY,10038,MANHATTAN,212-788-2318,Y,0:00,0:00,0:00,0:00,0:00,0:00,0:00,0:00,0:00,0:00,0:00,0:00,0:00,0:00,40.711958,-73.997825,103.0,1.0,25.0,1077420.0,1001110100.0,Chinatown,POINT (-73.997825 40.711958),"50 Madison Street, NEW YORK, NY 10038",002500
OLDER ADULT CENTER CONTRACTS,W1604,ELMHURST (W16),INSTITUTE FOR THE PUERTO RICAN HISPANIC ELDERLY INC,75-01 Broadway Avenue,FLUSHING,NY,11373,QUEENS,718-478-7171,Y,8:00,4:00,8:00,4:00,8:00,4:00,8:00,4:00,8:00,4:00,0:00,0:00,0:00,0:00,40.746172,-73.890208,404.0,25.0,267.0,4036730.0,4014860013.0,Elmhurst,POINT (-73.890208 40.746172),"75-01 Broadway Avenue, FLUSHING, NY 11373",026700
HOME DELIVERED MEAL SERVICE CONTRACTS,46R01,QUEENS COMMUNITY HOUSE (46R),QUEENS COMMUNITY HOUSE INC.,108-25 62 Drive,FLUSHING,NY,11375,QUEENS,718-592-5757,Y,,,,,,,,,,,,,,,40.73591,-73.850212,406.0,24.0,745.0,4432108.0,4021590015.0,Forest Hills,POINT (-73.850212 40.73591),"108-25 62 Drive, FLUSHING, NY 11375",074500
NATURALLY OCCURING RETIREMENT COMMUNITY CONTRACTS,N5901,FOREST HILLS COMMUNITY HOUSE NORC (N59),QUEENS COMMUNITY HOUSE INC.,108-03 62nd Drive,FLUSHING,NY,11375,QUEENS,718-760-5231,Y,9:00,5:00,9:00,5:00,9:00,5:00,9:00,5:00,9:00,5:00,0:00,0:00,0:00,0:00,40.735716,-73.850833,406.0,24.0,745.0,4432109.0,4021590002.0,Forest Hills,POINT (-73.850833 40.735716),"108-03 62nd Drive, FLUSHING, NY 11375",074500
TRANSPORTATION SERVICES CONTRACTS,24605,JCC OF GREATER CONEY ISLAND (246),JEWISH COMMUNITY COUNCIL OF GREATER CONEY ISLAND INC,3001 WEST   37 STREET,BROOKLYN,NY,11224,BROOKLYN,718-449-5000,Y,,,,,,,,,,,,,,,40.573177,-74.002509,313.0,47.0,340.0,3189617.0,3070650001.0,Seagate-Coney Island,POINT (-74.002509 40.573177),"3001 WEST   37 STREET, BROOKLYN, NY 11224",034000
NATURALLY OCCURING RETIREMENT COMMUNITY CONTRACTS,N5601,ISABELLA GERIATRIC FT GEORGE VISTAS NORC (N56),ISABELLA GERIATRIC CENTER INC,17 FT. GEORGE HILL,NEW YORK,NY,10040,MANHATTAN,212-304-1064,Y,9:00,5:00,9:00,5:00,9:00,5:00,9:00,5:00,9:00,5:00,0:00,0:00,0:00,0:00,40.8577,-73.927505,112.0,10.0,283.0,1064067.0,1021700131.0,Washington Heights North,POINT (-73.927505 40.8577),"17 FT. GEORGE HILL, NEW YORK, NY 10040",028300
CASE MANAGEMENT SERVICES CONTRACTS,2MP01,RISEBORO - CMA - BK01 03 04 (2MP),RISEBORO COMMUNITY PARTNERSHIP INC,1175 Gates Avenue,BROOKLYN,NY,11221,BROOKLYN,929-332-0064,Y,9:00,5:00,9:00,5:00,9:00,5:00,9:00,5:00,9:00,5:00,0:00,0:00,0:00,0:00,40.691707,-73.919907,304.0,37.0,399.0,3076253.0,3033310025.0,Bushwick South,POINT (-73.919907 40.691707),"1175 Gates Avenue, BROOKLYN, NY 11221",039900
OLDER ADULT CENTER CONTRACTS,C2701,COUNCIL OF PEOPLES ORGANIZATION: HALAL SENIOR CENTER (C27),COUNCIL OF PEOPLES ORGANIZATION INC.,1075-1077 Coney Island Avenue,BROOKLYN,NY,11230,BROOKLYN,718-434-3266,Y,9:00,5:00,9:00,5:00,9:00,5:00,9:00,5:00,9:00,5:00,0:00,0:00,0:00,0:00,40.631169,-73.966466,314.0,45.0,528.0,3178919.0,3066860080.0,Flatbush,POINT (-73.966466 40.631169),"1075-1077 Coney Island Avenue, BROOKLYN, NY 11230",052800
CASE MANAGEMENT SERVICES CONTRACTS,3MB01,ISABELLA - CMA - MN 9 10 12 (3MB),ISABELLA GERIATRIC CENTER INC,515 AUDUBON AVENUE,NEW YORK,NY,10040,MANHATTAN,212-342-9735,Y,9:00,5:00,9:00,5:00,9:00,5:00,9:00,5:00,9:00,5:00,0:00,0:00,0:00,0:00,40.854783,-73.927909,112.0,10.0,277.0,1063861.0,1021600001.0,Washington Heights North,POINT (-73.927909 40.854783),"515 AUDUBON AVENUE, NEW YORK, NY 10040",027700
CASE MANAGEMENT SERVICES CONTRACTS,4MB01,SUNNYSIDE CMA QN 1 2 3 5 (4MB),SUNNYSIDE COMMUNITY SERVICES INC,43-31 39th St,LONG ISLAND CITY,NY,11104,QUEENS,718-784-6173,Y,9:00,5:00,9:00,5:00,9:00,5:00,9:00,5:00,9:00,5:00,0:00,0:00,0:00,0:00,40.74519,-73.925909,402.0,26.0,179.0,4436677.0,4001910005.0,Hunters Point-Sunnyside-West Maspeth,POINT (-73.925909 40.74519),"43-31 39th St, LONG ISLAND CITY, NY 11104",017901
OLDER ADULT CENTER CONTRACTS,W1603,CARVER (W16),INSTITUTE FOR THE PUERTO RICAN HISPANIC ELDERLY INC,55 East 102nd Street,NEW YORK,NY,10029,MANHATTAN,212-289-2709,Y,8:00,4:00,8:00,4:00,8:00,4:00,8:00,4:00,8:00,4:00,0:00,0:00,0:00,0:00,40.79084,-73.950853,111.0,8.0,168.0,1082659.0,1016080023.0,East Harlem South,POINT (-73.950853 40.79084),"55 East 102nd Street, NEW YORK, NY 10029",016800
OLDER ADULT CENTER CONTRACTS,C3903,HANAC RAVENSWOOD OLDER ADULT CENTER (C39),HANAC INC.,34-35 12th Street,LONG ISLAND CITY,NY,11106,QUEENS,718-786-1550,Y,8:00,4:00,8:00,4:00,8:00,4:00,8:00,4:00,8:00,4:00,0:00,0:00,0:00,0:00,40.76323,-73.937607,401.0,26.0,43.0,4430802.0,4005230002.0,Queensbridge-Ravenswood-Long Island City,POINT (-73.937607 40.76323),"34-35 12th Street, LONG ISLAND CITY, NY 11106",004300
TRANSPORTATION SERVICES CONTRACTS,24604,JEWISH COMMUNITY COUNCIL OF GREATER CONEY ISLAND INC (246),JEWISH COMMUNITY COUNCIL OF GREATER CONEY ISLAND INC,3001 WEST   37 STREET,BROOKLYN,NY,11224,BROOKLYN,718-449-5000,Y,,,,,,,,,,,,,,,40.573177,-74.002509,313.0,47.0,340.0,3189617.0,3070650001.0,Seagate-Coney Island,POINT (-74.002509 40.573177),"3001 WEST   37 STREET, BROOKLYN, NY 11224",034000
OLDER ADULT CENTER CONTRACTS,C8901,WASHINGTON HEIGHTS NEIGHBORHOOD SENIOR CENTER (STAR OAC) (C89),WASHINGTON HEIGHTS COMMUNITY SERVICE INC,650 West 187th Street,NEW YORK,NY,10033,MANHATTAN,212-781-8331,Y,8:00,4:00,8:00,4:00,8:00,4:00,8:00,4:00,8:00,4:00,0:00,0:00,0:00,0:00,40.853679,-73.932494,112.0,10.0,271.0,1075520.0,1021670056.0,Washington Heights North,POINT (-73.932494 40.853679),"650 West 187th Street, NEW YORK, NY 10033",027100
OLDER ADULT CENTER CONTRACTS,C0802,BERGEN BASIN INDEPENDENCE OLDER ADULT CENTER (C08),BERGEN BASIN COMMUNITY DEVELOPMENT CORPORATION DBA MILLENNIU,114 Taylor Street,BROOKLYN,NY,11249,BROOKLYN,718-388-9242,Y,9:00,5:00,9:00,5:00,9:00,5:00,9:00,5:00,9:00,5:00,0:00,0:00,0:00,0:00,40.705508,-73.963702,301.0,34.0,545.0,3059905.0,3021760001.0,Williamsburg,POINT (-73.963702 40.705508),"114 Taylor Street, BROOKLYN, NY 11249",054500
NEW YORK CONNECTS CONTRACTS,1C401,NSHOPP - NY CONNECTS - BX (1C4),THE NEIGHBORHOOD SELF-HELP BY OLDER PERSONS PROJECT INC,975 Kelly Street Suite #301,BRONX,NY,10459,BRONX,347-862-5200,Y,9:00,5:00,9:00,5:00,9:00,5:00,9:00,5:00,9:00,5:00,0:00,0:00,0:00,0:00,40.822052,-73.895879,202.0,17.0,87.0,2114693.0,2027037501.0,Longwood,POINT (-73.895879 40.822052),"975 Kelly Street Suite #301, BRONX, NY 10459",008700
CASE MANAGEMENT SERVICES CONTRACTS,1MB01,JASA - CMA - BX03 (1MB),THE JEWISH ASSOCIATION FOR SERVICES FOR THE AGED,3000 MIDDLETOWN ROAD,BRONX,NY,10461,BRONX,212-273-5200,Y,9:00,5:00,9:00,5:00,9:00,5:00,9:00,5:00,9:00,5:00,0:00,0:00,0:00,0:00,40.843886,-73.830311,210.0,13.0,264.0,2074861.0,2054000047.0,Schuylerville-Throgs Neck-Edgewater Park,POINT (-73.830311 40.843886),"3000 MIDDLETOWN ROAD, BRONX, NY 10461",026400
OLDER ADULT CENTER CONTRACTS,C7701,GREAT KILLS OAC (C77),STATEN ISLAND COMMUNITY SERVICES FRIENDSHIP CLUBS INC,11 Sampson Avenue,STATEN ISLAND,NY,10308,STATEN ISLAND,718-356-5050,Y,8:00,4:00,8:00,4:00,8:00,4:00,8:00,4:00,8:00,4:00,0:00,0:00,0:00,0:00,40.552619,-74.149806,503.0,51.0,14605.0,5062569.0,5046240500.0,Great Kills,POINT (-74.149806 40.552619),"11 Sampson Avenue, STATEN ISLAND, NY 10308",014605
OLDER ADULT CENTER CONTRACTS,C2201,CASC CASSIDY COLES NSC (C22),COMMUNITY AGENCY FOR SENIOR CITIZENS INC,125 Cassidy Place,STATEN ISLAND,NY,10301,STATEN ISLAND,718-273-6808,Y,8:00,4:00,8:00,4:00,8:00,4:00,8:00,4:00,8:00,4:00,0:00,0:00,0:00,0:00,40.641888,-74.096489,501.0,49.0,81.0,5001762.0,5000710011.0,West New Brighton-New Brighton-St. George,POINT (-74.096489 40.641888),"125 Cassidy Place, STATEN ISLAND, NY 10301",008100
OLDER ADULT CENTER CONTRACTS,C7205,TIMES PLAZA CENTER OAC (C72),SPANISH SPEAKING ELDERLY COUNCIL RAICES INC.,460 Atlantic Avenue,BROOKLYN,NY,11217,BROOKLYN,718-694-0895,Y,9:00,5:00,9:00,5:00,9:00,5:00,9:00,5:00,9:00,5:00,0:00,0:00,0:00,0:00,40.686296,-73.983223,302.0,33.0,41.0,3000937.0,3001840025.0,DUMBO-Vinegar Hill-Downtown Brooklyn-Boerum Hill,POINT (-73.983223 40.686296),"460 Atlantic Avenue, BROOKLYN, NY 11217",004100
OLDER ADULT CENTER CONTRACTS,C9501,CENTER FOR ADULTS LIVING WELL @ THE Y (OAC) (C95),YM YWHA OF WASHINGTON HEIGHTS AND INWOOD INC,54 Nagle Avenue,NEW YORK,NY,10040,MANHATTAN,646-738-6084,Y,8:00,4:00,8:00,4:00,8:00,4:00,8:00,4:00,8:00,4:00,0:00,0:00,0:00,0:00,40.859993,-73.929129,112.0,10.0,285.0,1064146.0,1021720064.0,Washington Heights North,POINT (-73.929129 40.859993),"54 Nagle Avenue, NEW YORK, NY 10040",028500
CAREGIVER SERVICES CONTRACTS,6K101,HMH  CITYWIDE (6K1),HAMILTON MADISON HOUSE INC,100 Gold Street Lower Level,NEW YORK,NY,10038,MANHATTAN,212-349-3724,Y,7:00,3:00,7:00,3:00,7:00,3:00,7:00,3:00,7:00,3:00,0:00,0:00,0:00,0:00,40.710353,-74.004007,101.0,1.0,1501.0,1001289.0,1000940025.0,Battery Park City-Lower Manhattan,POINT (-74.004007 40.710353),"100 Gold Street Lower Level, NEW YORK, NY 10038",001501
OLDER ADULT CENTER CONTRACTS,C3507,ZEST FOR LIFE OAC (C35),FORT GREENE COUNCIL,261 East 21st Street,BROOKLYN,NY,11236,BROOKLYN,929-626-6020,Y,8:00,4:00,8:00,4:00,8:00,4:00,8:00,4:00,8:00,4:00,0:00,0:00,0:00,0:00,40.648058,-73.959556,314.0,40.0,51002.0,3117184.0,3051020073.0,Flatbush,POINT (-73.959556 40.648058),"261 East 21st Street, BROOKLYN, NY 11236",051002
NATURALLY OCCURING RETIREMENT COMMUNITY CONTRACTS,N6301,SPRING CREEK NORC (N63),SPRING CREEK SENIOR PARTNERS INC,160 SCHROEDERS AVENUE,BROOKLYN,NY,11239,BROOKLYN,718-348-7620,Y,9:00,5:00,9:00,5:00,9:00,5:00,9:00,5:00,9:00,5:00,0:00,0:00,0:00,0:00,40.648735,-73.879612,305.0,42.0,105801.0,3343606.0,3044520200.0,Starrett City,POINT (-73.879612 40.648735),"160 SCHROEDERS AVENUE, BROOKLYN, NY 11239",105801
TRANSPORTATION SERVICES CONTRACTS,36701,NY FOUNDATION - TRAN INDIVIDUAL RIDES - MN SOUTH (367),NEW YORK FOUNDATION FOR SENIOR CITIZENS INC,404 WEST 54 STREET,NEW YORK,NY,10019,MANHATTAN,212-956-0855,Y,9:00,5:00,9:00,5:00,9:00,5:00,9:00,5:00,9:00,5:00,0:00,0:00,0:00,0:00,40.766197,-73.987636,104.0,3.0,133.0,1026769.0,1010630035.0,Clinton,POINT (-73.987636 40.766197),"404 WEST 54 STREET, NEW YORK, NY 10019",013300
CASE MANAGEMENT SERVICES CONTRACTS,3MA01,LENOX HILL - CMA - MN 8 11 (3MA),LENOX HILL NEIGHBORHOOD HOUSE INC,331 EAST   70 STREET,NEW YORK,NY,10021,MANHATTAN,212-218-0506,Y,9:00,5:00,9:00,5:00,9:00,5:00,9:00,5:00,9:00,5:00,0:00,0:00,0:00,0:00,40.766925,-73.95795,108.0,5.0,126.0,1044838.0,1014450014.0,Lenox Hill-Roosevelt Island,POINT (-73.95795 40.766925),"331 EAST   70 STREET, NEW YORK, NY 10021",012601
TRANSPORTATION SERVICES CONTRACTS,19602,RAIN EASTCHESTER - TRAN GROUP RIDES - BX NORTH (196),REGIONAL AID FOR INTERIM NEEDS INC,1246 Burke Avenue,BRONX,NY,10469,BRONX,718-882-8513,Y,9:00,5:00,9:00,5:00,9:00,5:00,9:00,5:00,9:00,5:00,0:00,0:00,0:00,0:00,40.871144,-73.851046,211.0,12.0,348.0,2093501.0,2045810001.0,Allerton-Pelham Gardens,POINT (-73.851046 40.871144),"1246 Burke Avenue, BRONX, NY 10469",034800
OLDER ADULT CENTER CONTRACTS,W2005,PALMETTO GARDENS SENIOR CLUB (W20),RISEBORO COMMUNITY PARTNERSHIP INC,85 Palmetto Street,BROOKLYN,NY,11221,BROOKLYN,718-676-0876,Y,8:00,4:00,8:00,4:00,8:00,4:00,8:00,4:00,8:00,4:00,0:00,0:00,0:00,0:00,40.691599,-73.91884,304.0,37.0,399.0,3076429.0,3033400020.0,Bushwick South,POINT (-73.91884 40.691599),"85 Palmetto Street, BROOKLYN, NY 11221",039900
OLDER ADULT CENTER CONTRACTS,C8801,VISIONS CENTER ON AGING OAC (C88),VISIONS/SERVICES FOR THE BLIND AND VISUALLY IMPAIRED,135 West 23rd Street,NEW YORK,NY,10011,MANHATTAN,646-486-4444,Y,9:00,5:00,9:00,5:00,9:00,5:00,9:00,5:00,9:00,5:00,0:00,0:00,0:00,0:00,40.743386,-73.993916,104.0,3.0,91.0,1014949.0,1007990021.0,Hudson Yards-Chelsea-Flatiron-Union Square,POINT (-73.993916 40.743386),"135 West 23rd Street, NEW YORK, NY 10011",009100
CASE MANAGEMENT SERVICES CONTRACTS,2MJ01,JASA - CMA - BK13 (2MJ),THE JEWISH ASSOCIATION FOR SERVICES FOR THE AGED,3161 Brighton 6th STR,BROOKLYN,NY,11235,BROOKLYN,212-273-5200,Y,9:00,5:00,9:00,5:00,9:00,5:00,9:00,5:00,9:00,5:00,0:00,0:00,0:00,0:00,40.575657,-73.961105,313.0,48.0,36002.0,3245130.0,3086930012.0,Brighton Beach,POINT (-73.961105 40.575657),"3161 Brighton 6th STR, BROOKLYN, NY 11235",036002
NATURALLY OCCURING RETIREMENT COMMUNITY CONTRACTS,N7101,MASARYK TOWER NORC (N71),UNITED JEWISH COUNCIL OF THE EAST SIDE INC,75 Columbia Street,NEW YORK,NY,10002,MANHATTAN,212-301-8995,Y,9:00,5:00,9:00,5:00,9:00,5:00,9:00,5:00,9:00,5:00,0:00,0:00,0:00,0:00,40.717567,-73.979986,103.0,2.0,2201.0,1082666.0,1003330001.0,Lower East Side,POINT (-73.979986 40.717567),"75 Columbia Street, NEW YORK, NY 10002",002201
OLDER ADULT CENTER CONTRACTS,C7204,RAICES BLAND SOCIAL CLUB (C72),SPANISH SPEAKING ELDERLY COUNCIL RAICES INC.,40-15 College Point Blvd,FLUSHING,NY,11354,QUEENS,718-694-0895,Y,9:00,5:00,9:00,5:00,9:00,5:00,9:00,5:00,9:00,5:00,0:00,0:00,0:00,0:00,40.757803,-73.83414,407.0,20.0,871.0,4443443.0,4050370008.0,Flushing,POINT (-73.83414 40.757803),"40-15 College Point Blvd, FLUSHING, NY 11354",087100
HOME DELIVERED MEAL SERVICE CONTRACTS,36F01,HENRY STREET SETTLEMENT HOME DELIVERY MEAL (36F),HENRY STREET SETTLEMENT,265 Henry Street,NEW YORK,NY,10002,MANHATTAN,212-766-9200,Y,,,,,,,,,,,,,,,40.713857,-73.984532,103.0,1.0,202.0,1079627.0,1002880078.0,Lower East Side,POINT (-73.984532 40.713857),"265 Henry Street, NEW YORK, NY 10002",000202
OLDER ADULT CENTER CONTRACTS,W1601,BETANCES (W16),INSTITUTE FOR THE PUERTO RICAN HISPANIC ELDERLY INC,401 St Anns Avenue,BRONX,NY,10454,BRONX,718-292-4922,Y,8:00,4:00,8:00,4:00,8:00,4:00,8:00,4:00,8:00,4:00,0:00,0:00,0:00,0:00,40.81085,-73.914941,201.0,8.0,41.0,2090993.0,2022690100.0,Mott Haven-Port Morris,POINT (-73.914941 40.81085),"401 St Anns Avenue, BRONX, NY 10454",004300
HOME DELIVERED MEAL SERVICE CONTRACTS,36H01,STANLEY ISAACS NEIGHBORHOOD CENTER (36H),STANLEY M ISAACS NEIGHBORHOOD CENTER INC,415 EAST   93 STREET,NEW YORK,NY,10128,MANHATTAN,212-360-7620,Y,,,,,,,,,,,,,,,40.780904,-73.945112,108.0,8.0,152.0,1082367.0,1015730001.0,Yorkville,POINT (-73.945112 40.780904),"415 EAST   93 STREET, NEW YORK, NY 10128",015200
NATURALLY OCCURING RETIREMENT COMMUNITY CONTRACTS,N6805,JASA TRUMPS UNITED NORC (N68),THE JEWISH ASSOCIATION FOR SERVICES FOR THE AGED,458 NEPTUNE AVENUE,BROOKLYN,NY,11224,BROOKLYN,718-372-8815,Y,9:00,5:00,9:00,5:00,9:00,5:00,9:00,5:00,9:00,5:00,0:00,0:00,0:00,0:00,40.579782,-73.970866,313.0,48.0,35602.0,3196580.0,3072740001.0,West Brighton,POINT (-73.970866 40.579782),"458 NEPTUNE AVENUE, BROOKLYN, NY 11224",035602
OLDER ADULT CENTER CONTRACTS,C7401,PROSPECT HILL NSC (C74),ST JOHN ST MATTHEW EMANUEL LUTHERAN CHURCH,283 Prospect Avenue,BROOKLYN,NY,11215,BROOKLYN,718-499-9574,Y,9:00,5:00,9:00,5:00,9:00,5:00,9:00,5:00,9:00,5:00,0:00,0:00,0:00,0:00,40.663323,-73.989165,307.0,39.0,141.0,3337801.0,3010530073.0,Park Slope-Gowanus,POINT (-73.989165 40.663323),"283 Prospect Avenue, BROOKLYN, NY 11215",014102
CAREGIVER SERVICES CONTRACTS,6K301,SAGE CAREGIVER CITYWIDE (6K3),SERVICES AND ADVOCACY FOR GAYLESBIANBISEXUAL AND TRANSGEND,305 7 AVENUE,NEW YORK,NY,10001,MANHATTAN,212-741-2247,Y,9:00,5:00,9:00,5:00,9:00,5:00,9:00,5:00,9:00,5:00,0:00,0:00,0:00,0:00,40.746817,-73.993655,105.0,3.0,95.0,1015060.0,1008037502.0,Midtown-Midtown South,POINT (-73.993655 40.746817),"305 7 AVENUE, NEW YORK, NY 10001",009500
HOME DELIVERED MEAL SERVICE CONTRACTS,46E01,CCNS WESTERN QUEENS HOME DELIVERED MEALS PROGRAM (46E),CATHOLIC CHARITIES NEIGHBORHOOD SERVICES INC,89-18 Astoria Boulevard,FLUSHING,NY,11369,QUEENS,718-722-6000,Y,,,,,,,,,,,,,,,40.763727,-73.87957,403.0,22.0,329.0,4032388.0,4013630011.0,Jackson Heights,POINT (-73.87957 40.763727),"89-18 Astoria Boulevard, FLUSHING, NY 11369",032900
OLDER ADULT CENTER CONTRACTS,W1910,PSS CITY ISLAND (W19),PRESBYTERIAN SENIOR SERVICES,116 City Island Avenue,BRONX,NY,10464,BRONX,718-885-0727,Y,8:00,3:00,8:00,3:00,8:00,3:00,8:00,3:00,8:00,3:00,0:00,0:00,0:00,0:00,40.841097,-73.784187,210.0,13.0,516.0,2082432.0,2056400010.0,Pelham Bay-Country Club-City Island,POINT (-73.784187 40.841097),"116 City Island Avenue, BRONX, NY 10464",051601
OLDER ADULT CENTER CONTRACTS,C7101,SOUTHSIDE LOS SURES DAVID SANTIAGO (C71),SOUTHSIDE UNITED HOUSING DEVELOPMENT FUND CORP,201 South 4th Street,BROOKLYN,NY,11211,BROOKLYN,718-384-2314,Y,9:00,4:00,9:00,4:00,9:00,4:00,9:00,4:00,9:00,4:00,0:00,0:00,0:00,0:00,40.710881,-73.96016,301.0,34.0,523.0,3321304.0,3024320025.0,North Side-South Side,POINT (-73.96016 40.710881),"201 South 4th Street, BROOKLYN, NY 11211",052300
NATURALLY OCCURING RETIREMENT COMMUNITY CONTRACTS,N5202,GODDARD RIVERSIDE WEST SIDE NORC (N52),GODDARD-RIVERSIDE COMMUNITY CENTER,593 COLUMBUS AVENUE,NEW YORK,NY,10024,MANHATTAN,212-665-3853,Y,9:00,5:00,9:00,5:00,9:00,5:00,9:00,5:00,9:00,5:00,0:00,0:00,0:00,0:00,40.788212,-73.970904,107.0,6.0,173.0,1079511.0,1012020001.0,Upper West Side,POINT (-73.970904 40.788212),"593 COLUMBUS AVENUE, NEW YORK, NY 10024",017300
OLDER ADULT CENTER CONTRACTS,C4202,HOMECREST (C42),HOMECREST COMMUNITY SERVICES INC,1413 Avenue T,BROOKLYN,NY,11229,BROOKLYN,718-376-4036,Y,:30,3:30,8:30,3:30,8:30,3:30,8:30,3:30,8:30,3:30,:,:,:,:,40.60102,-73.957543,315.0,48.0,556.0,3196793.0,3072930043.0,Homecrest,POINT (-73.957543 40.60102),"1413 Avenue T, BROOKLYN, NY 11229",055600
NATURALLY OCCURING RETIREMENT COMMUNITY CONTRACTS,N7001,UNION SETTLEMENT FRANKLIN PLAZA NORC (N70),UNION SETTLEMENT ASSOCIATION,2090 SECOND AVENUE,NEW YORK,NY,10029,MANHATTAN,646-713-2420,Y,9:00,5:00,9:00,5:00,9:00,5:00,9:00,5:00,9:00,5:00,0:00,0:00,0:00,0:00,40.791585,-73.941726,111.0,8.0,170.0,1081081.0,1016780001.0,East Harlem South,POINT (-73.941726 40.791585),"2090 SECOND AVENUE, NEW YORK, NY 10029",017000
HOMECARE SERVICES CONTRACTS,2HR01,NEW PARTNERS - HOME CARE - BK (2HR),NEW PARTNERS INC.,5 Penn Plaza,NEW YORK,NY,10001,MANHATTAN,212-609-7235,Y,9:00,5:00,9:00,5:00,9:00,5:00,9:00,5:00,9:00,5:00,0:00,0:00,0:00,0:00,40.751861,-73.993716,104.0,3.0,103.0,1013547.0,1007570031.0,Hudson Yards-Chelsea-Flatiron-Union Square,POINT (-73.993716 40.751861),"5 Penn Plaza, NEW YORK, NY 10001",010100
OLDER ADULT CENTER CONTRACTS,C9005,WAYSIDE OUT TOMPKINS PARK SENIOR CENTER (C90),WAYSIDE OUT-REACH DEVELOPMENT INC,550 Greene Avenue,BROOKLYN,NY,11216,BROOKLYN,718-638-3000,Y,9:00,5:00,9:00,5:00,9:00,5:00,9:00,5:00,9:00,5:00,0:00,0:00,0:00,0:00,40.688666,-73.948775,303.0,36.0,251.0,3050417.0,3017980040.0,Bedford,POINT (-73.948775 40.688666),"550 Greene Avenue, BROOKLYN, NY 11216",025100
CAREGIVER SERVICES CONTRACTS,2K201,JASA BROOKLYN CAREGIVER (2K2),THE JEWISH ASSOCIATION FOR SERVICES FOR THE AGED,161 CORBIN PLACE,BROOKLYN,NY,11235,BROOKLYN,718-934-4180,Y,9:00,5:00,9:00,5:00,9:00,5:00,9:00,5:00,9:00,5:00,0:00,0:00,0:00,0:00,40.578026,-73.954127,315.0,48.0,61004.0,3245719.0,3087190073.0,Brighton Beach,POINT (-73.954127 40.578026),"161 CORBIN PLACE, BROOKLYN, NY 11235",061004
LEGAL SERVICES CONTRACTS,40A01,JASA LEGAL SERVICES QN (40A),THE JEWISH ASSOCIATION FOR SERVICES FOR THE AGED,97-77 QUEENS BOULEVARD,FLUSHING,NY,11374,QUEENS,718-286-1500,Y,9:00,5:00,9:00,5:00,9:00,5:00,9:00,5:00,9:00,5:00,0:00,0:00,0:00,0:00,40.728721,-73.858501,406.0,29.0,71701.0,4050482.0,4020920001.0,Rego Park,POINT (-73.858501 40.728721),"97-77 QUEENS BOULEVARD, FLUSHING, NY 11374",071701
CASE MANAGEMENT SERVICES CONTRACTS,1MA01,RAIN - CMA - BX 07 08 11 12 (1MA),REGIONAL AID FOR INTERIM NEEDS INC,3377 White Plains Road,BRONX,NY,10467,BRONX,347-346-9676,Y,9:00,5:00,9:00,5:00,9:00,5:00,9:00,5:00,9:00,5:00,0:00,0:00,0:00,0:00,40.874872,-73.86706,212.0,12.0,374.0,2087299.0,2046240037.0,Williamsbridge-Olinville,POINT (-73.86706 40.874872),"3377 White Plains Road, BRONX, NY 10467",037400
NEW YORK CONNECTS CONTRACTS,6C401,PSS NY CONNECTS BK (6C4),PRESBYTERIAN SENIOR SERVICES,1655 Flatbush Avenue,BROOKLYN,NY,11210,BROOKLYN,718-671-6200,Y,9:00,5:00,9:00,5:00,9:00,5:00,9:00,5:00,9:00,5:00,0:00,0:00,0:00,0:00,40.630096,-73.944757,318.0,45.0,776.0,3206459.0,3075790010.0,Flatlands,POINT (-73.944757 40.630096),"1655 Flatbush Avenue, BROOKLYN, NY 11210",077600
LEGAL SERVICES CONTRACTS,20I01,BLS  LEGAL SERVICES  BK MN & SI (20I),BROOKLYN LEGAL SERVICES INC,105 Court Street 4th Floor,BROOKLYN,NY,11201,BROOKLYN,917-661-4500,Y,9:00,4:30,9:00,4:30,9:00,4:30,9:00,4:30,9:00,4:30,0:00,0:00,0:00,0:00,40.690793,-73.991825,302.0,33.0,9.0,3002702.0,3002710023.0,Brooklyn Heights-Cobble Hill,POINT (-73.991825 40.690793),"105 Court Street 4th Floor, BROOKLYN, NY 11201",000900
CAREGIVER SERVICES CONTRACTS,4K101,SUNNYSIDE CAREGIVER QN 01-07 (4K1),SUNNYSIDE COMMUNITY SERVICES INC,43-31 39 Street,LONG ISLAND CITY,NY,11104,QUEENS,718-392-6945,Y,9:00,5:00,9:00,5:00,9:00,5:00,9:00,5:00,9:00,5:00,0:00,0:00,0:00,0:00,40.74519,-73.925909,402.0,26.0,179.0,4436677.0,4001910005.0,Hunters Point-Sunnyside-West Maspeth,POINT (-73.925909 40.74519),"43-31 39 Street, LONG ISLAND CITY, NY 11104",017901
OLDER ADULT CENTER CONTRACTS,C7702,ARROCHAR (C77),STATEN ISLAND COMMUNITY SERVICES FRIENDSHIP CLUBS INC,44 Bionia Avenue,STATEN ISLAND,NY,10305,STATEN ISLAND,718-698-7979,Y,8:00,4:00,8:00,4:00,8:00,4:00,8:00,4:00,8:00,4:00,0:00,0:00,0:00,0:00,40.596713,-74.075377,502.0,50.0,64.0,5133958.0,5032700025.0,Grasmere-Arrochar-Ft. Wadsworth,POINT (-74.075377 40.596713),"44 Bionia Avenue, STATEN ISLAND, NY 10305",006400
CASE MANAGEMENT SERVICES CONTRACTS,4MG01,SNAP CMA QN 8 11 13 (4MG),SERVICES NOW FOR ADULT PERSONS INC,80-45 Winchester Blvd.,JAMAICA,NY,11427,QUEENS,718-454-2385,Y,9:00,5:00,9:00,5:00,9:00,5:00,9:00,5:00,9:00,5:00,0:00,0:00,0:00,0:00,40.737685,-73.734021,413.0,23.0,1567.0,4537294.0,4078800400.0,Bellerose,POINT (-73.734021 40.737685),"80-45 Winchester Blvd., JAMAICA, NY 11427",156700
NATURALLY OCCURING RETIREMENT COMMUNITY CONTRACTS,N5302,HAMILTON MADISON KNICKERBOCKER NORC (N53),HAMILTON MADISON HOUSE INC,36 MONROE STREET,NEW YORK,NY,10002,MANHATTAN,212-349-0616,Y,9:00,5:00,9:00,5:00,9:00,5:00,9:00,5:00,9:00,5:00,0:00,0:00,0:00,0:00,40.711538,-73.99477,103.0,1.0,8.0,1091021.0,1002530001.0,Chinatown,POINT (-73.99477 40.711538),"36 MONROE STREET, NEW YORK, NY 10002",000800
NATURALLY OCCURING RETIREMENT COMMUNITY CONTRACTS,N6804,JASA WARBASSE CARES NORC (N68),THE JEWISH ASSOCIATION FOR SERVICES FOR THE AGED,2844 OCEAN PARKWAY,BROOKLYN,NY,11235,BROOKLYN,718-996-5200,Y,9:00,5:00,9:00,5:00,9:00,5:00,9:00,5:00,9:00,5:00,0:00,0:00,0:00,0:00,40.580542,-73.968428,313.0,48.0,35601.0,3320735.0,3072530001.0,West Brighton,POINT (-73.968428 40.580542),"2844 OCEAN PARKWAY, BROOKLYN, NY 11235",035601
OLDER ADULT CENTER CONTRACTS,W1905,PSS MANHATTANVILLE (W19),PRESBYTERIAN SENIOR SERVICES,530 West 133rd Street,NEW YORK,NY,10027,MANHATTAN,212-862-5562,Y,8:00,4:00,8:00,4:00,8:00,4:00,8:00,4:00,8:00,4:00,0:00,0:00,0:00,0:00,40.818127,-73.954478,109.0,7.0,219.0,1084130.0,1019840001.0,Manhattanville,POINT (-73.954478 40.818127),"530 West 133rd Street, NEW YORK, NY 10027",021900
OLDER ADULT CENTER CONTRACTS,W2003,DIANA JONES ISC (W20),RISEBORO COMMUNITY PARTNERSHIP INC,9 Noll Street,BROOKLYN,NY,11206,BROOKLYN,718-782-3601,Y,8:00,4:00,8:00,4:00,8:00,4:00,8:00,4:00,8:00,4:00,0:00,0:00,0:00,0:00,40.700163,-73.935675,304.0,34.0,391.0,3387594.0,3031450100.0,Bushwick South,POINT (-73.935675 40.700163),"9 Noll Street, BROOKLYN, NY 11206",039100
OLDER ADULT CENTER CONTRACTS,W1901,PSS PARKSIDE (W19),PRESBYTERIAN SENIOR SERVICES,644 Adee Avenue,BRONX,NY,10467,BRONX,718-881-7780,Y,8:00,4:00,8:00,4:00,8:00,4:00,8:00,4:00,8:00,4:00,0:00,0:00,0:00,0:00,40.86967,-73.869106,211.0,12.0,336.0,2101742.0,2045420100.0,Bronxdale,POINT (-73.869106 40.86967),"644 Adee Avenue, BRONX, NY 10467",033601
CASE MANAGEMENT SERVICES CONTRACTS,4ME01,SELFHELP CMA QN 7 (4ME),SELFHELP COMMUNITY SERVICES INC,45-25 Kissena Boulevard,FLUSHING,NY,11375,QUEENS,718-321-8194,Y,9:00,5:00,9:00,5:00,9:00,5:00,9:00,5:00,9:00,5:00,0:00,0:00,0:00,0:00,40.751765,-73.820331,407.0,20.0,1205.0,4117390.0,4052000052.0,East Flushing,POINT (-73.820331 40.751765),"45-25 Kissena Boulevard, FLUSHING, NY 11375",120500
OLDER ADULT CENTER CONTRACTS,C5802,RAIN BOSTON ROAD OAC (C58),REGIONAL AID FOR INTERIM NEEDS INC,2424 Boston Road,BRONX,NY,10467,BRONX,718547-8827,Y,8:00,4:00,8:00,4:00,8:00,4:00,8:00,4:00,8:00,4:00,0:00,0:00,0:00,0:00,40.861733,-73.866616,211.0,13.0,330.0,2093401.0,2044310001.0,Bronxdale,POINT (-73.866616 40.861733),"2424 Boston Road, BRONX, NY 10467",033000
NATURALLY OCCURING RETIREMENT COMMUNITY CONTRACTS,N5701,MORNINGSIDE MRHS NORC (N57),MRHS,100 LASALLE STREET,NEW YORK,NY,10027,MANHATTAN,212-666-4000,Y,9:00,5:00,9:00,5:00,9:00,5:00,9:00,5:00,9:00,5:00,0:00,0:00,0:00,0:00,40.813512,-73.959058,109.0,7.0,211.0,1084114.0,1019780001.0,Morningside Heights,POINT (-73.959058 40.813512),"100 LASALLE STREET, NEW YORK, NY 10027",021100
NATURALLY OCCURING RETIREMENT COMMUNITY CONTRACTS,N6802,JASA BUSHWICK HYLAN NORC (N68),THE JEWISH ASSOCIATION FOR SERVICES FOR THE AGED,50 Humboldt Street,BROOKLYN,NY,11206,BROOKLYN,718-408-7532,Y,9:00,5:00,9:00,5:00,9:00,5:00,9:00,5:00,9:00,5:00,0:00,0:00,0:00,0:00,40.703179,-73.940761,301.0,34.0,489.0,3338434.0,3031290001.0,Bushwick South,POINT (-73.940761 40.703179),"50 Humboldt Street, BROOKLYN, NY 11206",048900
TRANSPORTATION SERVICES CONTRACTS,24601,JCCGCI - TRAN INDIVIDUAL RIDES - BK (246),JEWISH COMMUNITY COUNCIL OF GREATER CONEY ISLAND INC,3001 WEST 37 STREET,BROOKLYN,NY,11224,BROOKLYN,718-449-5000,Y,9:00,5:00,9:00,5:00,9:00,5:00,9:00,5:00,9:00,5:00,0:00,0:00,0:00,0:00,40.573177,-74.002509,313.0,47.0,340.0,3189617.0,3070650001.0,Seagate-Coney Island,POINT (-74.002509 40.573177),"3001 WEST 37 STREET, BROOKLYN, NY 11224",034000
NATURALLY OCCURING RETIREMENT COMMUNITY CONTRACTS,N5801,PENN SOUTH NORC (N58),PENN SOUTH SOCIAL SERVICES INC,290A 9TH AVENUE,NEW YORK,NY,10001,MANHATTAN,212-243-3670,Y,9:00,5:00,9:00,5:00,9:00,5:00,9:00,5:00,9:00,5:00,0:00,0:00,0:00,0:00,40.748925,-73.999545,104.0,3.0,97.0,1082794.0,1007510001.0,Hudson Yards-Chelsea-Flatiron-Union Square,POINT (-73.999545 40.748925),"290A 9TH AVENUE, NEW YORK, NY 10001",009700
CASE MANAGEMENT SERVICES CONTRACTS,4MH01,JASA CMA QN 14 (4MH),THE JEWISH ASSOCIATION FOR SERVICES FOR THE AGED,131 BEACH   19 STREET,FAR ROCKAWAY,NY,11691,QUEENS,718-471-6677,Y,9:00,5:00,9:00,5:00,9:00,5:00,9:00,5:00,9:00,5:00,0:00,0:00,0:00,0:00,40.593761,-73.753207,414.0,31.0,99802.0,4301622.0,4158100055.0,Far Rockaway-Bayswater,POINT (-73.753207 40.593761),"131 BEACH   19 STREET, FAR ROCKAWAY, NY 11691",099802
NATURALLY OCCURING RETIREMENT COMMUNITY CONTRACTS,N6501,STANLEY M. ISAACS NEIGHBORHOOD CENTER INC. (N65),STANLEY M ISAACS NEIGHBORHOOD CENTER INC,415 EAST   93 STREET,NEW YORK,NY,10128,MANHATTAN,212-360-7620,Y,9:00,5:00,9:00,5:00,9:00,5:00,9:00,5:00,9:00,5:00,0:00,0:00,0:00,0:00,40.780904,-73.945112,108.0,8.0,152.0,1082367.0,1015730001.0,Yorkville,POINT (-73.945112 40.780904),"415 EAST   93 STREET, NEW YORK, NY 10128",015200
NEW YORK CONNECTS CONTRACTS,5C401,CASC NY CONNECTS SI (5C4),COMMUNITY AGENCY FOR SENIOR CITIZENS INC,120 Stuyvesant Place Suite 409,STATEN ISLAND,NY,10301,STATEN ISLAND,718-489-3954,Y,9:00,5:00,9:00,5:00,9:00,5:00,9:00,5:00,9:00,5:00,0:00,0:00,0:00,0:00,40.643264,-74.077159,501.0,49.0,3.0,5000084.0,5000080060.0,West New Brighton-New Brighton-St. George,POINT (-74.077159 40.643264),"120 Stuyvesant Place Suite 409, STATEN ISLAND, NY 10301",000300
OLDER ADULT CENTER CONTRACTS,C5810,RAIN PARKCHESTER OAC (C58),REGIONAL AID FOR INTERIM NEEDS INC,1380 Metropolitan Avenue,BRONX,NY,10462,BRONX,718-597-9220,Y,8:00,4:00,8:00,4:00,8:00,4:00,8:00,4:00,8:00,4:00,0:00,0:00,0:00,0:00,40.835141,-73.861061,209.0,18.0,212.0,2096674.0,2039387501.0,Parkchester,POINT (-73.861061 40.835141),"1380 Metropolitan Avenue, BRONX, NY 10462",021200
OLDER ADULT CENTER CONTRACTS,C6301,ROCHDALE VILLAGE SC (C63),ROCHDALE VILLAGE SOCIAL SERVICES INC,169-65 137th Avenue,JAMAICA,NY,11434,QUEENS,718-525-2800,Y,9:00,5:00,9:00,5:00,9:00,5:00,9:00,5:00,9:00,5:00,0:00,0:00,0:00,0:00,40.672622,-73.770641,412.0,28.0,33402.0,4436348.0,4124950002.0,Springfield Gardens North,POINT (-73.770641 40.672622),"169-65 137th Avenue, JAMAICA, NY 11434",033404
OLDER ADULT CENTER CONTRACTS,C1718,CCNS GLENWOOD OAC (C17),CATHOLIC CHARITIES NEIGHBORHOOD SERVICES INC,5701 Avenue H,BROOKLYN,NY,11234,BROOKLYN,718-241-7711,Y,8:00,4:00,8:00,4:00,8:00,4:00,8:00,4:00,8:00,4:00,0:00,0:00,0:00,0:00,40.633288,-73.921555,318.0,45.0,94402.0,3331006.0,3079780001.0,Flatlands,POINT (-73.921555 40.633288),"5701 Avenue H, BROOKLYN, NY 11234",094402
OLDER ADULT CENTER CONTRACTS,W1101,EILEEN DUGAN SENIOR CENTER (W11),AMERICAN ITALIAN COALITION OF ORGANIZATIONS INC AMICO,378 Court Street,BROOKLYN,NY,11231,BROOKLYN,718-596-1956,Y,8:00,4:00,8:00,4:00,8:00,4:00,8:00,4:00,8:00,4:00,0:00,0:00,0:00,0:00,40.681371,-73.996391,306.0,39.0,65.0,3004823.0,3003510031.0,Carroll Gardens-Columbia Street-Red Hook,POINT (-73.996391 40.681371),"378 Court Street, BROOKLYN, NY 11231",006500
OLDER ADULT CENTER CONTRACTS,C5603,QCH POMONOK OAC (C56),QUEENS COMMUNITY HOUSE INC.,67-09 Kissena Blvd,FLUSHING,NY,11367,QUEENS,718-591-3377,Y,8:00,4:00,8:00,4:00,8:00,4:00,8:00,4:00,8:00,4:00,0:00,0:00,0:00,0:00,40.735033,-73.814726,408.0,24.0,122702.0,4455430.0,4067920030.0,Pomonok-Flushing Heights-Hillcrest,POINT (-73.814726 40.735033),"67-09 Kissena Blvd, FLUSHING, NY 11367",122702
OLDER ADULT CENTER CONTRACTS,W2301,SHOPP CASA BORICUA (OAC) (W23),THE NEIGHBORHOOD SELF-HELP BY OLDER PERSONS PROJECT INC,910 East 172 Street 1 Floor,BRONX,NY,10460,BRONX,718-542-0222,Y,9:00,5:00,9:00,5:00,9:00,5:00,9:00,5:00,9:00,5:00,0:00,0:00,0:00,0:00,40.834198,-73.890157,203.0,17.0,155.0,2010507.0,2029770103.0,Crotona Park East,POINT (-73.890157 40.834198),"910 East 172 Street 1 Floor, BRONX, NY 10460",015500
OLDER ADULT CENTER CONTRACTS,C0204,ALLEN AME COMMUNITY SENIOR CITIZENS CENTERS - LINDEN BLVD (C02),ALLEN AME CHURCH dba ALLEN COMMUNITY SENIOR CITIZENS CENTER,166-01 Linden Blvd,JAMAICA,NY,11434,QUEENS,718-658-0980,Y,8:00,4:00,8:00,4:00,8:00,4:00,8:00,4:00,8:00,4:00,0:00,0:00,0:00,0:00,40.690054,-73.783147,412.0,27.0,266.0,4435290.0,4123220001.0,South Jamaica,POINT (-73.783147 40.690054),"166-01 Linden Blvd, JAMAICA, NY 11434",026600
OLDER ADULT CENTER CONTRACTS,W2205,JASA ROY REUTHER (W22),THE JEWISH ASSOCIATION FOR SERVICES FOR THE AGED,711 Seagirt Avenue,FAR ROCKAWAY,NY,11691,QUEENS,718-471-3110,Y,8:00,4:00,8:00,4:00,8:00,4:00,8:00,4:00,8:00,4:00,0:00,0:00,0:00,0:00,40.595996,-73.742187,414.0,31.0,101002.0,4298968.0,4156100001.0,Far Rockaway-Bayswater,POINT (-73.742187 40.595996),"711 Seagirt Avenue, FAR ROCKAWAY, NY 11691",101002
OLDER ADULT CENTER CONTRACTS,C8305,JASA HOLLISWOOD OLDER ADULT CENTER (C83),THE JEWISH ASSOCIATION FOR SERVICES FOR THE AGED,86-25 Francis Lewis Boulevard,JAMAICA,NY,11427,QUEENS,718-454-6157,Y,8:00,4:00,8:00,4:00,8:00,4:00,8:00,4:00,8:00,4:00,0:00,0:00,0:00,0:00,40.724948,-73.765107,408.0,23.0,492.0,4226088.0,4106000019.0,Jamaica Estates-Holliswood,POINT (-73.765107 40.724948),"86-25 Francis Lewis Boulevard, JAMAICA, NY 11427",049201
OLDER ADULT CENTER CONTRACTS,C4706,JCCGCI MARLBORO OLDER ADULT CENTER (C47),JEWISH COMMUNITY COUNCIL OF GREATER CONEY ISLAND INC,2298 West 8th Street,BROOKLYN,NY,11223,BROOKLYN,718-373-6161,Y,8:00,4:00,8:00,4:00,8:00,4:00,8:00,4:00,8:00,4:00,0:00,0:00,0:00,0:00,40.592081,-73.978468,313.0,47.0,382.0,3322179.0,3071400016.0,Gravesend,POINT (-73.978468 40.592081),"2298 West 8th Street, BROOKLYN, NY 11223",038200
OLDER ADULT CENTER CONTRACTS,W2104,SELFHELP LATIMER (W21),SELFHELP COMMUNITY SERVICES INC,34-30 137th Street,FLUSHING,NY,11354,QUEENS,718-961-3660,Y,8:30,4:00,8:30,4:00,8:30,4:00,8:30,4:00,8:30,4:00,0:00,0:00,0:00,0:00,40.766044,-73.829935,407.0,20.0,88901.0,4443410.0,4049510008.0,Flushing,POINT (-73.829935 40.766044),"34-30 137th Street, FLUSHING, NY 11354",None
OLDER ADULT CENTER CONTRACTS,C6401,WOODSIDE OLDER ADULT CENTER (C64),SAMARITAN DAYTOP VILLAGE INC,50-37 Newtown Road,FLUSHING,NY,11377,QUEENS,718-932-6916,Y,7:45,3:45,7:45,3:45,7:45,3:45,7:45,3:45,7:45,3:45,0:00,0:00,0:00,0:00,40.753724,-73.911047,401.0,26.0,163.0,4430993.0,4007360002.0,Astoria,POINT (-73.911047 40.753724),"50-37 Newtown Road, FLUSHING, NY 11377",016300
OLDER ADULT CENTER CONTRACTS,W2008,SARATOGA SQ SENIOR (W20),RISEBORO COMMUNITY PARTNERSHIP INC,930 Halsey Street,BROOKLYN,NY,11233,BROOKLYN,347-425-0676,Y,9:00,5:00,9:00,5:00,9:00,5:00,9:00,5:00,9:00,5:00,0:00,0:00,0:00,0:00,40.685579,-73.916976,316.0,41.0,373.0,3339097.0,3014950013.0,Ocean Hill,POINT (-73.916976 40.685579),"930 Halsey Street, BROOKLYN, NY 11233",037300
OLDER ADULT CENTER CONTRACTS,W2105,SELFHELP MASPETH (W21),SELFHELP COMMUNITY SERVICES INC,69-61 Grand Avenue,FLUSHING,NY,11378,QUEENS,718-429-3636,Y,8:30,4:00,8:30,4:00,8:30,4:00,8:30,4:00,8:30,4:00,0:00,0:00,0:00,0:00,40.727019,-73.893556,405.0,30.0,49302.0,4058561.0,4025010032.0,Maspeth,POINT (-73.893556 40.727019),"69-61 Grand Avenue, FLUSHING, NY 11378",049302
OLDER ADULT CENTER CONTRACTS,C4703,JCCGCI JAY-HARAMA OLDER ADULT CENTER (C47),JEWISH COMMUNITY COUNCIL OF GREATER CONEY ISLAND INC,2600 Ocean Avenue,BROOKLYN,NY,11229,BROOKLYN,718-891-1110,Y,8:00,4:00,8:00,4:00,8:00,4:00,8:00,4:00,8:00,4:00,0:00,0:00,0:00,0:00,40.598158,-73.951186,315.0,48.0,578.0,3199766.0,3073520032.0,Madison,POINT (-73.951186 40.598158),"2600 Ocean Avenue, BROOKLYN, NY 11229",057800
OLDER ADULT CENTER CONTRACTS,C1801,ANDERSON NEIGHBORHOOD SENIOR CENTER (C18),CATHOLIC CHARITIES OF STATEN ISLAND INC.,120 Anderson Avenue,STATEN ISLAND,NY,10302,STATEN ISLAND,718-448-5757,Y,7:00,3:00,7:00,3:00,7:00,3:00,7:00,3:00,7:00,3:00,0:00,0:00,0:00,0:00,40.634927,-74.134422,501.0,49.0,213.0,5024253.0,5010360019.0,Port Richmond,POINT (-74.134422 40.634927),"120 Anderson Avenue, STATEN ISLAND, NY 10302",021300
OLDER ADULT CENTER CONTRACTS,C5701,MIDDLE VILLAGE OAC (C57),RABBI ISRAEL MEYER HACOHEN RABBINICAL SEMINARY OF AMERICA,69-10 75th Street,FLUSHING,NY,11379,QUEENS,718-894-3441,Y,8:00,4:00,8:00,4:00,8:00,4:00,8:00,4:00,8:00,4:00,0:00,0:00,0:00,0:00,40.709285,-73.876664,405.0,30.0,619.0,4091868.0,4037860020.0,Middle Village,POINT (-73.876664 40.709285),"69-10 75th Street, FLUSHING, NY 11379",061900
OLDER ADULT CENTER CONTRACTS,C9001,WAYSIDE OUT ROSETTA GASTON SENIOR CENTER (C90),WAYSIDE OUT-REACH DEVELOPMENT INC,460 Dumont Avenue,BROOKLYN,NY,11212,BROOKLYN,718-345-5665,Y,9:00,5:00,9:00,5:00,9:00,5:00,9:00,5:00,9:00,5:00,0:00,0:00,0:00,0:00,40.66514,-73.902222,316.0,42.0,910.0,3328133.0,3037970001.0,Brownsville,POINT (-73.902222 40.66514),"460 Dumont Avenue, BROOKLYN, NY 11212",091000
OLDER ADULT CENTER CONTRACTS,C4501,ITALIAN SENIOR CITIZENS CENTER (C45),ITALIAN SENIOR CITIZENS CENTER INC.,83-20 Queens Blvd,FLUSHING,NY,11373,QUEENS,718-335-7272,Y,9:00,4:00,9:00,4:00,9:00,4:00,9:00,4:00,9:00,4:00,0:00,0:00,0:00,0:00,40.737205,-73.879686,404.0,25.0,475.0,4057291.0,4024760017.0,Elmhurst,POINT (-73.879686 40.737205),"83-20 Queens Blvd, FLUSHING, NY 11373",047500
OLDER ADULT CENTER CONTRACTS,C3901,HANAC ANGELO PETROMELIS OLDER ADULT CENTER (C39),HANAC INC.,13-28 123rd Street,FLUSHING,NY,11356,QUEENS,718-961-0344,Y,8:00,3:30,8:00,3:30,8:00,3:30,8:00,3:30,8:00,3:30,0:00,0:00,0:00,0:00,40.786179,-73.844772,407.0,19.0,947.0,4096960.0,4039970035.0,College Point,POINT (-73.844772 40.786179),"13-28 123rd Street, FLUSHING, NY 11356",094700
OLDER ADULT CENTER CONTRACTS,C3510,STUYVESANT HEIGHTS OAC (C35),FORT GREENE COUNCIL,562-574 Madison Street,BROOKLYN,NY,11221,BROOKLYN,718-230-0824,Y,9:00,5:00,9:00,5:00,9:00,5:00,9:00,5:00,9:00,5:00,0:00,0:00,0:00,0:00,40.686471,-73.935295,303.0,36.0,293.0,3045125.0,3016450001.0,Stuyvesant Heights,POINT (-73.935295 40.686471),"562-574 Madison Street, BROOKLYN, NY 11221",029300
OLDER ADULT CENTER CONTRACTS,C4708,JCCGCI OCEAN PARKWAY OLDER ADULT CENTER (C47),JEWISH COMMUNITY COUNCIL OF GREATER CONEY ISLAND INC,1960 East 7th Street,BROOKLYN,NY,11223,BROOKLYN,718-4495000,Y,8:00,4:00,8:00,4:00,8:00,4:00,8:00,4:00,8:00,4:00,0:00,0:00,0:00,0:00,40.603084,-73.965083,315.0,47.0,418.0,3178703.0,3066820045.0,Homecrest,POINT (-73.965083 40.603084),"1960 East 7th Street, BROOKLYN, NY 11223",041800
OLDER ADULT CENTER CONTRACTS,C3502,MARCUS GARVEY (C35),FORT GREENE COUNCIL,1440 East New York Avenue,BROOKLYN,NY,11212,BROOKLYN,718-346-7167,Y,9:00,5:00,9:00,5:00,9:00,5:00,9:00,5:00,9:00,5:00,0:00,0:00,0:00,0:00,40.670654,-73.914575,316.0,41.0,902.0,3080727.0,3034960013.0,Brownsville,POINT (-73.914575 40.670654),"1440 East New York Avenue, BROOKLYN, NY 11212",090200
OLDER ADULT CENTER CONTRACTS,C7601,STANLEY ISAACS NSC/HOLMES OLDER ADULT CENTER (C76),STANLEY M ISAACS NEIGHBORHOOD CENTER INC,415 E 93rd Street,NEW YORK,NY,10128,MANHATTAN,212-360-7620,Y,9:00,5:00,9:00,5:00,9:00,5:00,9:00,5:00,9:00,5:00,0:00,0:00,0:00,0:00,40.780904,-73.945112,108.0,5.0,152.0,1082367.0,1015730001.0,Yorkville,POINT (-73.945112 40.780904),"415 E 93rd Street, NEW YORK, NY 10128",015200
OLDER ADULT CENTER CONTRACTS,C4707,JCCGCI MIDWOOD OLDER ADULT CENTER (C47),JEWISH COMMUNITY COUNCIL OF GREATER CONEY ISLAND INC,1625 Ocean Avenue,BROOKLYN,NY,11230,BROOKLYN,718-253-0508,Y,9:00,4:30,9:00,4:30,9:00,4:30,9:00,4:30,9:00,4:30,0:00,0:00,0:00,0:00,40.622341,-73.955743,314.0,45.0,760.0,3208316.0,3076200025.0,Midwood,POINT (-73.955743 40.622341),"1625 Ocean Avenue, BROOKLYN, NY 11230",076000
OLDER ADULT CENTER CONTRACTS,C7002,SNAP #2: BROOKVILLE OAC (C70),SERVICES NOW FOR ADULT PERSONS INC,133-33 Brookville Boulevard,JAMAICA,NY,11422,QUEENS,718-454-2100,Y,8:30,4:30,8:30,4:30,8:30,4:30,8:30,4:30,8:30,4:30,10:00,1:00,0:00,0:00,40.674396,-73.732749,413.0,31.0,61602.0,4279577.0,4129800001.0,Rosedale,POINT (-73.732749 40.674396),"133-33 Brookville Boulevard, JAMAICA, NY 11422",061602
OLDER ADULT CENTER CONTRACTS,C1001,BRONX HOUSE WEINBERG NEIGHBORHOOD SENIOR CENTER (C10),BRONX HOUSE INC,990 Pelham Parkway South,BRONX,NY,10461,BRONX,718-792-1800,Y,8:30,4:30,8:30,4:30,8:30,4:30,8:30,4:30,8:30,4:30,0:00,0:00,0:00,0:00,40.856804,-73.860354,211.0,13.0,248.0,2088568.0,2043287501.0,Pelham Parkway,POINT (-73.860354 40.856804),"990 Pelham Parkway South, BRONX, NY 10461",024800
OLDER ADULT CENTER CONTRACTS,C5806,RAIN INWOOD OAC (C58),REGIONAL AID FOR INTERIM NEEDS INC,84 Vermilyea Avenue,NEW YORK,NY,10034,MANHATTAN,212-567-3200,Y,8:00,4:00,8:00,4:00,8:00,4:00,8:00,4:00,8:00,4:00,0:00,0:00,0:00,0:00,40.865838,-73.923128,112.0,10.0,291.0,1064905.0,1022340029.0,Marble Hill-Inwood,POINT (-73.923128 40.865838),"84 Vermilyea Avenue, NEW YORK, NY 10034",029100
OLDER ADULT CENTER CONTRACTS,C0502,ARC XVI CENTRAL HARLEM CENTER (C05),ARC XVI FORT WASHINGTON INC,120 West 140th Street,NEW YORK,NY,10030,MANHATTAN,347-919-5072,Y,9:00,5:00,9:00,5:00,9:00,5:00,9:00,5:00,9:00,5:00,0:00,0:00,0:00,0:00,40.817579,-73.939272,110.0,9.0,230.0,1060054.0,1020080013.0,Central Harlem North-Polo Grounds,POINT (-73.939272 40.817579),"120 West 140th Street, NEW YORK, NY 10030",023000
OLDER ADULT CENTER CONTRACTS,W2206,JASA ROCKAWAY PARK (W22),THE JEWISH ASSOCIATION FOR SERVICES FOR THE AGED,106-20 Shore Front Parkway,FAR ROCKAWAY,NY,11694,QUEENS,718-634-3044,Y,8:00,4:00,8:00,4:00,8:00,4:00,8:00,4:00,8:00,4:00,0:00,0:00,0:00,0:00,40.580723,-73.826713,414.0,32.0,938.0,4303818.0,4161770035.0,Breezy Point-Belle Harbor-Rockaway Park-Broad Channel,POINT (-73.826713 40.580723),"106-20 Shore Front Parkway, FAR ROCKAWAY, NY 11694",093800
OLDER ADULT CENTER CONTRACTS,W1602,BRONX RIVER (W16),INSTITUTE FOR THE PUERTO RICAN HISPANIC ELDERLY INC,1619 East 174 Street,BRONX,NY,10472,BRONX,718-617-6334,Y,8:00,4:00,8:00,4:00,8:00,4:00,8:00,4:00,8:00,4:00,0:00,0:00,0:00,0:00,40.83395,-73.876147,209.0,18.0,62.0,2092909.0,2038860002.0,West Farms-Bronx River,POINT (-73.876147 40.83395),"1619 East 174 Street, BRONX, NY 10472",006200
OLDER ADULT CENTER CONTRACTS,C3506,ALBANY OAC (C35),FORT GREENE COUNCIL,196 Albany Avenue,BROOKLYN,NY,11213,BROOKLYN,718-773-2600,Y,9:00,5:00,9:00,5:00,9:00,5:00,9:00,5:00,9:00,5:00,0:00,0:00,0:00,0:00,40.67388,-73.938974,308.0,36.0,343.0,3031082.0,3012300044.0,Crown Heights North,POINT (-73.938974 40.67388),"196 Albany Avenue, BROOKLYN, NY 11213",034300
OLDER ADULT CENTER CONTRACTS,C6701,SEBCO SENIOR CENTER (C67),SEBCO DEVELOPMENT INC,887 Southern Boulevard,BRONX,NY,10459,BRONX,718-617-3465,Y,8:00,4:00,8:00,4:00,8:00,4:00,8:00,4:00,8:00,4:00,0:00,0:00,0:00,0:00,40.818913,-73.89355,202.0,17.0,89.0,2005752.0,2027220040.0,Hunts Point,POINT (-73.89355 40.818913),"887 Southern Boulevard, BRONX, NY 10459",008900
OLDER ADULT CENTER CONTRACTS,C1709,CCNS SEASIDE OAC (C17),CATHOLIC CHARITIES NEIGHBORHOOD SERVICES INC,320 Beach 94th Street,FAR ROCKAWAY,NY,11693,QUEENS,347-926-4119,Y,8:00,4:00,8:00,4:00,8:00,4:00,8:00,4:00,8:00,4:00,0:00,0:00,0:00,0:00,40.5877,-73.817309,414.0,32.0,94202.0,4303571.0,4161260004.0,Hammels-Arverne-Edgemere,POINT (-73.817309 40.5877),"320 Beach 94th Street, FAR ROCKAWAY, NY 11693",094202
OLDER ADULT CENTER CONTRACTS,W1909,PSS HIGHBRIDGE GARDENS (W19),PRESBYTERIAN SENIOR SERVICES,1145 University Avenue,BRONX,NY,10452,BRONX,347-918-9185,Y,8:00,4:00,8:00,4:00,8:00,4:00,8:00,4:00,8:00,4:00,0:00,0:00,0:00,0:00,40.837077,-73.928282,204.0,16.0,193.0,2095219.0,2025270032.0,Highbridge,POINT (-73.928282 40.837077),"1145 University Avenue, BRONX, NY 10452",019300
OLDER ADULT CENTER CONTRACTS,C9008,WAYSIDE OUT GLENMORE PLAZA SOCIAL CLUB (C90),WAYSIDE OUT-REACH DEVELOPMENT INC,1777 Pitkin Avenue,BROOKLYN,NY,11212,BROOKLYN,917-962-8276,Y,9:00,5:00,9:00,5:00,9:00,5:00,9:00,5:00,9:00,5:00,0:00,0:00,0:00,0:00,40.670168,-73.907561,316.0,37.0,906.0,3080766.0,3035070001.0,Brownsville,POINT (-73.907561 40.670168),"1777 Pitkin Avenue, BROOKLYN, NY 11212",090600
OLDER ADULT CENTER CONTRACTS,C1703,CCNS CATHERINE SHERIDAN OAC (C17),CATHOLIC CHARITIES NEIGHBORHOOD SERVICES INC,35-24 83rd Street,FLUSHING,NY,11372,QUEENS,718-458-4600,Y,8:30,4:30,8:30,4:30,8:30,4:30,8:30,4:30,8:30,4:30,0:00,0:00,0:00,0:00,40.751548,-73.883703,403.0,25.0,283.0,4437136.0,4014560001.0,Jackson Heights,POINT (-73.883703 40.751548),"35-24 83rd Street, FLUSHING, NY 11372",028300
OLDER ADULT CENTER CONTRACTS,C2202,CASC NEW LANE NSC (C22),COMMUNITY AGENCY FOR SENIOR CITIZENS INC,70 New Lane,STATEN ISLAND,NY,10301,STATEN ISLAND,718-448-5936,Y,8:00,4:00,8:00,4:00,8:00,4:00,8:00,4:00,8:00,4:00,0:00,0:00,0:00,0:00,40.612811,-74.062256,501.0,49.0,6.0,5042254.0,5028320068.0,Stapleton-Rosebank,POINT (-74.062256 40.612811),"70 New Lane, STATEN ISLAND, NY 10301",000600
OLDER ADULT CENTER CONTRACTS,C8601,UNITED NEIGHBORHOOD SENIOR CITIZENS CTR (C86),UNITED SENIOR CITIZENS OF SUNSET PARK INC,475 53rd Street,BROOKLYN,NY,11220,BROOKLYN,718-439-8647,Y,8:00,4:00,8:00,4:00,8:00,4:00,8:00,4:00,8:00,4:00,0:00,0:00,0:00,0:00,40.64386,-74.012767,307.0,38.0,76.0,3013917.0,3008070046.0,Sunset Park West,POINT (-74.012767 40.64386),"475 53rd Street, BROOKLYN, NY 11220",007600
OLDER ADULT CENTER CONTRACTS,C1716,CCNS WOODHAVEN-RICHMOND HILL OAC (C17),CATHOLIC CHARITIES NEIGHBORHOOD SERVICES INC,89-02 91st Street,JAMAICA,NY,11421,QUEENS,718-847-9200,Y,8:00,4:00,8:00,4:00,8:00,4:00,8:00,4:00,8:00,4:00,0:00,0:00,0:00,0:00,40.690455,-73.852946,409.0,32.0,18.0,4185709.0,4089720004.0,Woodhaven,POINT (-73.852946 40.690455),"89-02 91st Street, JAMAICA, NY 11421",001800
OLDER ADULT CENTER CONTRACTS,C7001,SNAP #1: EASTERN QUEENS OAC (ISC) (C70),SERVICES NOW FOR ADULT PERSONS INC,80-45 Winchester Blvd Bldg. 4,JAMAICA,NY,11427,QUEENS,718-525-8899,Y,8:30,4:30,8:30,4:30,8:30,4:30,8:30,4:30,8:30,4:30,0:00,0:00,0:00,0:00,40.737685,-73.734021,413.0,23.0,1567.0,4537294.0,4078800400.0,Bellerose,POINT (-73.734021 40.737685),"80-45 Winchester Blvd Bldg. 4, JAMAICA, NY 11427",156700
OLDER ADULT CENTER CONTRACTS,C0301,ALPHA PHI ALPHA SENIOR CITIZENS OAC (C03),ALPHA PHI ALPHA SENIOR CITIZENS CENTER INC,220-01 Linden Blvd,JAMAICA,NY,11411,QUEENS,718-528-8238,Y,9:00,5:00,9:00,5:00,9:00,5:00,9:00,5:00,9:00,5:00,0:00,0:00,0:00,0:00,40.695105,-73.740004,413.0,27.0,596.0,4244354.0,4113210006.0,Cambria Heights,POINT (-73.740004 40.695105),"220-01 Linden Blvd, JAMAICA, NY 11411",059600
OLDER ADULT CENTER CONTRACTS,C2501,FLORENCE E SMITH OAC (C25),CORONA CONGREGATIONAL CHURCH,102-19 34 Avenue,FLUSHING,NY,11368,QUEENS,718-899-0553,Y,8:00,4:00,8:00,4:00,8:00,4:00,8:00,4:00,8:00,4:00,0:00,0:00,0:00,0:00,40.755742,-73.865988,403.0,21.0,379.0,4042602.0,4017170033.0,North Corona,POINT (-73.865988 40.755742),"102-19 34 Avenue, FLUSHING, NY 11368",037900
OLDER ADULT CENTER CONTRACTS,C7301,ST. GABRIEL'S EPISCOPAL CHURCH OAC (C73),ST GABRIELS EPISCOPAL CHURCH,331 Hawthorne Street,BROOKLYN,NY,11225,BROOKLYN,718-773-4049,Y,9:00,5:00,9:00,5:00,9:00,5:00,9:00,5:00,9:00,5:00,0:00,0:00,0:00,0:00,40.657919,-73.949217,309.0,40.0,804.0,3000000.0,3048140071.0,Prospect Lefferts Gardens-Wingate,POINT (-73.949217 40.657919),"331 Hawthorne Street, BROOKLYN, NY 11225",080400
OLDER ADULT CENTER CONTRACTS,C7502,ST NICKS ALLIANCE SWINGING SIXTIES OAC 2 (C75),ST. NICKS ALLIANCE CORP.,211 Ainslie Street,BROOKLYN,NY,11211,BROOKLYN,718-963-3793,Y,9:00,4:00,9:00,4:00,9:00,4:00,9:00,4:00,9:00,4:00,0:00,0:00,0:00,0:00,40.712972,-73.945453,301.0,34.0,495.0,3069039.0,3027700001.0,East Williamsburg,POINT (-73.945453 40.712972),"211 Ainslie Street, BROOKLYN, NY 11211",049500
OLDER ADULT CENTER CONTRACTS,W2302,SHOPP SOUNDVIEW SOCIAL CLUB (W23),THE NEIGHBORHOOD SELF-HELP BY OLDER PERSONS PROJECT INC,1674 Seward Avenue,BRONX,NY,10473,BRONX,929-263-1182,Y,9:00,5:00,9:00,5:00,9:00,5:00,9:00,5:00,9:00,5:00,0:00,0:00,0:00,0:00,40.818255,-73.869832,209.0,18.0,20.0,2092638.0,2035510001.0,Soundview-Castle Hill-Clason Point-Harding Park,POINT (-73.869832 40.818255),"1674 Seward Avenue, BRONX, NY 10473",002001
OLDER ADULT CENTER CONTRACTS,C1701,CCNS BAYSIDE OAC (C17),CATHOLIC CHARITIES NEIGHBORHOOD SERVICES INC,221-15 Horace Harding Expressway,FLUSHING,NY,11364,QUEENS,718-225-1144,Y,8:00,4:00,8:00,4:00,8:00,4:00,8:00,4:00,8:00,4:00,0:00,0:00,0:00,0:00,40.749688,-73.756559,411.0,23.0,138501.0,4161696.0,4075270065.0,Oakland Gardens,POINT (-73.756559 40.749688),"221-15 Horace Harding Expressway, FLUSHING, NY 11364",138501
OLDER ADULT CENTER CONTRACTS,C5807,RAIN MIDDLETOWN OAC (C58),REGIONAL AID FOR INTERIM NEEDS INC,3035 Middletown Road,BRONX,NY,10461,BRONX,718-822-0486,Y,8:00,4:00,8:00,4:00,8:00,4:00,8:00,4:00,8:00,4:00,0:00,0:00,0:00,0:00,40.844355,-73.828806,210.0,13.0,26602.0,2046141.0,2041710024.0,Pelham Bay-Country Club-City Island,POINT (-73.828806 40.844355),"3035 Middletown Road, BRONX, NY 10461",026602
OLDER ADULT CENTER CONTRACTS,C1704,CCNS HOWARD BEACH OAC (C17),CATHOLIC CHARITIES NEIGHBORHOOD SERVICES INC,155-55 Cross Bay Blvd,JAMAICA,NY,11414,QUEENS,718-738-8100,Y,8:00,4:00,8:00,4:00,8:00,4:00,8:00,4:00,8:00,4:00,0:00,0:00,0:00,0:00,40.664372,-73.841152,410.0,32.0,884.0,4442269.0,4115880075.0,Lindenwood-Howard Beach,POINT (-73.841152 40.664372),"155-55 Cross Bay Blvd, JAMAICA, NY 11414",088400
OLDER ADULT CENTER CONTRACTS,C1802,WEST BRIGHTON NEIGHBORHOOD SENIOR CENTER (C18),CATHOLIC CHARITIES OF STATEN ISLAND INC.,230 Broadway,STATEN ISLAND,NY,10310,STATEN ISLAND,718-727-9793,Y,8:00,4:00,8:00,4:00,8:00,4:00,8:00,4:00,8:00,4:00,0:00,0:00,0:00,0:00,40.636486,-74.117523,501.0,49.0,13301.0,5095818.0,5001960001.0,West New Brighton-New Brighton-St. George,POINT (-74.117523 40.636486),"230 Broadway, STATEN ISLAND, NY 10310",013301
OLDER ADULT CENTER CONTRACTS,C4801,KIPS BAY CASTLE HILL OAC (C48),KIPS BAY BOYS AND GIRLS CLUB,625 Castle Hill Avenue,BRONX,NY,10473,BRONX,718-319-9156,Y,8:00,4:00,8:00,4:00,8:00,4:00,8:00,4:00,8:00,4:00,0:00,0:00,0:00,0:00,40.819754,-73.848209,209.0,18.0,86.0,2092673.0,2035700001.0,Soundview-Castle Hill-Clason Point-Harding Park,POINT (-73.848209 40.819754),"625 Castle Hill Avenue, BRONX, NY 10473",008600
OLDER ADULT CENTER CONTRACTS,C9003,WAYSIDE OUT TILDEN SENIOR CENTER (C90),WAYSIDE OUT-REACH DEVELOPMENT INC,630 Mother Gaston Blvd,BROOKLYN,NY,11212,BROOKLYN,718-498-2990,Y,9:00,5:00,9:00,5:00,9:00,5:00,9:00,5:00,9:00,5:00,0:00,0:00,0:00,0:00,40.663471,-73.905278,316.0,41.0,912.0,3326549.0,3035760001.0,Brownsville,POINT (-73.905278 40.663471),"630 Mother Gaston Blvd, BROOKLYN, NY 11212",091200
OLDER ADULT CENTER CONTRACTS,C1711,CCNS PETE MCGUINNESS OAC (C17),CATHOLIC CHARITIES NEIGHBORHOOD SERVICES INC,715 Leonard Street,BROOKLYN,NY,11222,BROOKLYN,718-383-1940,Y,8:00,4:00,8:00,4:00,8:00,4:00,8:00,4:00,8:00,4:00,0:00,0:00,0:00,0:00,40.729007,-73.95276,301.0,33.0,575.0,3333076.0,3025740053.0,Greenpoint,POINT (-73.95276 40.729007),"715 Leonard Street, BROOKLYN, NY 11222",057500
OLDER ADULT CENTER CONTRACTS,C4901,KOREAN COMMUNITY SERVICES CORONA OAC (C49),KOREAN COMMUNITY SERVICES OF METROPOLITAN NEW YORK INC,37-06 111th Street,FLUSHING,NY,11368,QUEENS,718-651-9220,Y,9:00,5:00,9:00,5:00,9:00,5:00,9:00,5:00,9:00,5:00,0:00,0:00,0:00,0:00,40.753941,-73.857264,403.0,21.0,401.0,4430244.0,4017780027.0,North Corona,POINT (-73.857264 40.753941),"37-06 111th Street, FLUSHING, NY 11368",040102
OLDER ADULT CENTER CONTRACTS,W2102,SELFHELP BENJAMIN ROSENTHAL (W21),SELFHELP COMMUNITY SERVICES INC,45-25 Kissena Boulevard,FLUSHING,NY,11355,QUEENS,718-886-5777,Y,8:30,4:00,8:30,4:00,8:30,4:00,8:30,4:00,8:30,4:00,8:30,4:00,0:00,0:00,40.751765,-73.820331,407.0,20.0,1205.0,4117390.0,4052000052.0,East Flushing,POINT (-73.820331 40.751765),"45-25 Kissena Boulevard, FLUSHING, NY 11355",120500
OLDER ADULT CENTER CONTRACTS,C5805,RAIN GUNHILL OAC (C58),REGIONAL AID FOR INTERIM NEEDS INC,3377 White Plains Road,BRONX,NY,10462,BRONX,718-881-5589,Y,8:00,4:00,8:00,4:00,8:00,4:00,8:00,4:00,8:00,4:00,0:00,0:00,0:00,0:00,40.874872,-73.86706,212.0,12.0,374.0,2087299.0,2046240037.0,Williamsbridge-Olinville,POINT (-73.86706 40.874872),"3377 White Plains Road, BRONX, NY 10462",037400
OLDER ADULT CENTER CONTRACTS,W1401,ENCORE AT ST MALACHY'S (W14),ENCORE COMMUNITY SERVICES,239 West 49th Street,NEW YORK,NY,10019,MANHATTAN,212-581-2910,Y,8:00,4:00,8:00,4:00,8:00,4:00,8:00,4:00,8:00,4:00,0:00,0:00,0:00,0:00,40.761143,-73.985312,105.0,3.0,125.0,1024789.0,1010210009.0,Midtown-Midtown South,POINT (-73.985312 40.761143),"239 West 49th Street, NEW YORK, NY 10019",012500
OLDER ADULT CENTER CONTRACTS,C2602,POLO GROUNDS SATELLITE (MN10) (C26),COTHOA LUNCHEON CLUB INC,2965 Frederick Douglass Blvd,NEW YORK,NY,10039,MANHATTAN,212-283-5475,Y,9:00,5:00,9:00,5:00,9:00,5:00,9:00,5:00,9:00,5:00,0:00,0:00,0:00,0:00,40.830242,-73.9365,110.0,9.0,24302.0,1084520.0,1021060003.0,Central Harlem North-Polo Grounds,POINT (-73.9365 40.830242),"2965 Frederick Douglass Blvd, NEW YORK, NY 10039",024302
OLDER ADULT CENTER CONTRACTS,C3508,GRANT SQ OAC (C35),FORT GREENE COUNCIL,19 Rogers Avenue,BROOKLYN,NY,11216,BROOKLYN,718-363-3133,Y,9:00,5:00,9:00,5:00,9:00,5:00,9:00,5:00,9:00,5:00,0:00,0:00,0:00,0:00,40.676909,-73.952667,308.0,36.0,315.0,3030302.0,3012120006.0,Crown Heights North,POINT (-73.952667 40.676909),"19 Rogers Avenue, BROOKLYN, NY 11216",031500
OLDER ADULT CENTER CONTRACTS,C7705,TODT HILL OAC (C77),STATEN ISLAND COMMUNITY SERVICES FRIENDSHIP CLUBS INC,184 SCHMIDTS LANE,STATEN ISLAND,NY,10314,STATEN ISLAND,718-698-7979,Y,8:00,4:00,8:00,4:00,8:00,4:00,8:00,4:00,8:00,4:00,0:00,0:00,0:00,0:00,40.609058,-74.119053,502.0,49.0,173.0,5108960.0,5007060001.0,New Springville-Bloomfield-Travis,POINT (-74.119053 40.609058),"184 SCHMIDTS LANE, STATEN ISLAND, NY 10314",017300
OLDER ADULT CENTER CONTRACTS,C5901,RIDGEWOOD OLDER ADULT CENTER AND SERVICES (C59),RIDGEWOOD OLDER ADULT CENTER AND SERVICES INC,5914 70th Avenue,FLUSHING,NY,11385,QUEENS,718-456-2000,Y,8:30,4:00,8:30,4:00,8:30,4:00,8:30,4:00,8:30,4:00,0:00,0:00,0:00,0:00,40.701191,-73.900024,405.0,30.0,583.0,4084122.0,4035080009.0,Ridgewood,POINT (-73.900024 40.701191),"5914 70th Avenue, FLUSHING, NY 11385",058300
OLDER ADULT CENTER CONTRACTS,W1703,STAPELTON OAC (W17),JEWISH COMMUNITY CENTER OF STATEN ISLAND INC,189 Gordon Street,STATEN ISLAND,NY,10304,STATEN ISLAND,718-981-8828,Y,8:00,4:00,8:00,4:00,8:00,4:00,8:00,4:00,8:00,4:00,0:00,0:00,0:00,0:00,40.623124,-74.082838,501.0,49.0,29.0,5108860.0,5005450100.0,Stapleton-Rosebank,POINT (-74.082838 40.623124),"189 Gordon Street, STATEN ISLAND, NY 10304",002900
